{"type": "FeatureCollection", "name": "agriprove-national-catchments", "crs": {"type": "name", "properties": {"name": "EPSG:4283"}}, "features": [{"type": "Feature", "properties": {"label": "Condamine-Culgoa", "state": "Qld", "division": "Murray-Darling Basin", "area_ha": 16795509, "official_name": "CONDAMINE-CULGOA RIVERS", "carbon": true, "water": true, "water_scheme": "ACWIS", "zone": false}, "geometry": {"type": "Polygon", "coordinates": [[[148.4032, -25.4382], [148.2938, -25.6462], [148.3204, -25.7154], [148.2582, -25.7729], [148.2804, -25.8999], [148.2424, -25.9582], [148.2454, -26.0593], [148.2829, -26.0679], [148.3846, -26.0012], [148.5004, -26.0443], [148.5774, -26.0129], [148.6746, -26.0215], [148.7107, -26.0432], [148.716, -26.1137], [148.7674, -26.1182], [148.7926, -26.1754], [148.9885, -26.2407], [149.0007, -26.3079], [149.0776, -26.2724], [149.186, -26.3212], [149.4149, -26.2743], [149.4482, -26.3229], [149.4871, -26.3104], [149.6326, -26.3624], [149.7221, -26.3207], [149.7279, -26.3899], [149.9593, -26.4262], [150.1199, -26.3471], [150.1204, -26.2985], [150.1979, -26.3043], [150.2235, -26.2596], [150.1838, -26.2382], [150.2093, -26.1851], [150.1685, -26.1676], [150.2024, -26.1243], [150.4988, -26.2587], [150.6126, -26.2787], [150.8168, -26.2199], [150.8785, -26.2651], [150.9265, -26.1679], [151.0076, -26.1974], [151.0488, -26.1774], [151.0676, -26.2251], [151.1201, -26.2485], [151.1151, -26.336], [151.1896, -26.3415], [151.2354, -26.3887], [151.2124, -26.5137], [151.4051, -26.6474], [151.4207, -26.7457], [151.5204, -26.7665], [151.5768, -26.8799], [151.6474, -26.9129], [151.7432, -27.0282], [151.7401, -27.0721], [151.7757, -27.0799], [151.9038, -27.2474], [151.9685, -27.2385], [152.0657, -27.3207], [152.071, -27.361], [151.9382, -27.4749], [151.9874, -27.5799], [151.9424, -27.6326], [151.9857, -27.6499], [151.994, -27.7635], [152.0332, -27.7593], [152.0554, -27.8157], [152.1432, -27.8237], [152.1515, -27.8762], [152.2226, -27.9482], [152.3818, -27.966], [152.3901, -28.0596], [152.4874, -28.2537], [152.4146, -28.2985], [152.3871, -28.3676], [152.3096, -28.3626], [152.2176, -28.4493], [152.1629, -28.4324], [152.0696, -28.4685], [152.0149, -28.5301], [151.9388, -28.4968], [151.8593, -28.5176], [151.8454, -28.4726], [151.701, -28.3876], [151.6926, -28.3087], [151.509, -28.259], [151.4443, -28.1615], [151.4457, -28.1049], [151.3568, -28.0732], [151.3079, -28.0096], [151.2113, -27.9854], [151.1954, -27.9099], [151.0754, -27.7632], [151.0899, -27.5915], [151.0176, -27.5665], [150.9279, -27.5849], [150.844, -27.5424], [150.7979, -27.4274], [150.8465, -27.3368], [150.7879, -27.2707], [150.6779, -27.3282], [150.5763, -27.3226], [150.446, -27.3949], [150.439, -27.4376], [150.2596, -27.4854], [150.226, -27.5424], [150.1535, -27.4982], [150.1274, -27.5365], [149.8257, -27.504], [149.7971, -27.5287], [149.7032, -27.5221], [149.6413, -27.4721], [149.5046, -27.4574], [149.4765, -27.4029], [149.4068, -27.4201], [149.3182, -27.3918], [149.179, -27.6387], [149.0896, -27.6887], [148.9685, -27.6599], [148.9113, -27.7065], [148.9221, -27.7376], [148.8251, -27.7921], [148.7888, -27.8721], [148.7149, -27.8601], [148.7265, -27.9237], [148.6693, -27.9896], [148.711, -28.0162], [148.7732, -28.3049], [148.7665, -28.3918], [148.7196, -28.4301], [148.7115, -28.4904], [148.8343, -28.6532], [148.8221, -28.7296], [148.7274, -28.7554], [148.8046, -28.8296], [148.779, -28.8879], [148.6946, -28.9418], [148.6668, -29.0343], [148.5985, -29.0765], [148.6085, -29.2132], [148.5618, -29.3129], [148.5974, -29.3779], [148.5054, -29.4454], [148.5049, -29.5526], [148.4396, -29.6401], [148.369, -29.6504], [148.3515, -29.7618], [148.1929, -29.8207], [148.1638, -29.9126], [148.0929, -29.9857], [148.0799, -30.0729], [148.0629, -30.0382], [147.9907, -30.0315], [147.9199, -30.0435], [147.864, -30.094], [147.8296, -30.0537], [147.7565, -30.0601], [147.6388, -30.1429], [147.5021, -30.1068], [147.3754, -30.1451], [147.2301, -30.1365], [147.1201, -30.0579], [147.0507, -30.0701], [147.0363, -30.0374], [146.9996, -30.0471], [146.9601, -30.014], [146.8304, -30.0426], [146.8093, -29.9715], [146.709, -29.9568], [146.7068, -29.9337], [146.5271, -30.0101], [146.5207, -29.9754], [146.449, -29.9496], [146.3901, -29.9871], [146.2699, -29.9376], [146.1482, -29.9415], [146.0707, -29.9776], [146.0351, -29.9574], [146.0226, -29.9807], [145.9251, -29.8254], [146.0071, -29.7832], [145.9874, -29.754], [146.0185, -29.7246], [145.9838, -29.7004], [145.9679, -29.6118], [145.8785, -29.5474], [145.8971, -29.371], [145.8643, -29.2707], [145.8993, -29.2107], [145.8679, -29.0371], [145.9221, -28.9615], [145.8726, -28.8987], [145.8874, -28.7768], [145.8207, -28.684], [145.8271, -28.6199], [145.7782, -28.519], [145.7951, -28.4001], [145.7488, -28.2876], [145.7954, -28.2265], [145.7771, -28.1537], [145.8413, -27.9757], [145.8188, -27.9268], [145.8679, -27.8593], [145.8393, -27.849], [145.8615, -27.8201], [145.8226, -27.7301], [145.8499, -27.7029], [145.8343, -27.6165], [145.9379, -27.3476], [146.0207, -27.2671], [145.9785, -27.1551], [146.0393, -27.1271], [145.9985, -27.0896], [146.0451, -27.0343], [146.0554, -26.934], [146.0901, -26.884], [146.1943, -26.8537], [146.1888, -26.799], [146.2301, -26.7415], [146.421, -26.7679], [146.4601, -26.7404], [146.4932, -26.7893], [146.5579, -26.7851], [146.7129, -26.639], [146.904, -26.6799], [146.9624, -26.6154], [147.0471, -26.6532], [147.1254, -26.5043], [147.2029, -26.5021], [147.2546, -26.4315], [147.2935, -26.4262], [147.3154, -26.3007], [147.3949, -26.2646], [147.3865, -26.1857], [147.4582, -26.1299], [147.4585, -25.9899], [147.269, -25.9074], [147.244, -25.7607], [147.3318, -25.7318], [147.3893, -25.5926], [147.4715, -25.5526], [147.4929, -25.3768], [147.5888, -25.3337], [147.7413, -25.2007], [147.7532, -25.1568], [147.7168, -25.0929], [147.7424, -25.0321], [147.9554, -24.8793], [148.0576, -24.914], [148.0835, -25.001], [148.1596, -25.0846], [148.209, -25.081], [148.2946, -25.164], [148.3024, -25.2149], [148.3596, -25.2337], [148.3871, -25.289], [148.3571, -25.3801], [148.4032, -25.4382]]]}}, {"type": "Feature", "properties": {"label": "Fitzroy", "state": "Qld", "division": "North East Coast", "area_ha": 14258462, "official_name": "FITZROY RIVER (QLD)", "carbon": true, "water": true, "water_scheme": "Reef Credits", "zone": true}, "geometry": {"type": "Polygon", "coordinates": [[[149.1749, -21.6193], [149.224, -21.7349], [149.2082, -21.7774], [149.2899, -21.8043], [149.2704, -21.921], [149.3546, -21.9626], [149.4293, -22.0771], [149.3693, -22.1165], [149.3913, -22.2574], [149.3199, -22.3026], [149.314, -22.349], [149.3271, -22.4254], [149.3879, -22.4693], [149.3774, -22.6643], [149.4513, -22.7454], [149.4138, -22.7749], [149.4404, -22.8387], [149.5285, -22.826], [149.5393, -22.8615], [149.6399, -22.8899], [149.7593, -22.8093], [149.7546, -22.7668], [149.8651, -22.7601], [149.9351, -22.706], [149.9554, -22.7679], [150.1129, -22.9401], [150.2132, -22.991], [150.2843, -22.8851], [150.3785, -22.8654], [150.3565, -22.8357], [150.379, -22.7551], [150.4676, -22.7951], [150.5813, -22.7315], [150.6163, -22.8307], [150.5796, -22.8607], [150.6976, -22.9554], [150.6957, -23.0654], [150.7335, -23.1043], [150.7265, -23.1868], [150.6682, -23.2646], [150.7129, -23.3282], [150.6976, -23.3999], [150.7532, -23.4315], [150.7518, -23.4715], [150.7949, -23.476], [150.8115, -23.409], [150.8704, -23.4785], [150.8496, -23.5074], [150.6593, -23.4862], [150.6332, -23.5187], [150.7049, -23.5079], [150.7193, -23.546], [150.6863, -23.5726], [150.7024, -23.5832], [150.7057, -23.5624], [150.7246, -23.5685], [150.7004, -23.6249], [150.7365, -23.5896], [150.7871, -23.6174], [150.8038, -23.5626], [150.854, -23.5679], [150.8568, -23.6157], [150.8385, -23.606], [150.8315, -23.5921], [150.8238, -23.5893], [150.8157, -23.5954], [150.8204, -23.6124], [150.7999, -23.6085], [150.7951, -23.6124], [150.7963, -23.619], [150.8204, -23.6143], [150.8299, -23.5926], [150.8188, -23.6349], [150.8193, -23.6374], [150.8254, -23.6418], [150.8315, -23.6418], [150.8349, -23.639], [150.8368, -23.6399], [150.8388, -23.6554], [150.8374, -23.6385], [150.8201, -23.6365], [150.8251, -23.6149], [150.8618, -23.6171], [150.8715, -23.5799], [150.8971, -23.6257], [150.9251, -23.6212], [150.9301, -23.679], [150.9301, -23.6201], [150.9646, -23.609], [150.979, -23.556], [151.0057, -23.6804], [150.9849, -23.7387], [151.0046, -23.804], [150.8913, -23.8568], [150.8499, -23.9701], [150.6849, -23.9504], [150.7318, -24.0851], [150.7188, -24.1382], [150.7865, -24.1535], [150.806, -24.2171], [150.9207, -24.2596], [151.0374, -24.3849], [150.9913, -24.4115], [150.9743, -24.5779], [150.909, -24.6199], [150.8738, -24.721], [150.6521, -24.6907], [150.5993, -24.7251], [150.5974, -24.7754], [150.5688, -24.7835], [150.6032, -24.8757], [150.5501, -24.9074], [150.5351, -24.969], [150.5649, -24.9954], [150.5368, -25.0393], [150.5632, -25.0607], [150.5613, -25.1543], [150.4724, -25.1915], [150.3693, -25.479], [150.4007, -25.5085], [150.4026, -25.5979], [150.4354, -25.6007], [150.4557, -25.6512], [150.4235, -25.666], [150.4224, -25.7857], [150.3713, -25.8129], [150.4143, -25.8487], [150.4126, -25.8932], [150.3501, -25.9107], [150.306, -25.9965], [150.3396, -26.149], [150.1901, -26.1307], [150.1688, -26.1707], [150.2093, -26.1854], [150.1838, -26.2382], [150.2235, -26.2587], [150.1979, -26.3043], [150.1204, -26.2985], [150.1196, -26.3468], [149.9593, -26.4262], [149.7279, -26.3899], [149.7221, -26.3207], [149.6326, -26.3624], [149.4871, -26.3104], [149.4485, -26.3226], [149.4149, -26.2743], [149.186, -26.3212], [149.0776, -26.2724], [148.9996, -26.3076], [148.9885, -26.2407], [148.7926, -26.1754], [148.7674, -26.1182], [148.716, -26.1137], [148.7107, -26.0432], [148.6746, -26.0215], [148.5774, -26.0129], [148.5004, -26.0443], [148.3846, -26.0012], [148.2829, -26.0679], [148.2454, -26.0593], [148.2424, -25.9582], [148.2804, -25.8999], [148.2601, -25.7649], [148.3204, -25.7154], [148.304, -25.6032], [148.4029, -25.4421], [148.3535, -25.3454], [148.3868, -25.2804], [148.3474, -25.2204], [148.3024, -25.2149], [148.2351, -25.1015], [148.1596, -25.0846], [148.0901, -25.0107], [148.0576, -24.914], [147.9518, -24.8829], [147.8246, -24.7357], [147.7365, -24.7285], [147.5815, -24.8324], [147.5085, -24.8212], [147.4865, -24.8801], [147.3213, -24.8704], [147.2335, -24.9885], [147.1693, -24.9924], [147.1365, -24.9568], [147.1085, -24.9982], [146.999, -25.0385], [146.871, -24.8615], [146.9004, -24.811], [146.8782, -24.7679], [146.9443, -24.7001], [146.9338, -24.6751], [146.8646, -24.5851], [146.7632, -24.664], [146.6663, -24.6132], [146.6807, -24.5751], [146.5729, -24.4154], [146.6888, -24.3757], [146.7232, -24.3804], [146.7182, -24.3962], [146.7251, -24.4035], [146.724, -24.4221], [146.7304, -24.4282], [146.794, -24.4171], [146.8118, -24.3771], [146.9154, -24.3226], [146.9568, -24.1643], [147.1838, -24.0843], [147.204, -24.0201], [147.1615, -23.9762], [147.2415, -23.9043], [147.2404, -23.8068], [147.199, -23.7729], [147.1965, -23.6096], [147.2182, -23.5507], [147.2824, -23.5229], [147.2493, -23.4549], [147.294, -23.3235], [147.2585, -23.191], [147.3118, -23.0507], [147.3921, -22.9599], [147.3599, -22.9174], [147.3682, -22.8265], [147.3985, -22.7574], [147.4296, -22.7529], [147.4271, -22.6515], [147.629, -22.6276], [147.6251, -22.5957], [147.7101, -22.5226], [147.7438, -22.5451], [147.771, -22.5115], [147.8201, -22.5393], [147.9038, -22.5215], [147.9449, -22.5515], [148.0638, -22.4629], [148.0499, -22.3801], [147.9304, -22.3257], [147.9171, -22.2482], [147.8801, -22.229], [147.8788, -22.1346], [147.7929, -22.0576], [147.7668, -21.9507], [147.7896, -21.864], [147.8304, -21.8746], [147.8665, -21.8307], [147.8688, -21.7915], [147.8143, -21.7757], [147.9032, -21.6757], [147.9438, -21.6751], [147.9954, -21.5701], [148.0668, -21.5443], [148.076, -21.4557], [148.1457, -21.4618], [148.1365, -21.4301], [148.1676, -21.4115], [148.306, -21.4182], [148.344, -21.3782], [148.4035, -21.3818], [148.4701, -21.2735], [148.5474, -21.3701], [148.6826, -21.3779], [148.7107, -21.3474], [148.7907, -21.389], [148.821, -21.4587], [148.9007, -21.4721], [148.9096, -21.3812], [149.0326, -21.3537], [149.0754, -21.3904], [149.0865, -21.4899], [149.1926, -21.5007], [149.1749, -21.6193]]]}}, {"type": "Feature", "properties": {"label": "Burdekin", "state": "Qld", "division": "North East Coast", "area_ha": 13105890, "official_name": "BURDEKIN RIVER", "carbon": true, "water": true, "water_scheme": "Reef Credits", "zone": true}, "geometry": {"type": "Polygon", "coordinates": [[[145.8301, -18.8165], [146.004, -18.8779], [146.0207, -18.9185], [146.1879, -18.9412], [146.1668, -19.0137], [146.2385, -19.0143], [146.236, -19.0451], [146.2996, -19.0693], [146.3118, -19.1151], [146.394, -19.1479], [146.4221, -19.2118], [146.4007, -19.2526], [146.4301, -19.2749], [146.4113, -19.2896], [146.5774, -19.4621], [146.5863, -19.5104], [146.539, -19.5826], [146.5571, -19.6793], [146.4985, -19.6974], [146.591, -19.741], [146.5865, -19.8385], [146.6401, -19.8718], [146.6435, -19.911], [146.7251, -19.8924], [146.7876, -19.9424], [146.8732, -19.9168], [146.9421, -19.9885], [147.1674, -19.9371], [147.2218, -19.9004], [147.2701, -19.7062], [147.3554, -19.6687], [147.3663, -19.5885], [147.4854, -19.5257], [147.5471, -19.5479], [147.5504, -19.5387], [147.5399, -19.5235], [147.5401, -19.5171], [147.5632, -19.561], [147.5743, -19.6004], [147.549, -19.5865], [147.514, -19.5937], [147.5732, -19.6068], [147.5882, -19.6526], [147.5226, -19.6649], [147.506, -19.649], [147.4849, -19.6493], [147.5818, -19.7076], [147.5732, -19.7443], [147.5888, -19.7257], [147.686, -19.844], [147.6868, -19.9201], [147.6479, -19.9762], [147.5749, -19.9826], [147.5738, -20.0507], [147.6801, -20.1287], [147.7846, -20.091], [147.8293, -20.126], [147.9026, -20.269], [148.0313, -20.3212], [148.0018, -20.4249], [148.0968, -20.5657], [148.141, -20.5218], [148.1926, -20.5701], [148.2857, -20.5676], [148.3754, -20.7032], [148.4313, -20.7057], [148.4763, -20.7974], [148.589, -20.8521], [148.6415, -20.9554], [148.6379, -21.0254], [148.5985, -21.0165], [148.4871, -21.1349], [148.5688, -21.1765], [148.5332, -21.3332], [148.4701, -21.2735], [148.3999, -21.3835], [148.344, -21.3782], [148.306, -21.4182], [148.1676, -21.4115], [148.1365, -21.4301], [148.1457, -21.4618], [148.0782, -21.4535], [148.0668, -21.5443], [147.9954, -21.5701], [147.9438, -21.6751], [147.9032, -21.6757], [147.8143, -21.7757], [147.8724, -21.8068], [147.8393, -21.8685], [147.779, -21.8868], [147.7804, -22.0332], [147.8788, -22.1346], [147.8801, -22.229], [147.9171, -22.2482], [147.9304, -22.3257], [148.0499, -22.3801], [148.064, -22.4624], [147.9449, -22.5515], [147.9038, -22.5215], [147.8201, -22.5393], [147.771, -22.5115], [147.7438, -22.5451], [147.7101, -22.5226], [147.6251, -22.5957], [147.629, -22.6276], [147.4221, -22.6587], [147.4307, -22.7496], [147.3699, -22.816], [147.3596, -22.911], [147.3921, -22.9599], [147.3118, -23.0507], [147.2585, -23.191], [147.294, -23.3235], [147.2493, -23.4549], [147.2824, -23.5229], [147.2182, -23.5507], [147.1965, -23.6096], [147.199, -23.7729], [147.2404, -23.8068], [147.2415, -23.9043], [147.1615, -23.9762], [147.2024, -24.0379], [147.1804, -24.0904], [146.9563, -24.1637], [146.9143, -24.324], [146.8118, -24.3771], [146.794, -24.4171], [146.7307, -24.4282], [146.7232, -24.3804], [146.6876, -24.3757], [146.551, -24.4387], [146.5129, -24.3843], [146.4221, -24.3524], [146.3615, -24.2618], [146.4085, -24.1776], [146.3743, -24.1332], [146.4254, -24.0107], [146.4101, -23.9651], [146.4451, -23.929], [146.384, -23.7835], [146.3976, -23.7499], [146.3513, -23.7476], [146.2557, -23.6301], [146.2871, -23.5771], [146.2874, -23.4674], [146.2024, -23.4235], [146.1832, -23.3746], [146.2307, -23.2926], [146.194, -23.2496], [146.1338, -23.2532], [146.2032, -23.1515], [146.1443, -23.1079], [146.1718, -23.0707], [146.1429, -22.9804], [146.099, -22.9771], [146.0943, -22.7187], [146.046, -22.6462], [146.0763, -22.5882], [146.0526, -22.5171], [146.1174, -22.4265], [146.0857, -22.391], [146.121, -22.3182], [146.1029, -22.2282], [146.0726, -22.2235], [146.0868, -22.1718], [146.0557, -22.1249], [146.0057, -22.1232], [145.9821, -22.0582], [145.9549, -22.1029], [145.8732, -22.0701], [145.7249, -22.1035], [145.7018, -22.0468], [145.5926, -21.9671], [145.6018, -21.8776], [145.7249, -21.8332], [145.8176, -21.8596], [145.8568, -21.909], [145.9796, -21.8943], [146.0979, -21.7604], [146.0726, -21.6732], [146.1018, -21.6387], [146.0876, -21.4946], [145.9368, -21.3924], [145.7329, -21.161], [145.6668, -21.1749], [145.5818, -21.3001], [145.6251, -21.3926], [145.5821, -21.5029], [145.4699, -21.4143], [145.4474, -21.3357], [145.374, -21.3437], [145.2688, -21.191], [145.2893, -21.0504], [145.3438, -21.0262], [145.3532, -20.951], [145.3015, -20.941], [145.2146, -20.8579], [145.1715, -20.7054], [145.094, -20.6446], [145.1346, -20.5649], [145.1135, -20.4235], [144.974, -20.3687], [144.9232, -20.3204], [144.9415, -20.2404], [144.7935, -20.1426], [144.8024, -20.0793], [144.761, -20.0451], [144.8035, -20.0174], [144.7774, -19.9235], [144.694, -19.9024], [144.6318, -19.9221], [144.614, -19.9676], [144.5068, -19.9501], [144.4299, -19.976], [144.4079, -19.9365], [144.321, -19.9074], [144.301, -19.7899], [144.2599, -19.7721], [144.2349, -19.7068], [144.2507, -19.5868], [144.3579, -19.584], [144.4093, -19.4854], [144.5179, -19.4421], [144.5324, -19.3862], [144.5888, -19.3982], [144.5882, -19.3676], [144.7046, -19.266], [144.706, -19.1871], [144.7679, -19.1443], [144.7338, -19.0926], [144.7449, -19.0312], [144.6982, -18.9882], [144.7082, -18.9126], [144.6185, -18.9024], [144.5665, -18.861], [144.5949, -18.7968], [144.6257, -18.7951], [144.6285, -18.6835], [144.6671, -18.6199], [144.6596, -18.456], [144.7504, -18.3515], [144.7488, -18.3043], [144.914, -18.181], [145.1015, -18.1451], [145.2846, -18.3187], [145.4346, -18.3087], [145.4918, -18.3882], [145.5288, -18.3474], [145.6274, -18.3737], [145.7146, -18.4804], [145.6821, -18.5332], [145.7463, -18.6574], [145.7382, -18.7162], [145.8157, -18.7521], [145.8301, -18.8165]]]}}, {"type": "Feature", "properties": {"label": "Lachlan", "state": "NSW", "division": "Murray-Darling Basin", "area_ha": 7705123, "official_name": "LACHLAN RIVER", "carbon": true, "water": true, "water_scheme": "ACWIS", "zone": true}, "geometry": {"type": "Polygon", "coordinates": [[[148.0043, -33.0082], [148.0713, -32.9876], [148.1951, -33.0062], [148.3996, -32.9593], [148.5049, -33.0457], [148.5607, -33.0224], [148.5796, -33.0668], [148.6432, -33.0365], [148.7246, -33.0568], [148.8149, -33.0335], [148.8279, -33.1701], [148.8726, -33.1607], [148.9665, -33.2132], [148.9815, -33.361], [149.139, -33.3851], [149.2079, -33.4587], [149.2901, -33.4118], [149.3632, -33.451], [149.2954, -33.586], [149.3715, -33.6968], [149.439, -33.7099], [149.489, -33.8704], [149.5449, -33.8687], [149.6182, -33.9174], [149.6638, -33.8954], [149.7221, -33.9287], [149.8315, -33.9212], [149.8707, -34.041], [149.9629, -34.101], [149.9382, -34.269], [149.814, -34.314], [149.741, -34.3879], [149.7504, -34.4487], [149.6099, -34.4832], [149.5876, -34.4279], [149.5579, -34.4324], [149.5029, -34.5174], [149.4396, -34.5301], [149.4482, -34.591], [149.4074, -34.626], [149.4179, -34.6979], [149.5896, -34.7774], [149.6049, -34.8537], [149.5685, -34.9146], [149.5765, -34.9704], [149.5235, -34.9732], [149.5393, -34.9012], [149.5065, -34.8729], [149.5071, -34.8151], [149.4715, -34.7974], [149.3385, -34.9451], [149.2679, -34.8801], [149.1071, -34.8821], [149.0424, -34.8285], [149.0376, -34.7579], [148.9621, -34.7471], [148.9368, -34.7026], [148.8399, -34.6962], [148.7818, -34.7262], [148.6626, -34.6018], [148.6254, -34.4737], [148.4535, -34.3615], [148.3493, -34.3512], [148.221, -34.394], [148.1685, -34.4249], [148.119, -34.5251], [148.0435, -34.5118], [147.889, -34.6537], [147.7893, -34.5379], [147.7051, -34.5832], [147.5326, -34.5601], [147.4935, -34.6162], [147.454, -34.5387], [147.3643, -34.5393], [147.229, -34.4821], [147.1788, -34.4076], [147.036, -34.4207], [146.9779, -34.4649], [146.9396, -34.554], [146.8321, -34.5621], [146.776, -34.6104], [146.7729, -34.6624], [146.6138, -34.6965], [146.604, -34.7507], [146.5626, -34.7587], [146.4929, -34.6862], [146.4393, -34.6821], [146.4654, -34.6554], [146.4129, -34.6499], [146.4149, -34.5929], [146.3476, -34.6126], [146.2513, -34.5851], [146.1579, -34.4812], [146.0735, -34.4435], [146.0079, -34.4976], [145.9499, -34.4418], [145.6585, -34.3874], [145.4815, -34.4482], [145.4065, -34.4001], [145.3713, -34.446], [145.2499, -34.4879], [145.1279, -34.4596], [145.0485, -34.476], [145.016, -34.4468], [144.9496, -34.4946], [144.9485, -34.4482], [144.8879, -34.4051], [144.6907, -34.3626], [144.5418, -34.2265], [144.4274, -34.2368], [144.4276, -34.264], [144.4204, -34.2718], [144.4085, -34.2474], [144.3571, -34.2582], [144.271, -34.314], [144.2601, -34.2604], [144.1863, -34.2465], [144.0996, -34.3299], [143.9951, -34.3649], [143.9515, -34.3562], [143.9304, -34.3118], [143.9429, -34.2379], [144.0282, -34.2546], [144.0796, -34.2132], [144.0843, -34.1693], [144.1568, -34.146], [144.2607, -34.0479], [144.3776, -34.1026], [144.489, -34.0662], [144.5904, -33.9604], [144.6799, -34.0137], [144.8307, -33.9296], [144.8538, -33.8585], [144.9518, -33.8235], [144.9413, -33.7287], [144.9843, -33.6407], [145.1071, -33.5837], [145.1496, -33.5057], [145.364, -33.3274], [145.4451, -33.3507], [145.5771, -33.2876], [145.7446, -33.3393], [145.9724, -33.3301], [145.991, -33.3407], [145.9624, -33.3665], [146.0268, -33.391], [146.0435, -33.3237], [145.9746, -33.2124], [146.0613, -33.0562], [146.0879, -32.8285], [146.1363, -32.736], [146.1807, -32.7449], [146.2551, -32.6857], [146.3179, -32.7115], [146.4218, -32.5971], [146.4029, -32.4818], [146.4457, -32.3971], [146.4043, -32.366], [146.4238, -32.3401], [146.5665, -32.3724], [146.676, -32.3329], [146.8307, -32.4887], [146.9157, -32.5085], [146.9351, -32.5937], [147.1143, -32.6054], [147.1465, -32.651], [147.2296, -32.6787], [147.319, -32.6671], [147.3179, -32.7535], [147.3863, -32.8201], [147.5529, -32.8151], [147.5713, -32.7779], [147.6221, -32.7699], [147.7704, -32.7957], [147.7985, -32.8657], [147.9982, -32.9715], [148.0043, -33.0082]]]}}, {"type": "Feature", "properties": {"label": "Macquarie-Bogan", "state": "NSW", "division": "Murray-Darling Basin", "area_ha": 7342722, "official_name": "MACQUARIE-BOGAN RIVERS", "carbon": true, "water": true, "water_scheme": "ACWIS", "zone": false}, "geometry": {"type": "Polygon", "coordinates": [[[146.9838, -30.0251], [147.0507, -30.0701], [147.1201, -30.0579], [147.2301, -30.1365], [147.3788, -30.1451], [147.5154, -30.1104], [147.5924, -30.1404], [147.5401, -30.156], [147.5249, -30.2051], [147.5943, -30.2312], [147.6421, -30.1762], [147.7071, -30.246], [147.7649, -30.2026], [147.8063, -30.2507], [147.8501, -30.236], [147.8565, -30.2862], [147.9038, -30.2821], [147.8426, -30.3135], [147.8229, -30.364], [147.8488, -30.4596], [147.8204, -30.5024], [147.8604, -30.5154], [147.8926, -30.6282], [147.8113, -30.6549], [147.8346, -30.7332], [147.8004, -30.7507], [147.8057, -30.8021], [148.0024, -30.9349], [148.0049, -30.9901], [148.0754, -30.9921], [148.1193, -31.1601], [148.2413, -31.2079], [148.3563, -31.359], [148.441, -31.3926], [148.5443, -31.5076], [148.6449, -31.7287], [148.7126, -31.7737], [148.7138, -31.8482], [148.7693, -31.8699], [148.7579, -31.9171], [148.8121, -31.9471], [148.8615, -32.0565], [148.9296, -32.0104], [149.0563, -31.991], [149.1026, -31.9457], [149.2585, -31.9574], [149.5504, -31.8485], [149.6426, -31.8479], [149.7424, -31.7321], [149.8424, -31.679], [150.1285, -31.7657], [150.061, -31.7849], [149.9024, -31.9393], [149.8718, -32.0151], [149.7529, -32.0974], [149.766, -32.1476], [149.6715, -32.2515], [149.7043, -32.3768], [149.8832, -32.4457], [149.8763, -32.5329], [150.0399, -32.6351], [150.0926, -32.7162], [150.241, -32.7187], [150.2193, -32.7612], [150.3629, -32.8446], [150.2799, -32.9201], [150.174, -32.8804], [150.074, -32.8804], [150.0379, -32.9112], [150.0013, -32.8885], [149.9938, -32.9518], [149.931, -32.9762], [149.9204, -33.024], [149.9796, -33.1062], [149.9626, -33.1285], [150.0468, -33.2296], [150.1088, -33.244], [150.091, -33.2968], [149.9471, -33.4054], [149.9799, -33.4643], [150.0363, -33.4504], [150.054, -33.6065], [150.0232, -33.6687], [150.0638, -33.6793], [150.051, -33.7551], [149.9849, -33.7435], [150.0063, -33.826], [149.9307, -33.8512], [149.9185, -33.9049], [149.8543, -33.8899], [149.8204, -33.9274], [149.7221, -33.9287], [149.489, -33.8704], [149.439, -33.7099], [149.3715, -33.6968], [149.2954, -33.586], [149.3632, -33.451], [149.2901, -33.4118], [149.2079, -33.4587], [149.139, -33.3851], [148.9815, -33.361], [148.9665, -33.2132], [148.8726, -33.1607], [148.8279, -33.1701], [148.8118, -33.0321], [148.7246, -33.0568], [148.6432, -33.0365], [148.5796, -33.0668], [148.5607, -33.0224], [148.5049, -33.0457], [148.3996, -32.9593], [148.1951, -33.0062], [148.139, -32.9812], [148.0713, -32.9876], [148.054, -33.019], [148.0043, -33.0082], [147.9982, -32.9715], [147.7985, -32.8657], [147.7704, -32.7957], [147.6221, -32.7699], [147.5713, -32.7779], [147.5529, -32.8151], [147.396, -32.8237], [147.3179, -32.7535], [147.319, -32.6671], [147.2296, -32.6787], [147.1465, -32.651], [147.1143, -32.6054], [146.9351, -32.5937], [146.9157, -32.5085], [146.8307, -32.4887], [146.676, -32.3329], [146.5665, -32.3724], [146.4624, -32.346], [146.399, -32.1965], [146.3854, -32.0451], [146.3126, -32.0004], [146.2799, -31.9054], [146.3596, -31.8704], [146.3346, -31.774], [146.4629, -31.6901], [146.5118, -31.586], [146.4526, -31.5293], [146.4929, -31.4974], [146.501, -31.3918], [146.6146, -31.3626], [146.7118, -31.3862], [146.7299, -31.1701], [146.6904, -31.1218], [146.7229, -30.8949], [146.7551, -30.8865], [146.6879, -30.6662], [146.5649, -30.6624], [146.534, -30.621], [146.5126, -30.5465], [146.5876, -30.4976], [146.5438, -30.4549], [146.5454, -30.4107], [146.4521, -30.4021], [146.3882, -30.3382], [146.4321, -30.2299], [146.4265, -30.1474], [146.3226, -29.9926], [146.3421, -29.9565], [146.4101, -29.9876], [146.449, -29.9496], [146.5207, -29.9754], [146.5271, -30.0101], [146.7068, -29.9337], [146.709, -29.9568], [146.8093, -29.9715], [146.8304, -30.0426], [146.9838, -30.0251]]]}}, {"type": "Feature", "properties": {"label": "Border Rivers", "state": "NSW / Qld", "division": "Murray-Darling Basin", "area_ha": 4862583, "official_name": "BORDER RIVERS", "carbon": true, "water": true, "water_scheme": "ACWIS", "zone": false}, "geometry": {"type": "Polygon", "coordinates": [[[150.8338, -27.5282], [150.9279, -27.5849], [151.0176, -27.5665], [151.0899, -27.5915], [151.0754, -27.7632], [151.1954, -27.9099], [151.2113, -27.9854], [151.3079, -28.0096], [151.3568, -28.0732], [151.4457, -28.1049], [151.4443, -28.1615], [151.509, -28.259], [151.6926, -28.3087], [151.701, -28.3876], [151.8454, -28.4726], [151.8593, -28.5176], [151.9515, -28.5074], [152.0035, -28.6526], [152.0765, -28.7085], [152.0357, -28.7562], [152.0157, -28.9001], [152.0229, -28.9343], [152.0849, -28.944], [152.0585, -29.1312], [152.1099, -29.1635], [152.1188, -29.2515], [152.1001, -29.3099], [152.0029, -29.3987], [152.0507, -29.4276], [152.0626, -29.5174], [151.9907, -29.5832], [151.9757, -29.6507], [151.8949, -29.6457], [151.8335, -29.6943], [151.7654, -29.8762], [151.6779, -29.9265], [151.6699, -29.9801], [151.596, -29.9407], [151.4565, -29.9982], [151.3279, -29.9179], [151.221, -29.9235], [151.096, -29.8821], [151.0615, -29.7682], [150.9726, -29.7382], [150.9518, -29.6904], [150.996, -29.5954], [150.9699, -29.5529], [150.7918, -29.4979], [150.7054, -29.3871], [150.6557, -29.411], [150.4801, -29.376], [150.4415, -29.3382], [150.3624, -29.3774], [150.294, -29.3601], [150.196, -29.3962], [149.9015, -29.4182], [149.7999, -29.3768], [149.6546, -29.2201], [149.5004, -29.1882], [149.4588, -29.129], [149.3418, -29.1051], [149.2529, -29.1435], [149.2171, -29.136], [149.2513, -29.1093], [149.1779, -29.1099], [149.1732, -29.0865], [149.0724, -29.1674], [148.8304, -29.1687], [148.7982, -29.2476], [148.7057, -29.2904], [148.7285, -29.2401], [148.6715, -29.2276], [148.6424, -29.1724], [148.6665, -29.1543], [148.6607, -29.0821], [148.7515, -29.0296], [148.7935, -28.9049], [148.8804, -28.8901], [148.8788, -28.8251], [149.0251, -28.7746], [149.076, -28.6996], [149.0599, -28.6343], [149.0865, -28.5926], [149.2196, -28.5304], [149.234, -28.3868], [149.4143, -28.3137], [149.5457, -28.1296], [149.6176, -28.1404], [149.629, -28.1157], [149.7965, -28.094], [149.8504, -28.1149], [149.9082, -28.0799], [149.8974, -28.0079], [149.9221, -27.9982], [149.9993, -28.0207], [150.0601, -27.9829], [150.1068, -28.0315], [150.409, -27.7168], [150.5224, -27.6704], [150.5654, -27.5907], [150.6979, -27.5474], [150.7968, -27.5704], [150.8338, -27.5282]]]}}, {"type": "Feature", "properties": {"label": "Murrumbidgee", "state": "NSW", "division": "Murray-Darling Basin", "area_ha": 4737598, "official_name": "MURRUMBIDGEE RIVER", "carbon": true, "water": true, "water_scheme": "ACWIS", "zone": true}, "geometry": {"type": "Polygon", "coordinates": [[[144.5632, -34.2446], [144.6907, -34.3626], [144.8879, -34.4051], [144.9485, -34.4482], [144.9496, -34.4946], [145.0163, -34.4471], [145.0485, -34.476], [145.1279, -34.4596], [145.2499, -34.4879], [145.3713, -34.446], [145.4065, -34.4001], [145.4815, -34.4482], [145.6585, -34.3874], [145.9496, -34.4421], [146.0079, -34.4976], [146.0474, -34.4907], [146.0438, -34.4499], [146.1071, -34.4518], [146.2513, -34.5851], [146.3476, -34.6126], [146.4149, -34.5929], [146.4129, -34.6499], [146.4654, -34.6554], [146.4393, -34.6821], [146.4929, -34.6862], [146.5626, -34.7587], [146.604, -34.7507], [146.6138, -34.6965], [146.7729, -34.6624], [146.776, -34.6104], [146.8321, -34.5621], [146.9396, -34.554], [146.9779, -34.4649], [147.036, -34.4207], [147.1788, -34.4076], [147.229, -34.4821], [147.3643, -34.5393], [147.454, -34.5387], [147.4935, -34.6162], [147.5326, -34.5601], [147.7051, -34.5832], [147.7893, -34.5379], [147.889, -34.6537], [148.0435, -34.5118], [148.1193, -34.5254], [148.1685, -34.4249], [148.221, -34.394], [148.3493, -34.3512], [148.4535, -34.3615], [148.6254, -34.4737], [148.6626, -34.6018], [148.7818, -34.7262], [148.8399, -34.6962], [148.9368, -34.7026], [148.9621, -34.7471], [149.0376, -34.7579], [149.0424, -34.8285], [149.1221, -34.8887], [149.2679, -34.8801], [149.2915, -34.9271], [149.3532, -34.9443], [149.3835, -34.9165], [149.3751, -34.8757], [149.4915, -34.8037], [149.5393, -34.9012], [149.5168, -34.9562], [149.5757, -35.0301], [149.551, -35.0579], [149.5763, -35.1374], [149.5446, -35.184], [149.5718, -35.3576], [149.5296, -35.3901], [149.554, -35.5096], [149.5151, -35.5221], [149.4988, -35.6124], [149.5235, -35.8165], [149.484, -35.8382], [149.521, -35.9793], [149.5654, -35.9879], [149.5693, -36.0871], [149.4976, -36.1749], [149.4535, -36.1676], [149.4163, -36.2732], [149.4754, -36.3162], [149.4818, -36.3915], [149.5126, -36.4168], [149.4554, -36.4846], [149.4554, -36.5293], [149.4021, -36.5496], [149.1307, -36.4104], [149.0493, -36.4046], [149.0421, -36.3546], [148.899, -36.2785], [148.8549, -36.2229], [148.8374, -36.1932], [148.8721, -36.1718], [148.8229, -36.079], [148.6499, -35.974], [148.6429, -35.8971], [148.5651, -35.8751], [148.5043, -35.7762], [148.4385, -35.8993], [148.559, -36.0004], [148.5663, -36.0954], [148.4854, -36.0979], [148.439, -36.1749], [148.3724, -36.1576], [148.3432, -36.1024], [148.386, -36.0257], [148.3249, -35.9699], [148.3499, -35.9157], [148.286, -35.8829], [148.2982, -35.8143], [148.2715, -35.7665], [148.1426, -35.6796], [148.131, -35.5979], [148.0685, -35.6282], [147.9951, -35.7474], [147.8924, -35.6315], [147.8246, -35.644], [147.8021, -35.6829], [147.671, -35.6912], [147.6421, -35.659], [147.6407, -35.5474], [147.5218, -35.4824], [147.4888, -35.5451], [147.4154, -35.5326], [147.3915, -35.5635], [147.3721, -35.5185], [147.2324, -35.4699], [147.1838, -35.4874], [147.1704, -35.5568], [147.1432, -35.5326], [146.9026, -35.5554], [146.8107, -35.4654], [146.8401, -35.3237], [146.8107, -35.251], [146.8549, -35.1949], [146.8426, -35.1549], [146.6251, -34.964], [146.4876, -34.951], [146.4682, -34.884], [146.5299, -34.8429], [146.501, -34.7843], [146.5196, -34.7515], [146.3232, -34.641], [146.2276, -34.6626], [146.1824, -34.6243], [146.1551, -34.6696], [146.0588, -34.6585], [146.0421, -34.6832], [145.9501, -34.6265], [145.7007, -34.594], [145.6838, -34.6696], [145.6501, -34.6887], [145.5018, -34.631], [145.4179, -34.6621], [145.2763, -34.6101], [144.9407, -34.7546], [144.8785, -34.7118], [144.7913, -34.7054], [144.7176, -34.7421], [144.7163, -34.8171], [144.6132, -34.7815], [144.5382, -34.791], [144.4251, -34.8612], [144.2335, -34.8712], [143.9832, -34.9604], [143.8926, -34.9276], [143.8399, -34.9599], [143.8674, -34.9999], [143.8332, -35.0051], [143.6843, -34.9701], [143.6479, -34.9915], [143.6068, -34.9429], [143.5732, -34.9635], [143.4807, -34.7801], [143.3874, -34.8115], [143.2729, -34.7196], [143.2071, -34.7307], [143.1896, -34.689], [143.2093, -34.6543], [143.2993, -34.6726], [143.4204, -34.6265], [143.4426, -34.6662], [143.4921, -34.6349], [143.4846, -34.5901], [143.5907, -34.551], [143.6163, -34.4029], [143.6679, -34.3482], [143.7043, -34.3401], [143.7154, -34.3696], [143.7457, -34.3265], [143.7957, -34.3612], [143.9015, -34.2618], [143.9468, -34.2587], [143.9401, -34.3387], [143.9951, -34.3649], [144.0996, -34.3299], [144.1863, -34.2465], [144.2601, -34.2604], [144.271, -34.314], [144.399, -34.246], [144.4204, -34.2718], [144.4274, -34.2368], [144.5632, -34.2446]]]}}, {"type": "Feature", "properties": {"label": "Namoi", "state": "NSW", "division": "Murray-Darling Basin", "area_ha": 3937612, "official_name": "NAMOI RIVER", "carbon": true, "water": true, "water_scheme": "ACWIS", "zone": false}, "geometry": {"type": "Polygon", "coordinates": [[[148.6507, -29.849], [148.7485, -29.8918], [148.7924, -29.8696], [148.9079, -29.8943], [148.9663, -29.9568], [149.1621, -29.9407], [149.2465, -30.0476], [149.4582, -30.1024], [149.6474, -30.196], [149.721, -30.1443], [149.8376, -30.1626], [149.8729, -30.1182], [149.9868, -30.1368], [150.0743, -30.1049], [150.101, -30.1904], [150.1663, -30.2218], [150.1665, -30.2743], [150.2901, -30.3707], [150.3718, -30.3582], [150.4604, -30.2526], [150.541, -30.3162], [150.6568, -30.2743], [150.7201, -30.2946], [150.834, -30.1962], [150.9249, -30.1826], [150.976, -30.2665], [150.9476, -30.306], [150.9474, -30.4232], [151.0265, -30.4115], [151.0124, -30.459], [151.0668, -30.5626], [151.1482, -30.6001], [151.2476, -30.7254], [151.3754, -30.7232], [151.3943, -30.7932], [151.3663, -30.8199], [151.461, -30.9001], [151.4215, -30.9482], [151.4401, -31.0015], [151.4874, -31.0346], [151.5504, -31.0193], [151.5535, -31.1299], [151.6735, -31.2465], [151.6557, -31.3329], [151.544, -31.3865], [151.4126, -31.3843], [151.4188, -31.4268], [151.3554, -31.4901], [151.2474, -31.4612], [151.1629, -31.556], [151.1682, -31.6212], [150.9985, -31.6032], [150.9965, -31.6382], [150.9146, -31.6457], [150.8485, -31.7249], [150.7115, -31.7974], [150.7238, -31.8385], [150.5457, -31.8582], [150.3343, -31.8254], [150.2932, -31.849], [150.1824, -31.8187], [150.1529, -31.7671], [150.061, -31.7246], [150.0049, -31.7401], [149.9682, -31.6979], [149.8829, -31.6965], [149.8129, -31.5837], [149.6732, -31.5576], [149.6532, -31.471], [149.5651, -31.3771], [149.5935, -31.3096], [149.5779, -31.2687], [149.5215, -31.2346], [149.3615, -31.1954], [149.0671, -31.2751], [149.0288, -31.2607], [149.0726, -31.1165], [149.069, -30.9465], [148.9407, -30.8226], [148.9349, -30.781], [148.8699, -30.7318], [148.7893, -30.7299], [148.7024, -30.5926], [148.5676, -30.4985], [148.5357, -30.4093], [148.401, -30.276], [148.4243, -30.2301], [148.3821, -30.1596], [148.2518, -30.1349], [148.2001, -30.0437], [148.1788, -30.0624], [148.1476, -30.0246], [148.0979, -30.0271], [148.1032, -29.9999], [148.2085, -29.9849], [148.2404, -29.9429], [148.316, -29.9468], [148.3365, -29.8607], [148.4099, -29.8232], [148.4704, -29.869], [148.6507, -29.849]]]}}, {"type": "Feature", "properties": {"label": "Burnett", "state": "Qld", "division": "North East Coast", "area_ha": 3322926, "official_name": "BURNETT RIVER", "carbon": true, "water": true, "water_scheme": "Reef Credits", "zone": false}, "geometry": {"type": "Polygon", "coordinates": [[[152.0546, -24.9615], [152.0579, -24.9162], [152.1885, -24.8762], [152.1988, -24.821], [152.359, -24.7971], [152.3576, -24.7379], [152.3824, -24.7371], [152.3463, -24.7326], [152.3746, -24.731], [152.3951, -24.7471], [152.3785, -24.7662], [152.3815, -24.7971], [152.384, -24.7615], [152.4171, -24.7721], [152.4265, -24.8715], [152.2232, -24.9624], [152.1699, -25.0551], [152.1826, -25.0824], [152.1088, -25.1376], [152.0701, -25.2143], [152.1013, -25.4046], [152.1793, -25.5287], [152.1151, -25.6246], [152.0429, -25.616], [151.9796, -25.731], [152.0385, -25.7904], [152.0463, -25.8776], [152.1143, -25.8574], [152.1243, -25.8868], [152.1688, -25.8815], [152.2063, -25.9546], [152.2054, -26.0251], [152.0938, -26.0957], [152.1393, -26.2579], [152.2424, -26.3076], [152.3093, -26.2679], [152.4235, -26.3651], [152.3704, -26.4626], [152.3168, -26.4829], [152.2732, -26.4537], [152.2143, -26.5132], [152.1382, -26.4768], [152.1315, -26.6385], [152.0579, -26.6604], [151.9513, -26.7537], [151.8871, -26.8807], [151.8201, -26.929], [151.7007, -26.9387], [151.5768, -26.8799], [151.5204, -26.7665], [151.4207, -26.7457], [151.4051, -26.6474], [151.2043, -26.5029], [151.2354, -26.3887], [151.1896, -26.3415], [151.1151, -26.336], [151.1201, -26.2485], [151.0676, -26.2251], [151.0488, -26.1774], [151.0076, -26.1974], [150.9265, -26.1679], [150.8785, -26.2651], [150.8168, -26.2199], [150.6129, -26.2787], [150.3224, -26.1829], [150.3401, -26.1493], [150.306, -25.9965], [150.3501, -25.9107], [150.4126, -25.8932], [150.4143, -25.8487], [150.3715, -25.8132], [150.4224, -25.7857], [150.4235, -25.666], [150.4557, -25.6512], [150.4354, -25.6007], [150.4026, -25.5979], [150.4007, -25.5085], [150.3693, -25.479], [150.4724, -25.1915], [150.5613, -25.1543], [150.5632, -25.0607], [150.5368, -25.0393], [150.5649, -24.9954], [150.5351, -24.969], [150.5501, -24.9074], [150.6032, -24.8757], [150.5688, -24.7821], [150.6521, -24.6907], [150.8738, -24.721], [150.909, -24.6199], [150.9743, -24.5779], [150.9638, -24.5076], [151.006, -24.394], [151.0451, -24.3965], [151.1138, -24.4746], [151.1382, -24.456], [151.169, -24.479], [151.1521, -24.5726], [151.1951, -24.6424], [151.2976, -24.6704], [151.3374, -24.646], [151.3601, -24.6785], [151.3429, -24.7224], [151.4165, -24.7754], [151.436, -24.8368], [151.5501, -24.8357], [151.5724, -24.9315], [151.524, -24.9632], [151.559, -25.0176], [151.559, -25.1021], [151.704, -25.0924], [151.7132, -25.159], [151.744, -25.1093], [151.7854, -25.1287], [151.7893, -25.0668], [151.8738, -25.0807], [151.8976, -25.0215], [151.9982, -25.0082], [152.0143, -24.9682], [152.0546, -24.9615]]]}}, {"type": "Feature", "properties": {"label": "Millicent Coast", "state": "Vic", "division": "South East Coast (Victoria)", "area_ha": 3252150, "official_name": "MILLICENT COAST", "carbon": true, "water": false, "water_scheme": null, "zone": false}, "geometry": {"type": "Polygon", "coordinates": [[[141.1007, -35.7596], [141.0949, -35.804], [141.1296, -35.8099], [141.1126, -35.851], [141.1618, -35.8574], [141.1874, -35.9151], [141.0729, -35.984], [141.1946, -36.041], [141.2485, -36.1529], [141.3738, -36.2476], [141.6115, -36.5768], [141.6474, -36.6435], [141.6299, -36.7354], [141.6626, -36.7346], [141.6815, -36.7735], [141.6315, -36.8032], [141.6868, -36.9524], [141.5588, -37.0012], [141.5124, -37.0924], [141.3807, -37.0712], [141.336, -37.099], [141.3424, -37.1365], [141.2604, -37.1582], [141.2299, -37.2174], [141.1324, -37.1846], [141.0554, -37.2051], [141.0699, -37.2704], [141.1415, -37.3287], [140.9765, -37.3504], [140.9513, -37.4218], [140.929, -37.4162], [140.9226, -37.4835], [140.9829, -37.5246], [140.9835, -37.5674], [140.9485, -37.5762], [140.9026, -37.5368], [140.8218, -37.5587], [140.7971, -37.5854], [140.8196, -37.6143], [140.7676, -37.6304], [140.7171, -37.6271], [140.6888, -37.586], [140.6318, -37.6357], [140.4896, -37.5882], [140.5326, -37.6985], [140.6143, -37.7318], [140.6326, -37.7043], [140.681, -37.7162], [140.6715, -37.8185], [140.9415, -37.9918], [140.8801, -37.9868], [140.9115, -38.0493], [140.661, -38.0621], [140.3963, -37.9196], [140.2618, -37.7018], [140.1129, -37.579], [140.1207, -37.5307], [140.049, -37.4785], [139.9938, -37.4849], [139.7404, -37.1821], [139.7957, -37.1249], [139.6715, -36.9524], [139.8479, -36.8324], [139.8501, -36.6335], [139.879, -36.6746], [139.9168, -36.6732], [139.7843, -36.3118], [139.5815, -36.0257], [139.6243, -35.9954], [139.6076, -35.9779], [139.7824, -35.894], [139.7413, -35.8399], [139.7446, -35.769], [139.6896, -35.7557], [139.6418, -35.6596], [139.5754, -35.6265], [139.5763, -35.5804], [139.6268, -35.5221], [139.6576, -35.5446], [139.7432, -35.5185], [139.9088, -35.5732], [139.9104, -35.5454], [139.9879, -35.556], [140.1051, -35.6249], [140.149, -35.6104], [140.1638, -35.5585], [140.209, -35.594], [140.2782, -35.5549], [140.3457, -35.5901], [140.4907, -35.4982], [140.5888, -35.4801], [140.7143, -35.5093], [140.7649, -35.499], [140.7588, -35.4718], [140.8579, -35.4643], [140.9224, -35.5129], [140.9285, -35.5724], [141.0849, -35.5585], [141.044, -35.6179], [141.0157, -35.5982], [140.9563, -35.6162], [141.1007, -35.7596]]]}}, {"type": "Feature", "properties": {"label": "Gwydir", "state": "NSW", "division": "Murray-Darling Basin", "area_ha": 2722429, "official_name": "GWYDIR RIVER", "carbon": true, "water": true, "water_scheme": "ACWIS", "zone": false}, "geometry": {"type": "Polygon", "coordinates": [[[150.4415, -29.3382], [150.6557, -29.411], [150.7054, -29.3871], [150.7918, -29.4979], [150.9699, -29.5529], [150.996, -29.5954], [150.9518, -29.6904], [150.9726, -29.7382], [151.0615, -29.7682], [151.096, -29.8821], [151.221, -29.9235], [151.3279, -29.9179], [151.4565, -29.9982], [151.596, -29.9407], [151.6668, -29.981], [151.6682, -30.2479], [151.694, -30.3024], [151.6354, -30.3226], [151.5857, -30.3968], [151.5165, -30.4051], [151.5488, -30.4982], [151.5343, -30.6457], [151.4726, -30.6865], [151.484, -30.751], [151.4401, -30.7654], [151.4276, -30.8243], [151.3663, -30.8199], [151.3943, -30.7932], [151.3704, -30.7176], [151.2476, -30.7254], [151.1482, -30.6001], [151.0668, -30.5626], [151.0124, -30.459], [151.0265, -30.4115], [150.9474, -30.4232], [150.9476, -30.306], [150.976, -30.2665], [150.9249, -30.1826], [150.834, -30.1962], [150.7201, -30.2946], [150.6568, -30.2743], [150.541, -30.3162], [150.4604, -30.2526], [150.3718, -30.3582], [150.2901, -30.3707], [150.1665, -30.2743], [150.1663, -30.2218], [150.101, -30.1904], [150.0743, -30.1049], [149.9868, -30.1368], [149.8729, -30.1182], [149.8376, -30.1626], [149.721, -30.1443], [149.6474, -30.196], [149.4582, -30.1024], [149.2465, -30.0476], [149.1621, -29.9407], [148.9663, -29.9568], [148.9079, -29.8943], [148.8149, -29.8715], [148.7485, -29.8918], [148.6935, -29.8574], [148.5479, -29.8415], [148.4704, -29.869], [148.4099, -29.8232], [148.3365, -29.8607], [148.3146, -29.9476], [148.2404, -29.9429], [148.2085, -29.9849], [148.1307, -30.0071], [148.0929, -29.9882], [148.1638, -29.9126], [148.1935, -29.8201], [148.2768, -29.8101], [148.3665, -29.744], [148.369, -29.6504], [148.4396, -29.6401], [148.4871, -29.5801], [148.5054, -29.4454], [148.5907, -29.3943], [148.5888, -29.3396], [148.6924, -29.3287], [148.6885, -29.296], [148.7126, -29.3126], [148.7018, -29.301], [148.7049, -29.2871], [148.8235, -29.2171], [148.8293, -29.1696], [148.859, -29.1835], [148.886, -29.1512], [149.0724, -29.1674], [149.1726, -29.0865], [149.1779, -29.1099], [149.2513, -29.1093], [149.2257, -29.1212], [149.2171, -29.136], [149.2529, -29.1435], [149.3418, -29.1051], [149.4588, -29.129], [149.5004, -29.1882], [149.6546, -29.2201], [149.7999, -29.3768], [149.9015, -29.4182], [150.196, -29.3962], [150.294, -29.3601], [150.3624, -29.3774], [150.4415, -29.3382]]]}}, {"type": "Feature", "properties": {"label": "Normanby", "state": "Qld", "division": "North East Coast", "area_ha": 2438657, "official_name": "NORMANBY RIVER", "carbon": false, "water": true, "water_scheme": "Reef Credits", "zone": false}, "geometry": {"type": "Polygon", "coordinates": [[[144.411, -14.4626], [144.4851, -14.5065], [144.4754, -14.561], [144.4385, -14.5704], [144.4713, -14.6296], [144.5468, -14.6862], [144.5754, -14.6615], [144.5768, -14.711], [144.6571, -14.6854], [144.7193, -14.7396], [144.6985, -14.804], [144.7418, -14.904], [144.7907, -14.916], [144.8521, -14.8707], [144.904, -14.921], [145.0218, -14.9424], [145.0074, -15.0318], [144.9404, -15.1187], [144.956, -15.164], [145.0446, -15.1635], [145.0579, -15.2043], [144.9904, -15.2549], [144.9893, -15.3879], [144.9263, -15.3849], [144.8988, -15.4626], [144.974, -15.5865], [145.0829, -15.6387], [145.1674, -15.6404], [145.1371, -15.8043], [145.1888, -15.8068], [145.2054, -15.8646], [145.2563, -15.8796], [145.2443, -15.919], [145.0696, -15.9685], [145.0943, -16.0737], [145.0415, -16.1615], [144.9288, -16.1662], [144.8138, -15.9621], [144.7388, -15.8926], [144.654, -15.8943], [144.6507, -15.8515], [144.5296, -15.8585], [144.3626, -15.9465], [144.2193, -15.8462], [144.0957, -15.886], [143.9635, -15.8287], [143.9368, -15.8526], [143.8707, -15.8254], [143.814, -15.7496], [143.8454, -15.6846], [143.7463, -15.5793], [143.6271, -15.5499], [143.5371, -15.3971], [143.5379, -15.3337], [143.4826, -15.3543], [143.4082, -15.2196], [143.3643, -15.2412], [143.3021, -15.1824], [143.3246, -15.0651], [143.3799, -15.0346], [143.3629, -14.9635], [143.4613, -14.9074], [143.4346, -14.8749], [143.4499, -14.8301], [143.3913, -14.7862], [143.4474, -14.6126], [143.4829, -14.5896], [143.4676, -14.5074], [143.4074, -14.4821], [143.4668, -14.386], [143.509, -14.3643], [143.7088, -14.4393], [143.7421, -14.3257], [143.8079, -14.4343], [143.941, -14.511], [144.0424, -14.4851], [144.1426, -14.4093], [144.1943, -14.339], [144.1932, -14.2649], [144.2024, -14.2599], [144.286, -14.3435], [144.2571, -14.3926], [144.2799, -14.4224], [144.3363, -14.4301], [144.3771, -14.3954], [144.411, -14.4626]]]}}, {"type": "Feature", "properties": {"label": "Blackwood", "state": "WA", "division": "South West Coast", "area_ha": 2255507, "official_name": "BLACKWOOD RIVER", "carbon": true, "water": false, "water_scheme": null, "zone": false}, "geometry": {"type": "Polygon", "coordinates": [[[118.1704, -33.1276], [118.164, -33.1946], [118.2349, -33.2387], [118.2685, -33.3337], [118.2393, -33.5337], [118.3276, -33.5762], [118.3388, -33.6251], [118.384, -33.6321], [118.4279, -33.6971], [118.3646, -33.7468], [118.4004, -33.8571], [118.3263, -33.9062], [118.2074, -33.9271], [118.1538, -33.8579], [118.0876, -33.8318], [117.9685, -33.8671], [117.8049, -33.8554], [117.7271, -33.8932], [117.5124, -33.7912], [117.3754, -33.8621], [117.3479, -33.9551], [117.1907, -33.984], [117.1321, -33.9296], [116.9382, -33.9068], [116.776, -33.9537], [116.6999, -34.0399], [116.6163, -34.0446], [116.6071, -34.074], [116.491, -34.109], [116.4146, -34.0435], [116.3549, -34.0882], [116.291, -34.0437], [116.241, -34.0626], [116.1804, -34.0274], [116.0874, -34.0832], [115.984, -34.0437], [115.9596, -33.9985], [115.9063, -33.9999], [115.8335, -34.1024], [115.7838, -34.1143], [115.7682, -34.1782], [115.6938, -34.1743], [115.6379, -34.239], [115.6149, -34.3107], [115.654, -34.351], [115.6424, -34.3965], [115.6004, -34.4079], [115.6371, -34.4265], [115.6071, -34.439], [115.3221, -34.3118], [115.1785, -34.3199], [115.1363, -34.3771], [115.1374, -34.3382], [115.0893, -34.2949], [115.1149, -34.1951], [115.0432, -34.1551], [115.0429, -34.0929], [115.0949, -34.0168], [115.2018, -33.9524], [115.3004, -33.996], [115.3746, -33.9649], [115.3618, -33.9382], [115.4929, -33.8676], [115.5751, -33.759], [115.7154, -33.7735], [115.7568, -33.7326], [115.8751, -33.824], [115.9232, -33.7104], [116.011, -33.706], [116.1113, -33.6154], [116.2315, -33.6943], [116.2865, -33.6968], [116.2924, -33.7279], [116.396, -33.7304], [116.4413, -33.6112], [116.4218, -33.551], [116.5121, -33.574], [116.5363, -33.5479], [116.6157, -33.554], [116.5724, -33.4904], [116.6257, -33.4743], [116.6624, -33.3826], [116.7013, -33.3765], [116.6832, -33.316], [116.5574, -33.2379], [116.6788, -33.1393], [116.7454, -33.1849], [116.8199, -33.1826], [116.966, -33.0551], [117.1199, -33.0787], [117.1607, -32.8957], [117.2938, -32.9079], [117.3935, -32.8218], [117.624, -32.7949], [117.6632, -32.7646], [117.7449, -32.8421], [117.876, -32.8782], [117.8854, -32.9096], [118.0471, -32.9226], [118.0696, -32.9743], [118.1163, -32.9762], [118.1279, -33.0835], [118.1704, -33.1276]]]}}, {"type": "Feature", "properties": {"label": "Clarence", "state": "NSW", "division": "South East Coast (NSW)", "area_ha": 2219739, "official_name": "CLARENCE RIVER", "carbon": true, "water": false, "water_scheme": null, "zone": false}, "geometry": {"type": "Polygon", "coordinates": [[[152.5249, -28.3046], [152.5799, -28.3387], [152.6143, -28.2704], [152.6721, -28.3154], [152.6538, -28.3815], [152.6807, -28.4599], [152.7171, -28.4765], [152.7374, -28.5701], [152.7124, -28.6137], [152.7576, -28.6774], [152.7546, -28.9285], [152.7451, -28.994], [152.6899, -29.0346], [152.7588, -29.0907], [152.7179, -29.1826], [152.804, -29.2371], [152.8113, -29.3171], [153.0224, -29.3399], [153.1718, -29.3204], [153.2293, -29.1679], [153.2785, -29.1587], [153.331, -29.1915], [153.381, -29.1593], [153.4085, -29.1904], [153.3401, -29.3107], [153.3729, -29.426], [153.356, -29.3768], [153.2735, -29.3607], [153.2165, -29.384], [153.1879, -29.464], [153.1476, -29.4121], [153.1063, -29.4351], [153.1624, -29.4521], [153.071, -29.5704], [153.1821, -29.5399], [153.1976, -29.4526], [153.2738, -29.4271], [153.2888, -29.3821], [153.3238, -29.4032], [153.2999, -29.4185], [153.3176, -29.4343], [153.319, -29.449], [153.3296, -29.4562], [153.3274, -29.4646], [153.3343, -29.4687], [153.2774, -29.4946], [153.2913, -29.5212], [153.349, -29.474], [153.3215, -29.4174], [153.3729, -29.4387], [153.3074, -29.5976], [153.1974, -29.7071], [153.1265, -29.8962], [153.1565, -29.9982], [153.1051, -30.0174], [153.0774, -30.0704], [153.1354, -30.1571], [153.1113, -30.2651], [153.039, -30.2976], [153.0218, -30.3407], [152.9518, -30.3512], [152.8218, -30.309], [152.8376, -30.3518], [152.761, -30.3332], [152.7713, -30.3582], [152.7313, -30.3562], [152.6935, -30.4004], [152.6049, -30.371], [152.5518, -30.406], [152.4518, -30.3946], [152.4174, -30.4376], [152.2765, -30.4562], [152.2171, -30.4276], [152.1326, -30.2785], [151.9324, -30.2862], [151.8646, -30.2357], [151.7651, -30.2268], [151.6926, -30.0729], [151.7218, -30.0493], [151.6601, -29.991], [151.6779, -29.9265], [151.7654, -29.8762], [151.8335, -29.6943], [151.8949, -29.6457], [151.9757, -29.6507], [151.9907, -29.5832], [152.0626, -29.5174], [152.0507, -29.4276], [152.0029, -29.4012], [152.0079, -29.3715], [152.1001, -29.3099], [152.1188, -29.2515], [152.1099, -29.1635], [152.0585, -29.1312], [152.0849, -28.944], [152.0229, -28.9343], [152.0157, -28.9001], [152.0357, -28.7562], [152.0765, -28.7085], [152.0035, -28.6526], [151.9554, -28.5151], [152.0149, -28.5301], [152.0696, -28.4685], [152.1629, -28.4324], [152.2176, -28.4493], [152.3096, -28.3626], [152.3871, -28.3676], [152.4688, -28.2574], [152.5338, -28.2632], [152.5249, -28.3046]]]}}, {"type": "Feature", "properties": {"label": "Albany Coast", "state": "WA", "division": "South West Coast", "area_ha": 2202950, "official_name": "ALBANY COAST", "carbon": true, "water": false, "water_scheme": null, "zone": false}, "geometry": {"type": "Polygon", "coordinates": [[[119.7535, -33.7876], [119.9771, -33.8596], [120.0224, -33.9315], [119.9446, -33.9779], [119.8168, -33.9837], [119.7332, -34.0618], [119.6229, -34.1046], [119.4996, -34.2882], [119.5065, -34.3576], [119.5757, -34.3876], [119.5035, -34.4124], [119.4818, -34.3746], [119.3735, -34.3701], [119.4196, -34.4585], [119.3699, -34.4851], [119.3454, -34.4457], [119.2888, -34.4518], [119.2565, -34.5346], [119.0951, -34.4615], [118.9113, -34.4632], [118.9143, -34.5037], [118.8076, -34.5104], [118.7551, -34.5449], [118.7426, -34.5876], [118.7815, -34.6096], [118.7249, -34.6607], [118.4396, -34.761], [118.3963, -34.8401], [118.3976, -34.8787], [118.4279, -34.8882], [118.4021, -34.9176], [118.3338, -34.8921], [118.1768, -34.9387], [118.1721, -34.9679], [118.2113, -34.979], [118.2063, -35.0096], [118.1899, -35.0254], [118.1032, -34.9854], [118.0357, -35.0207], [117.946, -34.999], [117.9196, -35.036], [117.8513, -35.0329], [117.8879, -35.0776], [117.9238, -35.0796], [117.9115, -35.0537], [117.9201, -35.0407], [117.9432, -35.0918], [118.001, -35.0871], [118.0213, -35.1074], [117.9763, -35.0987], [117.9488, -35.1282], [117.761, -35.0549], [117.8368, -34.989], [117.6999, -34.8921], [117.6732, -34.8315], [117.7029, -34.7418], [117.7624, -34.7174], [117.756, -34.6396], [117.6446, -34.6301], [117.6443, -34.5951], [117.5488, -34.569], [117.5257, -34.471], [117.559, -34.4221], [117.5338, -34.3918], [117.6065, -34.3399], [117.5965, -34.2965], [117.6418, -34.2879], [117.6707, -34.1487], [117.8104, -34.0474], [117.7274, -33.8929], [117.8049, -33.8554], [117.9685, -33.8671], [118.0876, -33.8318], [118.2285, -33.9335], [118.4007, -33.8571], [118.5429, -33.9332], [118.6899, -33.9357], [118.6979, -33.8746], [118.6465, -33.8351], [118.6738, -33.7885], [118.8518, -33.704], [119.0257, -33.6862], [118.9929, -33.594], [119.0396, -33.541], [119.0471, -33.4376], [118.9276, -33.2349], [119.0668, -33.0382], [119.1929, -33.0135], [119.2388, -33.074], [119.3585, -33.0349], [119.4118, -33.1354], [119.3899, -33.1896], [119.4529, -33.2349], [119.4432, -33.2812], [119.5201, -33.3104], [119.6049, -33.4346], [119.6299, -33.5174], [119.5721, -33.5451], [119.5968, -33.6349], [119.5724, -33.6487], [119.6288, -33.7015], [119.7371, -33.726], [119.7535, -33.7876]]]}}, {"type": "Feature", "properties": {"label": "Hunter", "state": "NSW", "division": "South East Coast (NSW)", "area_ha": 2139726, "official_name": "HUNTER RIVER", "carbon": true, "water": false, "water_scheme": null, "zone": false}, "geometry": {"type": "Polygon", "coordinates": [[[151.8071, -32.2424], [151.8446, -32.4115], [151.9193, -32.4471], [151.8399, -32.5221], [151.8299, -32.6118], [151.7996, -32.6121], [151.8571, -32.6646], [151.8165, -32.7849], [151.856, -32.8521], [151.731, -32.9896], [151.6385, -32.9049], [151.539, -32.8901], [151.5163, -32.9668], [151.3843, -33.0065], [151.331, -33.0612], [151.2693, -33.0571], [151.2618, -33.099], [151.2024, -33.1387], [151.1043, -33.0774], [151.0526, -33.0804], [151.006, -32.9532], [150.8626, -32.9276], [150.9179, -32.8229], [150.7826, -32.759], [150.7946, -32.7037], [150.7276, -32.7279], [150.6332, -32.7024], [150.5585, -32.7585], [150.4946, -32.7512], [150.3649, -32.8449], [150.2193, -32.7612], [150.241, -32.7187], [150.0926, -32.7162], [150.0399, -32.6351], [149.8763, -32.5329], [149.8821, -32.4446], [149.7043, -32.3768], [149.6715, -32.2515], [149.766, -32.1476], [149.7529, -32.0974], [149.8718, -32.0151], [149.9024, -31.9393], [150.0701, -31.7801], [150.1529, -31.7671], [150.1824, -31.8187], [150.2932, -31.849], [150.3343, -31.8254], [150.5457, -31.8582], [150.7238, -31.8385], [150.7115, -31.7974], [150.8485, -31.7249], [150.9146, -31.6457], [151.0701, -31.5949], [151.2329, -31.6524], [151.2399, -31.6787], [151.3301, -31.6804], [151.4193, -31.7535], [151.4613, -31.8501], [151.4321, -31.9149], [151.4546, -31.9912], [151.4038, -32.0437], [151.6496, -32.1012], [151.7288, -32.2362], [151.7615, -32.2646], [151.8071, -32.2424]]]}}, {"type": "Feature", "properties": {"label": "Mitchell-Thomson", "state": "Vic", "division": "South East Coast (Victoria)", "area_ha": 2113189, "official_name": "MITCHELL-THOMSON RIVERS", "carbon": true, "water": false, "water_scheme": null, "zone": false}, "geometry": {"type": "Polygon", "coordinates": [[[148.0235, -37.0974], [148.0043, -37.2107], [148.101, -37.2712], [148.0876, -37.3262], [148.1321, -37.3929], [148.1043, -37.4407], [148.1993, -37.5829], [148.1118, -37.6718], [148.1863, -37.8304], [147.7218, -37.989], [147.2085, -38.364], [147.1896, -38.3154], [147.1557, -38.3282], [147.004, -38.2857], [146.9413, -38.2312], [146.8232, -38.216], [146.6807, -38.2735], [146.5651, -38.4332], [146.4274, -38.4715], [146.3529, -38.5374], [146.2904, -38.5285], [146.2749, -38.4429], [146.1971, -38.4457], [146.2021, -38.4104], [146.1274, -38.3865], [146.1768, -38.3046], [146.1401, -38.3237], [146.0515, -38.2485], [145.9001, -38.2999], [145.9235, -38.2351], [145.8882, -38.2229], [145.9249, -38.1968], [145.884, -38.1371], [145.9726, -38.0985], [145.9413, -37.9846], [145.9621, -37.9237], [145.7854, -37.9187], [145.7657, -37.8843], [145.8135, -37.8568], [145.7913, -37.8221], [145.8429, -37.7937], [145.9257, -37.8287], [145.9438, -37.7574], [146.0901, -37.7543], [146.1315, -37.7918], [146.1704, -37.7643], [146.1271, -37.6474], [146.1899, -37.576], [146.3715, -37.6312], [146.404, -37.6049], [146.4615, -37.6182], [146.5026, -37.5587], [146.389, -37.4612], [146.4304, -37.4115], [146.4265, -37.3412], [146.4535, -37.2885], [146.5726, -37.2849], [146.5974, -37.1976], [146.6557, -37.1718], [146.6524, -37.1162], [146.7826, -37.1096], [146.9168, -37.036], [146.9951, -37.0518], [147.1304, -36.9746], [147.2415, -37.0221], [147.3688, -37.1985], [147.4196, -37.2174], [147.429, -37.2687], [147.5296, -37.319], [147.5754, -37.1929], [147.696, -37.1215], [147.7204, -37.0207], [147.8185, -37.0012], [147.9035, -36.914], [147.9774, -36.9168], [147.9921, -37.0207], [147.9401, -37.0618], [148.0235, -37.0974]]]}}, {"type": "Feature", "properties": {"label": "Castlereagh", "state": "NSW", "division": "Murray-Darling Basin", "area_ha": 1895328, "official_name": "CASTLEREAGH RIVER", "carbon": true, "water": true, "water_scheme": "ACWIS", "zone": false}, "geometry": {"type": "Polygon", "coordinates": [[[148.3665, -30.1518], [148.4243, -30.2301], [148.401, -30.276], [148.5357, -30.4093], [148.5757, -30.5076], [148.7024, -30.5926], [148.7893, -30.7299], [148.8699, -30.7318], [148.9349, -30.781], [148.9407, -30.8226], [149.069, -30.9465], [149.0726, -31.1165], [149.0288, -31.2607], [149.0671, -31.2751], [149.3615, -31.1954], [149.5215, -31.2346], [149.5779, -31.2687], [149.5935, -31.3096], [149.5651, -31.3771], [149.6532, -31.471], [149.6732, -31.5576], [149.8129, -31.5837], [149.8646, -31.6371], [149.8638, -31.6807], [149.7424, -31.7321], [149.6426, -31.8479], [149.5504, -31.8485], [149.2585, -31.9574], [149.1026, -31.9457], [149.0563, -31.991], [148.9296, -32.0104], [148.8615, -32.0565], [148.8121, -31.9471], [148.7579, -31.9171], [148.7693, -31.8699], [148.7138, -31.8482], [148.7126, -31.7737], [148.6449, -31.7287], [148.5443, -31.5076], [148.441, -31.3926], [148.3563, -31.359], [148.2413, -31.2079], [148.1193, -31.1601], [148.0754, -30.9921], [148.0049, -30.9901], [148.0024, -30.9349], [147.8057, -30.8021], [147.8004, -30.7507], [147.8346, -30.7332], [147.8113, -30.6549], [147.8926, -30.6282], [147.8604, -30.5154], [147.8204, -30.5024], [147.8488, -30.4596], [147.8229, -30.364], [147.8426, -30.3135], [147.9038, -30.2821], [147.8565, -30.2862], [147.8501, -30.236], [147.8063, -30.2507], [147.7649, -30.2026], [147.7126, -30.2474], [147.6421, -30.1762], [147.5943, -30.2312], [147.5171, -30.1985], [147.5401, -30.156], [147.6388, -30.1429], [147.7568, -30.0604], [147.8296, -30.0537], [147.864, -30.094], [147.9288, -30.0407], [148.0629, -30.0382], [148.0799, -30.0729], [148.1424, -30.0229], [148.1779, -30.0621], [148.2001, -30.0437], [148.2513, -30.1346], [148.3665, -30.1518]]]}}, {"type": "Feature", "properties": {"label": "Murray Riverina", "state": "NSW", "division": "Murray-Darling Basin", "area_ha": 1893369, "official_name": "MURRAY RIVERINA", "carbon": true, "water": true, "water_scheme": "ACWIS", "zone": false}, "geometry": {"type": "Polygon", "coordinates": [[[143.7424, -34.9776], [143.924, -35.0115], [143.9788, -35.0562], [144.0851, -35.0237], [144.0696, -35.0851], [144.039, -35.0887], [144.0335, -35.0949], [144.1693, -35.1579], [144.2207, -35.1107], [144.3326, -35.0904], [144.4501, -35.1607], [144.5849, -35.119], [144.6088, -35.1526], [144.6351, -35.1382], [144.731, -35.2399], [144.8349, -35.2485], [144.9449, -35.3604], [145.0601, -35.3779], [145.1418, -35.3546], [145.4104, -35.5826], [145.4701, -35.5565], [145.6043, -35.6129], [145.6335, -35.6632], [145.7176, -35.6368], [145.8238, -35.6762], [145.8332, -35.7521], [145.7938, -35.8079], [146.026, -35.7626], [146.1935, -35.8801], [146.3388, -35.8132], [146.4765, -35.891], [146.5546, -35.8462], [146.5824, -35.7799], [146.7007, -35.766], [146.8146, -35.8774], [146.8501, -36.0099], [147.0004, -35.9654], [147.056, -36.046], [147.0446, -36.0904], [147.0107, -36.1346], [146.9471, -36.1132], [146.8704, -36.194], [146.8243, -36.1993], [146.8438, -36.2718], [146.7596, -36.2371], [146.6054, -36.2715], [146.5882, -36.2415], [146.5135, -36.2332], [146.4168, -36.321], [146.3382, -36.296], [146.2993, -36.1557], [146.1776, -36.0332], [146.1335, -36.1151], [146.1107, -36.0701], [146.0326, -36.0657], [145.9935, -36.0168], [145.9201, -36.0137], [145.8874, -35.9818], [145.7329, -35.9999], [145.6929, -35.9543], [145.6338, -35.9937], [145.5504, -35.9376], [145.3332, -35.8999], [145.2685, -35.8537], [145.1854, -35.864], [145.086, -35.9393], [144.9554, -35.9621], [144.9907, -36.0329], [144.9793, -36.089], [144.8707, -36.0629], [144.7549, -36.156], [144.7426, -36.1174], [144.6804, -36.1146], [144.6676, -36.0718], [144.6135, -36.0946], [144.6138, -36.0443], [144.5807, -36.0299], [144.5521, -36.0935], [144.4779, -36.0029], [144.4154, -36.0079], [144.3768, -35.954], [144.2304, -35.8801], [144.254, -35.8112], [144.219, -35.8079], [144.171, -35.7274], [144.1288, -35.7318], [144.1146, -35.6787], [144.0749, -35.7026], [143.9554, -35.6265], [143.9196, -35.5343], [143.8863, -35.5274], [143.8907, -35.4899], [143.8126, -35.4362], [143.7113, -35.394], [143.636, -35.4137], [143.5607, -35.3418], [143.5574, -35.4071], [143.4724, -35.4835], [143.4299, -35.3312], [143.3646, -35.3407], [143.2807, -35.2282], [143.306, -35.1949], [143.2538, -35.0415], [143.2801, -35.0304], [143.2679, -34.9435], [143.2354, -34.901], [143.2679, -34.8412], [143.2257, -34.8074], [143.2407, -34.8285], [143.189, -34.8715], [143.1385, -34.8696], [143.104, -34.7924], [143.1582, -34.7396], [143.2082, -34.7668], [143.2479, -34.7121], [143.3518, -34.7601], [143.3874, -34.8115], [143.4807, -34.7801], [143.5732, -34.9635], [143.6004, -34.9421], [143.6479, -34.9915], [143.7424, -34.9776]]]}}, {"type": "Feature", "properties": {"label": "Goulburn", "state": "Vic", "division": "Murray-Darling Basin", "area_ha": 1710458, "official_name": "GOULBURN RIVER", "carbon": true, "water": true, "water_scheme": "ACWIS", "zone": false}, "geometry": {"type": "Polygon", "coordinates": [[[145.3129, -36.1804], [145.3251, -36.2529], [145.4451, -36.3635], [145.4396, -36.4129], [145.3676, -36.3979], [145.3924, -36.436], [145.5193, -36.4726], [145.641, -36.4226], [145.7682, -36.5215], [145.8771, -36.5532], [145.874, -36.6565], [145.824, -36.681], [145.7999, -36.7849], [145.8479, -36.7907], [145.8654, -36.8787], [145.9488, -36.9262], [145.9638, -36.9671], [146.2349, -37.0549], [146.3026, -37.0182], [146.4018, -37.049], [146.4999, -37.1257], [146.6549, -37.1685], [146.5974, -37.1976], [146.5726, -37.2849], [146.4535, -37.2885], [146.4265, -37.3412], [146.4304, -37.4115], [146.389, -37.4612], [146.5026, -37.5587], [146.4615, -37.6182], [146.404, -37.6049], [146.3715, -37.6312], [146.1899, -37.576], [146.1585, -37.6301], [146.0546, -37.6654], [145.9588, -37.554], [145.926, -37.5729], [145.8813, -37.5243], [145.8254, -37.5268], [145.809, -37.564], [145.736, -37.5685], [145.7679, -37.6618], [145.7371, -37.6779], [145.6215, -37.5712], [145.561, -37.5932], [145.4168, -37.5235], [145.3429, -37.5346], [145.0854, -37.3712], [144.9654, -37.3807], [144.9318, -37.3087], [144.8418, -37.3115], [144.8243, -37.2249], [144.6568, -37.206], [144.7101, -37.1029], [144.7435, -37.1346], [144.8285, -37.0635], [144.7279, -36.9249], [144.7499, -36.8743], [144.6593, -36.8221], [144.7238, -36.7804], [144.7535, -36.6112], [144.766, -36.486], [144.7043, -36.3471], [144.7785, -36.2824], [144.7596, -36.1371], [144.8707, -36.0629], [144.9793, -36.089], [145.0054, -36.0162], [145.169, -36.076], [145.2663, -36.0679], [145.2904, -36.1265], [145.3499, -36.164], [145.3129, -36.1804]]]}}, {"type": "Feature", "properties": {"label": "Loddon", "state": "Vic", "division": "Murray-Darling Basin", "area_ha": 1575027, "official_name": "LODDON RIVER", "carbon": true, "water": true, "water_scheme": "ACWIS", "zone": false}, "geometry": {"type": "Polygon", "coordinates": [[[144.381, -35.9901], [144.4774, -36.0026], [144.551, -36.0618], [144.6151, -36.2096], [144.5974, -36.311], [144.6249, -36.3965], [144.5926, -36.4429], [144.609, -36.519], [144.4863, -36.7257], [144.3218, -36.7596], [144.2426, -36.8574], [144.3082, -36.9915], [144.3115, -37.1326], [144.2868, -37.1704], [144.3063, -37.2529], [144.2713, -37.3365], [144.2963, -37.3687], [144.2432, -37.4224], [144.1204, -37.4254], [144.0368, -37.484], [143.9032, -37.5054], [143.7796, -37.4076], [143.6899, -37.4174], [143.5729, -37.3307], [143.4554, -37.3307], [143.4449, -37.2354], [143.5379, -37.1557], [143.5238, -37.0899], [143.584, -37.0362], [143.6007, -36.9757], [143.5746, -36.9332], [143.6349, -36.8326], [143.6265, -36.6574], [143.694, -36.5749], [143.6615, -36.5649], [143.6799, -36.5229], [143.5954, -36.4668], [143.5793, -36.4143], [143.499, -36.479], [143.4218, -36.4407], [143.3968, -36.3129], [143.4185, -36.2696], [143.3868, -36.2201], [143.5257, -36.1068], [143.6043, -36.1568], [143.6168, -36.2299], [143.6599, -36.2251], [143.6599, -36.1637], [143.6082, -36.1382], [143.626, -36.0868], [143.5965, -35.954], [143.6724, -35.9354], [143.769, -35.7982], [143.7829, -35.7154], [143.7479, -35.6676], [143.6179, -35.7132], [143.5715, -35.7351], [143.5263, -35.836], [143.4301, -35.8562], [143.4238, -35.6557], [143.4654, -35.6351], [143.4674, -35.4826], [143.5165, -35.4704], [143.5115, -35.4349], [143.5668, -35.3821], [143.5576, -35.3437], [143.636, -35.4137], [143.7432, -35.4001], [143.8871, -35.4868], [143.9554, -35.6265], [144.0749, -35.7026], [144.1146, -35.6787], [144.1288, -35.7318], [144.171, -35.7274], [144.219, -35.8079], [144.2635, -35.8254], [144.2301, -35.8799], [144.3768, -35.954], [144.381, -35.9901]]]}}, {"type": "Feature", "properties": {"label": "Upper Murray", "state": "NSW / Vic", "division": "Murray-Darling Basin", "area_ha": 1533338, "official_name": "UPPER MURRAY RIVER", "carbon": true, "water": true, "water_scheme": "ACWIS", "zone": false}, "geometry": {"type": "Polygon", "coordinates": [[[148.3496, -35.916], [148.3249, -35.9699], [148.386, -36.0268], [148.3443, -36.1096], [148.3724, -36.1576], [148.4385, -36.184], [148.4329, -36.2501], [148.2699, -36.4332], [148.2507, -36.5449], [148.3085, -36.5949], [148.2465, -36.6274], [148.2532, -36.6901], [148.2013, -36.799], [148.1535, -36.8199], [148.1501, -36.8607], [148.0696, -36.8885], [148.0001, -36.9857], [147.9771, -36.9162], [147.9021, -36.914], [147.8185, -37.0012], [147.7257, -37.0165], [147.696, -37.1215], [147.5754, -37.1929], [147.5293, -37.3187], [147.4299, -37.2696], [147.4196, -37.2174], [147.3688, -37.1985], [147.2415, -37.0221], [147.1357, -36.9774], [147.2146, -36.9065], [147.2868, -36.9262], [147.3493, -36.8632], [147.2688, -36.7837], [147.3085, -36.6899], [147.2146, -36.6704], [147.1679, -36.631], [147.164, -36.5687], [147.1254, -36.551], [147.0843, -36.2854], [147.0035, -36.1393], [147.056, -36.0465], [147.0393, -35.9993], [146.9999, -35.9654], [146.8501, -36.0099], [146.8207, -35.8901], [146.8529, -35.8493], [146.9124, -35.8526], [146.9249, -35.8182], [147.0707, -35.8215], [147.0804, -35.7896], [147.1246, -35.854], [147.1993, -35.8426], [147.3054, -35.9454], [147.3774, -35.8585], [147.5846, -35.8471], [147.6229, -35.6562], [147.671, -35.6912], [147.8021, -35.6829], [147.8246, -35.644], [147.8924, -35.6315], [147.9963, -35.7474], [148.0685, -35.6282], [148.131, -35.5979], [148.1426, -35.6796], [148.2715, -35.7665], [148.2982, -35.8143], [148.286, -35.8829], [148.3496, -35.916]]]}}, {"type": "Feature", "properties": {"label": "Broughton", "state": "SA", "division": "South Australian Gulf", "area_ha": 1501054, "official_name": "BROUGHTON RIVER", "carbon": true, "water": false, "water_scheme": null, "zone": false}, "geometry": {"type": "Polygon", "coordinates": [[[138.1932, -33.5826], [138.1313, -33.7429], [138.2601, -33.8387], [138.289, -34.0032], [138.2646, -34.0071], [138.2674, -34.0643], [138.2982, -34.1262], [138.1954, -34.1371], [138.129, -34.181], [138.0832, -34.1368], [138.0101, -34.2351], [138.0115, -34.3426], [137.9185, -34.4271], [137.886, -34.5135], [137.8763, -34.5987], [137.9071, -34.6162], [137.8651, -34.7787], [137.7993, -34.8804], [137.7646, -35.0418], [137.7318, -35.0451], [137.7099, -35.0604], [137.7596, -35.1143], [137.6374, -35.1685], [137.5563, -35.1176], [137.4246, -35.0979], [137.3376, -35.1674], [137.2376, -35.1649], [137.1735, -35.2382], [137.0018, -35.2232], [136.9443, -35.2826], [136.8568, -35.2896], [136.821, -35.2449], [136.846, -35.1904], [136.9415, -35.1287], [136.9626, -35.0837], [136.9293, -35.0301], [137.0099, -34.8951], [137.1013, -34.9199], [137.2771, -34.8937], [137.3746, -34.9535], [137.4504, -34.9074], [137.5093, -34.6137], [137.4815, -34.4393], [137.4521, -34.4307], [137.4265, -34.4732], [137.4135, -34.4546], [137.4765, -34.3918], [137.5001, -34.3101], [137.5004, -34.2279], [137.4493, -34.136], [137.5215, -34.1299], [137.5671, -34.0415], [137.5093, -34.0071], [137.631, -33.9212], [137.6004, -33.876], [137.8793, -33.5954], [137.919, -33.5851], [137.8946, -33.6221], [137.9179, -33.6249], [137.9351, -33.5532], [137.9732, -33.5521], [137.9385, -33.5474], [137.9463, -33.5079], [137.8704, -33.3962], [137.8838, -33.3512], [137.8115, -33.2793], [137.834, -33.2049], [138.0054, -33.1293], [138.0176, -33.3074], [138.0832, -33.349], [138.126, -33.319], [138.1779, -33.3324], [138.2124, -33.2643], [138.1676, -33.1824], [138.159, -32.9971], [138.3088, -32.9624], [138.371, -32.8776], [138.4379, -32.9407], [138.4954, -32.9254], [138.511, -32.8754], [138.5746, -32.8785], [138.6121, -32.9071], [138.566, -32.9851], [138.591, -33.1251], [138.684, -33.1165], [138.7399, -33.2607], [138.7935, -33.1971], [138.8732, -33.2096], [138.9318, -33.2624], [138.8424, -33.4032], [138.9318, -33.4426], [138.8721, -33.4729], [138.8646, -33.5865], [138.8357, -33.594], [138.8976, -33.7162], [138.8885, -33.7787], [138.8079, -33.7751], [138.8365, -33.8915], [138.7665, -33.9076], [138.7085, -33.8782], [138.6768, -33.9318], [138.5838, -33.901], [138.5426, -33.7857], [138.571, -33.7049], [138.5474, -33.6274], [138.451, -33.6765], [138.4176, -33.6179], [138.2904, -33.5732], [138.1932, -33.5826]]]}}, {"type": "Feature", "properties": {"label": "Glenelg", "state": "Vic", "division": "South East Coast (Victoria)", "area_ha": 1400908, "official_name": "GLENELG RIVER", "carbon": true, "water": false, "water_scheme": null, "zone": false}, "geometry": {"type": "Polygon", "coordinates": [[[141.6249, -36.976], [141.651, -37.0876], [141.6835, -37.0724], [141.8026, -37.1396], [141.8613, -37.0899], [141.9013, -37.106], [141.9493, -37.0332], [142.0888, -37.1065], [142.2193, -37.0615], [142.314, -37.1301], [142.3599, -37.1001], [142.4271, -37.1474], [142.4796, -37.1426], [142.516, -37.2765], [142.5671, -37.2837], [142.5918, -37.3237], [142.5726, -37.4854], [142.5371, -37.541], [142.6054, -37.6407], [142.5454, -37.6879], [142.4629, -37.6982], [142.4607, -37.7382], [142.4135, -37.7276], [142.3815, -37.8324], [142.3126, -37.8893], [142.1782, -37.8724], [142.1513, -37.9137], [142.0988, -37.909], [142.0193, -37.8226], [141.8413, -37.8096], [141.7326, -37.9032], [141.7593, -37.961], [141.7382, -37.9849], [141.5749, -38.0068], [141.5215, -38.059], [141.4415, -38.0326], [141.4146, -38.0601], [141.3643, -38.0287], [141.3554, -38.0874], [141.3951, -38.1132], [141.2929, -38.1721], [141.296, -38.2204], [141.0371, -38.0746], [140.8915, -38.0485], [140.914, -38.0365], [140.8801, -37.9868], [140.9304, -37.9951], [140.9368, -37.979], [140.6715, -37.8185], [140.681, -37.7162], [140.6326, -37.7043], [140.6143, -37.7318], [140.5276, -37.6932], [140.4904, -37.5876], [140.6318, -37.6357], [140.6888, -37.586], [140.7171, -37.6271], [140.7676, -37.6304], [140.8196, -37.6143], [140.7971, -37.5854], [140.8218, -37.5587], [140.9026, -37.5368], [140.9485, -37.5762], [140.9835, -37.5674], [140.9829, -37.5246], [140.9226, -37.4835], [140.929, -37.4162], [140.9513, -37.4218], [140.9765, -37.3504], [141.1415, -37.3287], [141.0699, -37.2704], [141.0554, -37.2051], [141.1324, -37.1846], [141.2299, -37.2174], [141.2604, -37.1582], [141.3424, -37.1365], [141.336, -37.099], [141.3807, -37.0712], [141.5124, -37.0924], [141.5588, -37.0012], [141.6249, -36.976]]]}}, {"type": "Feature", "properties": {"label": "Brisbane", "state": "Qld", "division": "North East Coast", "area_ha": 1354958, "official_name": "BRISBANE RIVER", "carbon": true, "water": false, "water_scheme": null, "zone": false}, "geometry": {"type": "Polygon", "coordinates": [[[153.1799, -27.3604], [153.1246, -27.5899], [153.0507, -27.6118], [152.9843, -27.7385], [152.8351, -27.7851], [152.7404, -27.9257], [152.6138, -27.9929], [152.4899, -28.2126], [152.4113, -28.114], [152.3818, -27.966], [152.2226, -27.9482], [152.1515, -27.8762], [152.1432, -27.8237], [152.0563, -27.8149], [152.0332, -27.7593], [151.994, -27.7635], [151.9857, -27.6499], [151.9424, -27.6326], [151.9874, -27.5799], [151.9382, -27.4749], [152.071, -27.361], [152.0657, -27.3207], [151.9685, -27.2385], [151.9038, -27.2474], [151.7757, -27.0799], [151.7401, -27.0721], [151.7432, -27.0282], [151.6471, -26.914], [151.7579, -26.9476], [151.8868, -26.881], [151.9513, -26.7537], [152.0579, -26.6604], [152.1315, -26.6385], [152.1382, -26.4768], [152.2143, -26.5132], [152.2776, -26.4526], [152.3168, -26.4829], [152.3496, -26.469], [152.3521, -26.6001], [152.4554, -26.6596], [152.5015, -26.7593], [152.5724, -26.711], [152.6015, -26.7576], [152.6657, -26.7715], [152.681, -26.841], [152.726, -26.8524], [152.8138, -26.7765], [152.9296, -26.7974], [152.8882, -26.8418], [152.8932, -26.9293], [152.8426, -26.941], [152.8546, -26.9871], [152.8143, -26.989], [152.781, -27.0765], [152.7307, -27.1085], [152.7329, -27.1715], [152.6813, -27.254], [152.7049, -27.2924], [152.7574, -27.3004], [152.7843, -27.3996], [152.9663, -27.4379], [153.1046, -27.4318], [153.1504, -27.394], [153.1079, -27.4407], [153.0482, -27.4415], [153.0524, -27.4629], [153.0532, -27.4421], [153.0993, -27.4479], [153.1415, -27.4224], [153.1799, -27.3604]]]}}, {"type": "Feature", "properties": {"label": "Macleay", "state": "NSW", "division": "South East Coast (NSW)", "area_ha": 1139955, "official_name": "MACLEAY RIVER", "carbon": true, "water": false, "water_scheme": null, "zone": false}, "geometry": {"type": "Polygon", "coordinates": [[[151.6565, -31.3343], [151.6685, -31.2318], [151.5535, -31.1299], [151.5504, -31.0193], [151.4874, -31.0346], [151.4401, -31.0015], [151.4215, -30.9482], [151.461, -30.9001], [151.3971, -30.8385], [151.4449, -30.8007], [151.4401, -30.7654], [151.484, -30.751], [151.4726, -30.6865], [151.5343, -30.6457], [151.5488, -30.4982], [151.5165, -30.4051], [151.5857, -30.3968], [151.6354, -30.3226], [151.694, -30.3024], [151.6568, -30.1065], [151.6818, -30.0065], [151.7218, -30.0493], [151.6985, -30.0954], [151.7763, -30.2346], [151.8646, -30.2357], [151.9324, -30.2862], [152.1326, -30.2785], [152.2482, -30.449], [152.3935, -30.4429], [152.3996, -30.5018], [152.4993, -30.5662], [152.5518, -30.6924], [152.6835, -30.8129], [152.6643, -30.8615], [152.7335, -30.8643], [152.7632, -30.924], [152.8899, -30.8787], [152.9196, -30.8143], [153.0015, -30.751], [153.0229, -30.8729], [152.9929, -30.7968], [152.9918, -30.901], [153.0265, -30.936], [152.9801, -30.964], [152.9757, -30.9771], [152.9868, -30.9887], [152.9785, -31.0001], [152.9524, -31.0065], [152.9438, -31.0257], [152.9385, -31.0096], [152.9279, -31.0004], [152.9199, -30.999], [152.9115, -31.019], [152.8604, -31.0482], [152.8496, -31.0618], [152.8485, -31.0701], [152.909, -31.0235], [152.9232, -31.0001], [152.9432, -31.0274], [152.9874, -30.9943], [152.9846, -30.9624], [153.0365, -30.9324], [153.0096, -30.9157], [153.0199, -30.8771], [153.0774, -30.8779], [153.0885, -30.911], [153.0385, -31.0043], [153.0563, -31.0785], [152.9643, -31.1601], [152.9071, -31.1604], [152.8521, -31.1182], [152.7874, -31.1212], [152.7507, -31.164], [152.5982, -31.1235], [152.5204, -31.1671], [152.386, -31.1668], [152.3507, -31.1176], [152.2929, -31.1529], [152.236, -31.1051], [152.1515, -31.186], [152.1399, -31.286], [151.9621, -31.2854], [151.8929, -31.3374], [151.8393, -31.2774], [151.7549, -31.346], [151.6565, -31.3343]]]}}, {"type": "Feature", "properties": {"label": "Tamar", "state": "Tas", "division": "Tasmania", "area_ha": 1129664, "official_name": "TAMAR RIVER", "carbon": true, "water": false, "water_scheme": null, "zone": false}, "geometry": {"type": "Polygon", "coordinates": [[[147.9954, -41.3474], [148.041, -41.5357], [148.1749, -41.5343], [148.2415, -41.5721], [148.2471, -41.6201], [148.164, -41.6646], [148.1782, -41.7218], [148.1279, -41.7396], [148.1218, -41.781], [148.0626, -41.7946], [148.0801, -41.8343], [148.0549, -41.8621], [147.9149, -41.8576], [147.8313, -41.8943], [147.8579, -41.9807], [147.8407, -42.0749], [147.8893, -42.144], [147.889, -42.2357], [147.7846, -42.2601], [147.7601, -42.2504], [147.7585, -42.2151], [147.739, -42.2082], [147.6482, -42.2451], [147.6032, -42.306], [147.4926, -42.326], [147.5088, -42.3737], [147.471, -42.3682], [147.4835, -42.3935], [147.4576, -42.4035], [147.4079, -42.3676], [147.4213, -42.2943], [147.3249, -42.221], [147.2585, -42.254], [147.1521, -42.226], [147.2232, -42.2035], [147.249, -42.1104], [147.1996, -41.9854], [147.1726, -42.0026], [147.1799, -42.054], [147.1413, -42.0396], [147.0413, -42.1232], [146.9718, -42.1099], [146.961, -42.0726], [146.8849, -42.0887], [146.8821, -42.0235], [146.8118, -41.9849], [146.8276, -41.9057], [146.876, -41.8721], [146.8379, -41.7801], [146.7493, -41.729], [146.5985, -41.789], [146.434, -41.6774], [146.4818, -41.6471], [146.4874, -41.5749], [146.7213, -41.4007], [146.7068, -41.356], [146.7501, -41.3687], [146.789, -41.3351], [146.6815, -41.181], [146.6943, -41.1304], [146.6485, -41.0951], [146.7071, -41.0632], [146.7893, -41.0932], [146.8204, -41.1376], [146.7893, -41.1393], [146.7704, -41.1624], [146.8176, -41.1454], [146.8371, -41.1965], [146.8351, -41.1626], [146.9226, -41.1693], [146.8976, -41.2029], [146.9471, -41.2596], [146.9746, -41.2524], [146.9726, -41.3104], [147.0326, -41.349], [147.0768, -41.3404], [147.0696, -41.3529], [147.0749, -41.3821], [147.124, -41.4101], [147.116, -41.421], [147.1279, -41.4401], [147.1315, -41.439], [147.1279, -41.4112], [147.0788, -41.366], [147.0821, -41.3426], [147.076, -41.3351], [146.9829, -41.3132], [147.0107, -41.2729], [146.9121, -41.214], [146.9593, -41.1835], [146.8174, -41.1237], [146.7854, -41.054], [146.8751, -41.0185], [146.9376, -41.0832], [146.9349, -41.1207], [146.994, -41.1168], [147.084, -41.1651], [147.1196, -41.284], [147.1815, -41.2946], [147.2329, -41.3707], [147.2815, -41.3554], [147.3004, -41.2621], [147.3524, -41.2601], [147.4354, -41.269], [147.4663, -41.3049], [147.5774, -41.2826], [147.6274, -41.3554], [147.8382, -41.3304], [147.8957, -41.3712], [147.9954, -41.3474]]]}}, {"type": "Feature", "properties": {"label": "Hopkins", "state": "Vic", "division": "South East Coast (Victoria)", "area_ha": 1012727, "official_name": "HOPKINS RIVER", "carbon": true, "water": false, "water_scheme": null, "zone": false}, "geometry": {"type": "Polygon", "coordinates": [[[143.1274, -38.021], [143.186, -38.119], [143.0865, -38.2207], [143.0238, -38.3762], [142.9426, -38.3951], [142.9146, -38.4326], [142.841, -38.4343], [142.7693, -38.5271], [142.3446, -38.3518], [142.4126, -38.219], [142.2615, -37.9604], [142.2757, -37.9096], [142.3815, -37.8324], [142.4135, -37.7276], [142.4607, -37.7382], [142.4629, -37.6982], [142.5454, -37.6879], [142.6054, -37.6407], [142.5376, -37.5526], [142.5832, -37.4301], [142.5732, -37.4182], [142.5757, -37.3418], [142.6949, -37.3312], [142.8679, -37.3685], [142.8543, -37.2824], [142.9699, -37.1665], [143.0315, -37.2329], [143.1018, -37.2479], [143.1249, -37.3346], [143.2176, -37.3201], [143.2374, -37.2832], [143.3321, -37.3054], [143.4357, -37.2693], [143.4554, -37.3307], [143.5729, -37.3307], [143.6899, -37.4174], [143.7796, -37.4076], [143.8176, -37.4632], [143.9032, -37.5051], [143.8996, -37.5299], [143.8057, -37.5471], [143.7099, -37.5218], [143.6543, -37.5693], [143.6593, -37.6199], [143.5965, -37.6674], [143.4565, -37.6696], [143.3104, -37.7643], [143.1274, -38.021]]]}}, {"type": "Feature", "properties": {"label": "Herbert", "state": "Qld", "division": "North East Coast", "area_ha": 996471, "official_name": "HERBERT RIVER", "carbon": false, "water": true, "water_scheme": "Reef Credits", "zone": false}, "geometry": {"type": "Polygon", "coordinates": [[[145.5174, -17.8857], [145.654, -18.0293], [145.6421, -18.0862], [145.7088, -18.106], [145.6849, -18.1687], [145.7518, -18.1568], [145.7868, -18.1829], [145.8357, -18.3179], [145.9663, -18.3007], [145.9807, -18.344], [146.1001, -18.4151], [146.1199, -18.5085], [146.2054, -18.4921], [146.2165, -18.4979], [146.2004, -18.5204], [146.2032, -18.5276], [146.2413, -18.4957], [146.3396, -18.5262], [146.3101, -18.6418], [146.3376, -18.621], [146.3382, -18.6318], [146.2732, -18.7576], [146.2621, -18.8626], [146.306, -18.9087], [146.2851, -18.9474], [146.0207, -18.9185], [145.999, -18.8746], [145.9015, -18.8654], [145.9032, -18.8396], [145.8301, -18.8165], [145.8157, -18.7521], [145.7382, -18.7162], [145.7463, -18.6574], [145.6821, -18.5332], [145.7146, -18.4804], [145.6004, -18.3585], [145.5288, -18.3474], [145.4918, -18.3882], [145.4346, -18.3087], [145.2846, -18.3187], [145.1015, -18.1451], [145.0013, -18.1471], [144.8157, -18.2407], [144.8765, -18.0765], [144.871, -17.8871], [144.9665, -17.7462], [144.951, -17.7187], [144.9943, -17.606], [145.0435, -17.6062], [145.0571, -17.5668], [145.1824, -17.5143], [145.2243, -17.5285], [145.2601, -17.4112], [145.359, -17.3843], [145.4138, -17.3274], [145.4657, -17.3765], [145.4801, -17.4882], [145.5435, -17.5032], [145.5293, -17.5899], [145.5568, -17.6524], [145.526, -17.7151], [145.5513, -17.776], [145.5174, -17.8857]]]}}, {"type": "Feature", "properties": {"label": "Mary", "state": "Qld", "division": "North East Coast", "area_ha": 943078, "official_name": "MARY RIVER (QLD)", "carbon": true, "water": true, "water_scheme": "Reef Credits", "zone": false}, "geometry": {"type": "Polygon", "coordinates": [[[152.9435, -26.2001], [152.8282, -26.2249], [152.836, -26.2757], [152.9979, -26.4182], [152.876, -26.4671], [152.8949, -26.5043], [152.8593, -26.5374], [152.8818, -26.5726], [152.8526, -26.6107], [152.9049, -26.6987], [152.8865, -26.7746], [152.8096, -26.7779], [152.7407, -26.8507], [152.684, -26.8424], [152.6657, -26.7715], [152.6015, -26.7576], [152.571, -26.7104], [152.5015, -26.7593], [152.4554, -26.6596], [152.3521, -26.6001], [152.3471, -26.4735], [152.4204, -26.3474], [152.3349, -26.3146], [152.3093, -26.2679], [152.2424, -26.3076], [152.1393, -26.2579], [152.0938, -26.0957], [152.2054, -26.0251], [152.2063, -25.9546], [152.1688, -25.8815], [152.1243, -25.8868], [152.1143, -25.8574], [152.0438, -25.8751], [152.0385, -25.7904], [151.9982, -25.7715], [151.981, -25.7135], [152.0138, -25.7096], [152.0468, -25.6121], [152.1151, -25.6246], [152.2238, -25.4893], [152.2726, -25.4826], [152.3085, -25.5885], [152.4265, -25.5662], [152.526, -25.5176], [152.6057, -25.406], [152.659, -25.3979], [152.7529, -25.2865], [152.786, -25.3179], [152.8354, -25.311], [152.8965, -25.3504], [152.9251, -25.4312], [152.8954, -25.409], [152.8532, -25.4076], [152.9096, -25.4287], [152.8746, -25.4315], [152.8496, -25.486], [152.7943, -25.4912], [152.7801, -25.5099], [152.8135, -25.4932], [152.8438, -25.5076], [152.8004, -25.5107], [152.7954, -25.5596], [152.7299, -25.5893], [152.761, -25.6193], [152.7368, -25.6926], [152.8013, -25.8399], [152.8424, -25.8679], [152.8557, -25.9276], [152.9363, -25.9474], [152.9724, -25.9965], [152.864, -26.0212], [152.8851, -26.0999], [152.9354, -26.1015], [152.9757, -26.154], [152.9435, -26.2001]]]}}, {"type": "Feature", "properties": {"label": "Manning", "state": "NSW", "division": "South East Coast (NSW)", "area_ha": 818661, "official_name": "MANNING RIVER", "carbon": true, "water": false, "water_scheme": null, "zone": false}, "geometry": {"type": "Polygon", "coordinates": [[[151.9501, -31.2982], [152.0671, -31.4037], [152.0965, -31.3904], [152.144, -31.4251], [152.1749, -31.5535], [152.1579, -31.6312], [152.389, -31.6157], [152.5065, -31.6751], [152.549, -31.7493], [152.6079, -31.729], [152.7504, -31.7621], [152.7332, -31.8274], [152.7546, -31.8449], [152.5988, -31.9415], [152.566, -32.0046], [152.5096, -31.9654], [152.4235, -31.9735], [152.3774, -32.0449], [152.3271, -32.0454], [152.3179, -32.0112], [152.1868, -31.9926], [152.1663, -32.0396], [152.0704, -32.0707], [152.1021, -32.1562], [152.0629, -32.1857], [152.0238, -32.1376], [151.8899, -32.1743], [151.8021, -32.1571], [151.7174, -32.0804], [151.5963, -32.1065], [151.404, -32.044], [151.4538, -31.9974], [151.4321, -31.9149], [151.4613, -31.8501], [151.4196, -31.7537], [151.3343, -31.6829], [151.2399, -31.6787], [151.1574, -31.6285], [151.1901, -31.5101], [151.2718, -31.4537], [151.3785, -31.479], [151.4215, -31.381], [151.544, -31.3865], [151.6515, -31.3326], [151.7549, -31.346], [151.8393, -31.2774], [151.8874, -31.3365], [151.9501, -31.2982]]]}}, {"type": "Feature", "properties": {"label": "Shoalhaven", "state": "NSW", "division": "South East Coast (NSW)", "area_ha": 719478, "official_name": "SHOALHAVEN RIVER", "carbon": true, "water": false, "water_scheme": null, "zone": false}, "geometry": {"type": "Polygon", "coordinates": [[[150.6624, -34.5893], [150.7224, -34.6762], [150.8524, -34.714], [150.8257, -34.7832], [150.7938, -34.781], [150.7549, -34.8329], [150.7774, -34.939], [150.5121, -34.959], [150.4682, -35.0251], [150.346, -35.1068], [150.3179, -35.1715], [150.2563, -35.1115], [150.2496, -35.1901], [150.1863, -35.1996], [150.1646, -35.2699], [150.0432, -35.3207], [150.0024, -35.4749], [149.976, -35.4493], [149.9549, -35.4685], [149.9079, -35.6715], [149.8413, -35.6212], [149.8243, -35.5612], [149.729, -35.5429], [149.7413, -35.6182], [149.6776, -35.6529], [149.6732, -35.7393], [149.7088, -35.7835], [149.6763, -35.8257], [149.6846, -35.9762], [149.6201, -35.9615], [149.5726, -36.009], [149.5215, -35.9799], [149.484, -35.8382], [149.5235, -35.8165], [149.4988, -35.6124], [149.5151, -35.5221], [149.554, -35.5096], [149.5296, -35.3901], [149.5718, -35.3576], [149.5449, -35.1787], [149.6268, -35.1587], [149.6376, -35.1085], [149.6826, -35.1307], [149.7632, -35.099], [149.786, -35.049], [149.7654, -34.9685], [149.8118, -34.8954], [149.8288, -34.7582], [149.9149, -34.7846], [150.0171, -34.6921], [150.0932, -34.709], [150.2632, -34.6807], [150.3221, -34.6493], [150.3126, -34.6074], [150.4279, -34.5776], [150.4788, -34.6124], [150.6624, -34.5893]]]}}, {"type": "Feature", "properties": {"label": "Richmond", "state": "NSW", "division": "South East Coast (NSW)", "area_ha": 700891, "official_name": "RICHMOND RIVER", "carbon": true, "water": false, "water_scheme": null, "zone": false}, "geometry": {"type": "Polygon", "coordinates": [[[153.1599, -28.5243], [153.3279, -28.5426], [153.3688, -28.5035], [153.5363, -28.6546], [153.5979, -28.6782], [153.6329, -28.6407], [153.5924, -28.876], [153.5776, -28.8387], [153.5754, -28.8715], [153.5185, -28.8685], [153.524, -28.8968], [153.4874, -28.9151], [153.4574, -28.9565], [153.451, -28.9932], [153.4185, -28.9904], [153.4263, -29.0157], [153.4021, -28.9976], [153.3757, -29.0249], [153.374, -29.0343], [153.3818, -29.0482], [153.3779, -29.0582], [153.354, -29.0635], [153.3368, -29.0704], [153.3357, -29.0443], [153.3318, -29.0396], [153.3274, -29.0382], [153.3185, -29.0426], [153.3363, -29.0721], [153.3785, -29.0599], [153.3838, -29.0496], [153.3771, -29.0251], [153.4015, -28.9993], [153.4232, -29.0185], [153.4593, -28.9943], [153.4626, -28.9557], [153.5282, -28.8974], [153.5285, -28.8754], [153.586, -28.8754], [153.4615, -29.0215], [153.4138, -29.1265], [153.4574, -29.1387], [153.4088, -29.1899], [153.381, -29.1593], [153.3304, -29.191], [153.2293, -29.1679], [153.1718, -29.3204], [153.0224, -29.3399], [152.8124, -29.3176], [152.804, -29.2371], [152.7179, -29.1826], [152.7588, -29.0907], [152.6899, -29.0346], [152.7465, -28.9915], [152.7613, -28.736], [152.7124, -28.6137], [152.7374, -28.5701], [152.7171, -28.4765], [152.6807, -28.4599], [152.6538, -28.3815], [152.6735, -28.3293], [152.7551, -28.3674], [152.8796, -28.3101], [153.109, -28.356], [153.1599, -28.5243]]]}}, {"type": "Feature", "properties": {"label": "Haughton", "state": "Qld", "division": "North East Coast", "area_ha": 421607, "official_name": "HAUGHTON RIVER", "carbon": false, "water": true, "water_scheme": "Reef Credits", "zone": false}, "geometry": {"type": "Polygon", "coordinates": [[[147.0632, -19.9504], [146.9424, -19.9882], [146.8732, -19.9168], [146.7876, -19.9424], [146.7254, -19.8921], [146.6435, -19.911], [146.6401, -19.8718], [146.5865, -19.8385], [146.591, -19.741], [146.4985, -19.6974], [146.5571, -19.6793], [146.5418, -19.5554], [146.5863, -19.5104], [146.6568, -19.606], [146.7399, -19.6479], [146.7296, -19.6896], [146.7804, -19.6985], [146.8176, -19.5885], [146.9426, -19.4896], [146.8799, -19.3468], [146.9076, -19.3424], [146.9088, -19.3018], [146.9796, -19.284], [147.0146, -19.1815], [147.1257, -19.4607], [147.1351, -19.4068], [147.1618, -19.4065], [147.1643, -19.4235], [147.1724, -19.4296], [147.1626, -19.4349], [147.1626, -19.444], [147.1676, -19.4487], [147.174, -19.4296], [147.166, -19.4137], [147.1732, -19.4104], [147.234, -19.4185], [147.239, -19.4471], [147.2532, -19.4543], [147.2999, -19.4079], [147.4399, -19.421], [147.4549, -19.3893], [147.4204, -19.3218], [147.4063, -19.3132], [147.4068, -19.3107], [147.4265, -19.3251], [147.4476, -19.3562], [147.5426, -19.5399], [147.4615, -19.5321], [147.3665, -19.5882], [147.3554, -19.6687], [147.2815, -19.6954], [147.2368, -19.7615], [147.2096, -19.9157], [147.0871, -19.9687], [147.0632, -19.9504]]]}}, {"type": "Feature", "properties": {"label": "Baffle Creek", "state": "Qld", "division": "North East Coast", "area_ha": 410196, "official_name": "BAFFLE CREEK", "carbon": false, "water": true, "water_scheme": "Reef Credits", "zone": false}, "geometry": {"type": "MultiPolygon", "coordinates": [[[[151.5438, -24.646], [151.4849, -24.5524], [151.5001, -24.4926], [151.4265, -24.461], [151.4171, -24.3757], [151.4588, -24.3504], [151.3635, -24.1937], [151.4426, -24.1837], [151.4499, -24.1385], [151.3551, -23.9907], [151.3621, -23.9324], [151.4293, -23.9907], [151.4288, -24.0124], [151.4074, -23.9918], [151.3899, -23.9846], [151.431, -24.0154], [151.411, -24.0315], [151.446, -24.0899], [151.4435, -24.026], [151.4657, -24.0726], [151.5176, -24.0482], [151.5635, -24.1118], [151.5654, -24.0362], [151.6813, -24.1049], [151.6771, -24.0487], [151.6035, -24.0076], [151.6257, -23.9732], [151.7288, -24.0226], [151.7151, -24.0849], [151.7404, -24.0021], [151.7646, -24.0151], [151.7851, -24.1168], [151.7526, -24.1235], [151.8743, -24.1732], [151.8554, -24.206], [151.8818, -24.1771], [151.8876, -24.1493], [152.0551, -24.511], [152.026, -24.531], [152.0638, -24.5199], [152.1507, -24.6285], [152.1557, -24.6812], [151.9999, -24.7999], [151.9549, -24.7021], [151.8421, -24.7918], [151.7493, -24.7135], [151.7313, -24.6465], [151.5685, -24.711], [151.5149, -24.6721], [151.5438, -24.646]], [[151.5438, -24.6462], [151.544, -24.6465], [151.544, -24.6462], [151.5438, -24.6462]], [[151.4426, -24.1837], [151.4429, -24.184], [151.4429, -24.1837], [151.4426, -24.1837]]], [[[151.4435, -23.9912], [151.4676, -23.994], [151.5454, -24.0368], [151.4765, -24.0443], [151.4435, -23.9912]]]]}}]}