{"type": "FeatureCollection", "name": "agriprove-deployment-zones", "crs": {"type": "name", "properties": {"name": "EPSG:4283"}}, "features": [{"type": "Feature", "properties": {"zone": "Lachlan", "base": "Forbes", "state": "NSW", "status": "planned", "radius_km": 134.0, "drive_hours": 2.1, "zone_ha": 4665105, "catchment_ha": 7705123, "catchment_covered_pct": 60.5, "water_scheme": "ACWIS", "status_note": "Planned deployment zone. Drive time reach around an intended base town, not a current operating footprint."}, "geometry": {"type": "Polygon", "coordinates": [[[148.0111, -32.1805], [149.2524, -32.7769], [149.2697, -33.9818], [148.0111, -34.5907], [146.7525, -33.9818], [146.7698, -32.7769], [148.0111, -32.1805]]]}}, {"type": "Feature", "properties": {"zone": "Murrumbidgee", "base": "Wagga Wagga", "state": "NSW", "status": "planned", "radius_km": 134.0, "drive_hours": 2.1, "zone_ha": 4665105, "catchment_ha": 4737598, "catchment_covered_pct": 98.5, "water_scheme": "ACWIS", "status_note": "Planned deployment zone. Drive time reach around an intended base town, not a current operating footprint."}, "geometry": {"type": "Polygon", "coordinates": [[[147.3598, -33.9031], [148.6262, -34.4991], [148.645, -35.704], [147.3598, -36.3133], [146.0746, -35.704], [146.0934, -34.4991], [147.3598, -33.9031]]]}}, {"type": "Feature", "properties": {"zone": "Fitzroy", "base": "Emerald", "state": "Qld", "status": "planned", "radius_km": 134.0, "drive_hours": 2.1, "zone_ha": 4665105, "catchment_ha": 14258462, "catchment_covered_pct": 32.7, "water_scheme": "Reef Credits", "status_note": "Planned deployment zone. Drive time reach around an intended base town, not a current operating footprint."}, "geometry": {"type": "Polygon", "coordinates": [[[148.1594, -22.3205], [149.2925, -22.919], [149.3029, -24.124], [148.1594, -24.7307], [147.0159, -24.124], [147.0263, -22.919], [148.1594, -22.3205]]]}}, {"type": "Feature", "properties": {"zone": "Burdekin", "base": "Charters Towers", "state": "Qld", "status": "planned", "radius_km": 134.0, "drive_hours": 2.1, "zone_ha": 4665105, "catchment_ha": 13105890, "catchment_covered_pct": 35.6, "water_scheme": "Reef Credits", "status_note": "Planned deployment zone. Drive time reach around an intended base town, not a current operating footprint."}, "geometry": {"type": "Polygon", "coordinates": [[[146.257, -18.8719], [147.3639, -19.471], [147.3725, -20.676], [146.257, -21.2821], [145.1415, -20.676], [145.1501, -19.471], [146.257, -18.8719]]]}}]}