{"type": "FeatureCollection", "name": "agriprove-zones-national", "crs": {"type": "name", "properties": {"name": "EPSG:4283"}}, "features": [{"type": "Feature", "properties": {"zone": "Burdekin", "name": "BURDEKIN RIVER", "division": "North East Coast", "area_ha": 13105890}, "geometry": {"type": "Polygon", "coordinates": [[[145.8301, -18.8165], [146.004, -18.8779], [146.0207, -18.9185], [146.1879, -18.9412], [146.1668, -19.0137], [146.2385, -19.0143], [146.236, -19.0451], [146.2996, -19.0693], [146.3118, -19.1151], [146.394, -19.1479], [146.4221, -19.2118], [146.4007, -19.2526], [146.4301, -19.2749], [146.4113, -19.2896], [146.5774, -19.4621], [146.5863, -19.5104], [146.539, -19.5826], [146.5571, -19.6793], [146.4985, -19.6974], [146.591, -19.741], [146.5865, -19.8385], [146.6401, -19.8718], [146.6435, -19.911], [146.7251, -19.8924], [146.7876, -19.9424], [146.8732, -19.9168], [146.9421, -19.9885], [147.1674, -19.9371], [147.2218, -19.9004], [147.2701, -19.7062], [147.3554, -19.6687], [147.3663, -19.5885], [147.4854, -19.5257], [147.5471, -19.5479], [147.5504, -19.5387], [147.5399, -19.5235], [147.5401, -19.5171], [147.5632, -19.561], [147.5743, -19.6004], [147.549, -19.5865], [147.514, -19.5937], [147.5732, -19.6068], [147.5882, -19.6526], [147.5226, -19.6649], [147.506, -19.649], [147.4849, -19.6493], [147.5818, -19.7076], [147.5732, -19.7443], [147.5888, -19.7257], [147.686, -19.844], [147.6868, -19.9201], [147.6479, -19.9762], [147.5749, -19.9826], [147.5738, -20.0507], [147.6801, -20.1287], [147.7846, -20.091], [147.8293, -20.126], [147.9026, -20.269], [148.0313, -20.3212], [148.0018, -20.4249], [148.0968, -20.5657], [148.141, -20.5218], [148.1926, -20.5701], [148.2857, -20.5676], [148.3754, -20.7032], [148.4313, -20.7057], [148.4763, -20.7974], [148.589, -20.8521], [148.6415, -20.9554], [148.6379, -21.0254], [148.5985, -21.0165], [148.4871, -21.1349], [148.5688, -21.1765], [148.5332, -21.3332], [148.4701, -21.2735], [148.3999, -21.3835], [148.344, -21.3782], [148.306, -21.4182], [148.1676, -21.4115], [148.1365, -21.4301], [148.1457, -21.4618], [148.0782, -21.4535], [148.0668, -21.5443], [147.9954, -21.5701], [147.9438, -21.6751], [147.9032, -21.6757], [147.8143, -21.7757], [147.8724, -21.8068], [147.8393, -21.8685], [147.779, -21.8868], [147.7804, -22.0332], [147.8788, -22.1346], [147.8801, -22.229], [147.9171, -22.2482], [147.9304, -22.3257], [148.0499, -22.3801], [148.064, -22.4624], [147.9449, -22.5515], [147.9038, -22.5215], [147.8201, -22.5393], [147.771, -22.5115], [147.7438, -22.5451], [147.7101, -22.5226], [147.6251, -22.5957], [147.629, -22.6276], [147.4221, -22.6587], [147.4307, -22.7496], [147.3699, -22.816], [147.3596, -22.911], [147.3921, -22.9599], [147.3118, -23.0507], [147.2585, -23.191], [147.294, -23.3235], [147.2493, -23.4549], [147.2824, -23.5229], [147.2182, -23.5507], [147.1965, -23.6096], [147.199, -23.7729], [147.2404, -23.8068], [147.2415, -23.9043], [147.1615, -23.9762], [147.2024, -24.0379], [147.1804, -24.0904], [146.9563, -24.1637], [146.9143, -24.324], [146.8118, -24.3771], [146.794, -24.4171], [146.7307, -24.4282], [146.7232, -24.3804], [146.6876, -24.3757], [146.551, -24.4387], [146.5129, -24.3843], [146.4221, -24.3524], [146.3615, -24.2618], [146.4085, -24.1776], [146.3743, -24.1332], [146.4254, -24.0107], [146.4101, -23.9651], [146.4451, -23.929], [146.384, -23.7835], [146.3976, -23.7499], [146.3513, -23.7476], [146.2557, -23.6301], [146.2871, -23.5771], [146.2874, -23.4674], [146.2024, -23.4235], [146.1832, -23.3746], [146.2307, -23.2926], [146.194, -23.2496], [146.1338, -23.2532], [146.2032, -23.1515], [146.1443, -23.1079], [146.1718, -23.0707], [146.1429, -22.9804], [146.099, -22.9771], [146.0943, -22.7187], [146.046, -22.6462], [146.0763, -22.5882], [146.0526, -22.5171], [146.1174, -22.4265], [146.0857, -22.391], [146.121, -22.3182], [146.1029, -22.2282], [146.0726, -22.2235], [146.0868, -22.1718], [146.0557, -22.1249], [146.0057, -22.1232], [145.9821, -22.0582], [145.9549, -22.1029], [145.8732, -22.0701], [145.7249, -22.1035], [145.7018, -22.0468], [145.5926, -21.9671], [145.6018, -21.8776], [145.7249, -21.8332], [145.8176, -21.8596], [145.8568, -21.909], [145.9796, -21.8943], [146.0979, -21.7604], [146.0726, -21.6732], [146.1018, -21.6387], [146.0876, -21.4946], [145.9368, -21.3924], [145.7329, -21.161], [145.6668, -21.1749], [145.5818, -21.3001], [145.6251, -21.3926], [145.5821, -21.5029], [145.4699, -21.4143], [145.4474, -21.3357], [145.374, -21.3437], [145.2688, -21.191], [145.2893, -21.0504], [145.3438, -21.0262], [145.3532, -20.951], [145.3015, -20.941], [145.2146, -20.8579], [145.1715, -20.7054], [145.094, -20.6446], [145.1346, -20.5649], [145.1135, -20.4235], [144.974, -20.3687], [144.9232, -20.3204], [144.9415, -20.2404], [144.7935, -20.1426], [144.8024, -20.0793], [144.761, -20.0451], [144.8035, -20.0174], [144.7774, -19.9235], [144.694, -19.9024], [144.6318, -19.9221], [144.614, -19.9676], [144.5068, -19.9501], [144.4299, -19.976], [144.4079, -19.9365], [144.321, -19.9074], [144.301, -19.7899], [144.2599, -19.7721], [144.2349, -19.7068], [144.2507, -19.5868], [144.3579, -19.584], [144.4093, -19.4854], [144.5179, -19.4421], [144.5324, -19.3862], [144.5888, -19.3982], [144.5882, -19.3676], [144.7046, -19.266], [144.706, -19.1871], [144.7679, -19.1443], [144.7338, -19.0926], [144.7449, -19.0312], [144.6982, -18.9882], [144.7082, -18.9126], [144.6185, -18.9024], [144.5665, -18.861], [144.5949, -18.7968], [144.6257, -18.7951], [144.6285, -18.6835], [144.6671, -18.6199], [144.6596, -18.456], [144.7504, -18.3515], [144.7488, -18.3043], [144.914, -18.181], [145.1015, -18.1451], [145.2846, -18.3187], [145.4346, -18.3087], [145.4918, -18.3882], [145.5288, -18.3474], [145.6274, -18.3737], [145.7146, -18.4804], [145.6821, -18.5332], [145.7463, -18.6574], [145.7382, -18.7162], [145.8157, -18.7521], [145.8301, -18.8165]]]}}, {"type": "Feature", "properties": {"zone": "Fitzroy", "name": "FITZROY RIVER (QLD)", "division": "North East Coast", "area_ha": 14258462}, "geometry": {"type": "Polygon", "coordinates": [[[149.1749, -21.6193], [149.224, -21.7349], [149.2082, -21.7774], [149.2899, -21.8043], [149.2704, -21.921], [149.3546, -21.9626], [149.4293, -22.0771], [149.3693, -22.1165], [149.3913, -22.2574], [149.3199, -22.3026], [149.314, -22.349], [149.3271, -22.4254], [149.3879, -22.4693], [149.3774, -22.6643], [149.4513, -22.7454], [149.4138, -22.7749], [149.4404, -22.8387], [149.5285, -22.826], [149.5393, -22.8615], [149.6399, -22.8899], [149.7593, -22.8093], [149.7546, -22.7668], [149.8651, -22.7601], [149.9351, -22.706], [149.9554, -22.7679], [150.1129, -22.9401], [150.2132, -22.991], [150.2843, -22.8851], [150.3785, -22.8654], [150.3565, -22.8357], [150.379, -22.7551], [150.4676, -22.7951], [150.5813, -22.7315], [150.6163, -22.8307], [150.5796, -22.8607], [150.6976, -22.9554], [150.6957, -23.0654], [150.7335, -23.1043], [150.7265, -23.1868], [150.6682, -23.2646], [150.7129, -23.3282], [150.6976, -23.3999], [150.7532, -23.4315], [150.7518, -23.4715], [150.7949, -23.476], [150.8115, -23.409], [150.8704, -23.4785], [150.8496, -23.5074], [150.6593, -23.4862], [150.6332, -23.5187], [150.7049, -23.5079], [150.7193, -23.546], [150.6863, -23.5726], [150.7024, -23.5832], [150.7057, -23.5624], [150.7246, -23.5685], [150.7004, -23.6249], [150.7365, -23.5896], [150.7871, -23.6174], [150.8038, -23.5626], [150.854, -23.5679], [150.8568, -23.6157], [150.8385, -23.606], [150.8315, -23.5921], [150.8238, -23.5893], [150.8157, -23.5954], [150.8204, -23.6124], [150.7999, -23.6085], [150.7951, -23.6124], [150.7963, -23.619], [150.8204, -23.6143], [150.8299, -23.5926], [150.8188, -23.6349], [150.8193, -23.6374], [150.8254, -23.6418], [150.8315, -23.6418], [150.8349, -23.639], [150.8368, -23.6399], [150.8388, -23.6554], [150.8374, -23.6385], [150.8201, -23.6365], [150.8251, -23.6149], [150.8618, -23.6171], [150.8715, -23.5799], [150.8971, -23.6257], [150.9251, -23.6212], [150.9301, -23.679], [150.9301, -23.6201], [150.9646, -23.609], [150.979, -23.556], [151.0057, -23.6804], [150.9849, -23.7387], [151.0046, -23.804], [150.8913, -23.8568], [150.8499, -23.9701], [150.6849, -23.9504], [150.7318, -24.0851], [150.7188, -24.1382], [150.7865, -24.1535], [150.806, -24.2171], [150.9207, -24.2596], [151.0374, -24.3849], [150.9913, -24.4115], [150.9743, -24.5779], [150.909, -24.6199], [150.8738, -24.721], [150.6521, -24.6907], [150.5993, -24.7251], [150.5974, -24.7754], [150.5688, -24.7835], [150.6032, -24.8757], [150.5501, -24.9074], [150.5351, -24.969], [150.5649, -24.9954], [150.5368, -25.0393], [150.5632, -25.0607], [150.5613, -25.1543], [150.4724, -25.1915], [150.3693, -25.479], [150.4007, -25.5085], [150.4026, -25.5979], [150.4354, -25.6007], [150.4557, -25.6512], [150.4235, -25.666], [150.4224, -25.7857], [150.3713, -25.8129], [150.4143, -25.8487], [150.4126, -25.8932], [150.3501, -25.9107], [150.306, -25.9965], [150.3396, -26.149], [150.1901, -26.1307], [150.1688, -26.1707], [150.2093, -26.1854], [150.1838, -26.2382], [150.2235, -26.2587], [150.1979, -26.3043], [150.1204, -26.2985], [150.1196, -26.3468], [149.9593, -26.4262], [149.7279, -26.3899], [149.7221, -26.3207], [149.6326, -26.3624], [149.4871, -26.3104], [149.4485, -26.3226], [149.4149, -26.2743], [149.186, -26.3212], [149.0776, -26.2724], [148.9996, -26.3076], [148.9885, -26.2407], [148.7926, -26.1754], [148.7674, -26.1182], [148.716, -26.1137], [148.7107, -26.0432], [148.6746, -26.0215], [148.5774, -26.0129], [148.5004, -26.0443], [148.3846, -26.0012], [148.2829, -26.0679], [148.2454, -26.0593], [148.2424, -25.9582], [148.2804, -25.8999], [148.2601, -25.7649], [148.3204, -25.7154], [148.304, -25.6032], [148.4029, -25.4421], [148.3535, -25.3454], [148.3868, -25.2804], [148.3474, -25.2204], [148.3024, -25.2149], [148.2351, -25.1015], [148.1596, -25.0846], [148.0901, -25.0107], [148.0576, -24.914], [147.9518, -24.8829], [147.8246, -24.7357], [147.7365, -24.7285], [147.5815, -24.8324], [147.5085, -24.8212], [147.4865, -24.8801], [147.3213, -24.8704], [147.2335, -24.9885], [147.1693, -24.9924], [147.1365, -24.9568], [147.1085, -24.9982], [146.999, -25.0385], [146.871, -24.8615], [146.9004, -24.811], [146.8782, -24.7679], [146.9443, -24.7001], [146.9338, -24.6751], [146.8646, -24.5851], [146.7632, -24.664], [146.6663, -24.6132], [146.6807, -24.5751], [146.5729, -24.4154], [146.6888, -24.3757], [146.7232, -24.3804], [146.7182, -24.3962], [146.7251, -24.4035], [146.724, -24.4221], [146.7304, -24.4282], [146.794, -24.4171], [146.8118, -24.3771], [146.9154, -24.3226], [146.9568, -24.1643], [147.1838, -24.0843], [147.204, -24.0201], [147.1615, -23.9762], [147.2415, -23.9043], [147.2404, -23.8068], [147.199, -23.7729], [147.1965, -23.6096], [147.2182, -23.5507], [147.2824, -23.5229], [147.2493, -23.4549], [147.294, -23.3235], [147.2585, -23.191], [147.3118, -23.0507], [147.3921, -22.9599], [147.3599, -22.9174], [147.3682, -22.8265], [147.3985, -22.7574], [147.4296, -22.7529], [147.4271, -22.6515], [147.629, -22.6276], [147.6251, -22.5957], [147.7101, -22.5226], [147.7438, -22.5451], [147.771, -22.5115], [147.8201, -22.5393], [147.9038, -22.5215], [147.9449, -22.5515], [148.0638, -22.4629], [148.0499, -22.3801], [147.9304, -22.3257], [147.9171, -22.2482], [147.8801, -22.229], [147.8788, -22.1346], [147.7929, -22.0576], [147.7668, -21.9507], [147.7896, -21.864], [147.8304, -21.8746], [147.8665, -21.8307], [147.8688, -21.7915], [147.8143, -21.7757], [147.9032, -21.6757], [147.9438, -21.6751], [147.9954, -21.5701], [148.0668, -21.5443], [148.076, -21.4557], [148.1457, -21.4618], [148.1365, -21.4301], [148.1676, -21.4115], [148.306, -21.4182], [148.344, -21.3782], [148.4035, -21.3818], [148.4701, -21.2735], [148.5474, -21.3701], [148.6826, -21.3779], [148.7107, -21.3474], [148.7907, -21.389], [148.821, -21.4587], [148.9007, -21.4721], [148.9096, -21.3812], [149.0326, -21.3537], [149.0754, -21.3904], [149.0865, -21.4899], [149.1926, -21.5007], [149.1749, -21.6193]]]}}, {"type": "Feature", "properties": {"zone": "Murrumbidgee", "name": "MURRUMBIDGEE RIVER", "division": "Murray-Darling Basin", "area_ha": 4737598}, "geometry": {"type": "Polygon", "coordinates": [[[144.5632, -34.2446], [144.6907, -34.3626], [144.8879, -34.4051], [144.9485, -34.4482], [144.9496, -34.4946], [145.0163, -34.4471], [145.0485, -34.476], [145.1279, -34.4596], [145.2499, -34.4879], [145.3713, -34.446], [145.4065, -34.4001], [145.4815, -34.4482], [145.6585, -34.3874], [145.9496, -34.4421], [146.0079, -34.4976], [146.0474, -34.4907], [146.0438, -34.4499], [146.1071, -34.4518], [146.2513, -34.5851], [146.3476, -34.6126], [146.4149, -34.5929], [146.4129, -34.6499], [146.4654, -34.6554], [146.4393, -34.6821], [146.4929, -34.6862], [146.5626, -34.7587], [146.604, -34.7507], [146.6138, -34.6965], [146.7729, -34.6624], [146.776, -34.6104], [146.8321, -34.5621], [146.9396, -34.554], [146.9779, -34.4649], [147.036, -34.4207], [147.1788, -34.4076], [147.229, -34.4821], [147.3643, -34.5393], [147.454, -34.5387], [147.4935, -34.6162], [147.5326, -34.5601], [147.7051, -34.5832], [147.7893, -34.5379], [147.889, -34.6537], [148.0435, -34.5118], [148.1193, -34.5254], [148.1685, -34.4249], [148.221, -34.394], [148.3493, -34.3512], [148.4535, -34.3615], [148.6254, -34.4737], [148.6626, -34.6018], [148.7818, -34.7262], [148.8399, -34.6962], [148.9368, -34.7026], [148.9621, -34.7471], [149.0376, -34.7579], [149.0424, -34.8285], [149.1221, -34.8887], [149.2679, -34.8801], [149.2915, -34.9271], [149.3532, -34.9443], [149.3835, -34.9165], [149.3751, -34.8757], [149.4915, -34.8037], [149.5393, -34.9012], [149.5168, -34.9562], [149.5757, -35.0301], [149.551, -35.0579], [149.5763, -35.1374], [149.5446, -35.184], [149.5718, -35.3576], [149.5296, -35.3901], [149.554, -35.5096], [149.5151, -35.5221], [149.4988, -35.6124], [149.5235, -35.8165], [149.484, -35.8382], [149.521, -35.9793], [149.5654, -35.9879], [149.5693, -36.0871], [149.4976, -36.1749], [149.4535, -36.1676], [149.4163, -36.2732], [149.4754, -36.3162], [149.4818, -36.3915], [149.5126, -36.4168], [149.4554, -36.4846], [149.4554, -36.5293], [149.4021, -36.5496], [149.1307, -36.4104], [149.0493, -36.4046], [149.0421, -36.3546], [148.899, -36.2785], [148.8549, -36.2229], [148.8374, -36.1932], [148.8721, -36.1718], [148.8229, -36.079], [148.6499, -35.974], [148.6429, -35.8971], [148.5651, -35.8751], [148.5043, -35.7762], [148.4385, -35.8993], [148.559, -36.0004], [148.5663, -36.0954], [148.4854, -36.0979], [148.439, -36.1749], [148.3724, -36.1576], [148.3432, -36.1024], [148.386, -36.0257], [148.3249, -35.9699], [148.3499, -35.9157], [148.286, -35.8829], [148.2982, -35.8143], [148.2715, -35.7665], [148.1426, -35.6796], [148.131, -35.5979], [148.0685, -35.6282], [147.9951, -35.7474], [147.8924, -35.6315], [147.8246, -35.644], [147.8021, -35.6829], [147.671, -35.6912], [147.6421, -35.659], [147.6407, -35.5474], [147.5218, -35.4824], [147.4888, -35.5451], [147.4154, -35.5326], [147.3915, -35.5635], [147.3721, -35.5185], [147.2324, -35.4699], [147.1838, -35.4874], [147.1704, -35.5568], [147.1432, -35.5326], [146.9026, -35.5554], [146.8107, -35.4654], [146.8401, -35.3237], [146.8107, -35.251], [146.8549, -35.1949], [146.8426, -35.1549], [146.6251, -34.964], [146.4876, -34.951], [146.4682, -34.884], [146.5299, -34.8429], [146.501, -34.7843], [146.5196, -34.7515], [146.3232, -34.641], [146.2276, -34.6626], [146.1824, -34.6243], [146.1551, -34.6696], [146.0588, -34.6585], [146.0421, -34.6832], [145.9501, -34.6265], [145.7007, -34.594], [145.6838, -34.6696], [145.6501, -34.6887], [145.5018, -34.631], [145.4179, -34.6621], [145.2763, -34.6101], [144.9407, -34.7546], [144.8785, -34.7118], [144.7913, -34.7054], [144.7176, -34.7421], [144.7163, -34.8171], [144.6132, -34.7815], [144.5382, -34.791], [144.4251, -34.8612], [144.2335, -34.8712], [143.9832, -34.9604], [143.8926, -34.9276], [143.8399, -34.9599], [143.8674, -34.9999], [143.8332, -35.0051], [143.6843, -34.9701], [143.6479, -34.9915], [143.6068, -34.9429], [143.5732, -34.9635], [143.4807, -34.7801], [143.3874, -34.8115], [143.2729, -34.7196], [143.2071, -34.7307], [143.1896, -34.689], [143.2093, -34.6543], [143.2993, -34.6726], [143.4204, -34.6265], [143.4426, -34.6662], [143.4921, -34.6349], [143.4846, -34.5901], [143.5907, -34.551], [143.6163, -34.4029], [143.6679, -34.3482], [143.7043, -34.3401], [143.7154, -34.3696], [143.7457, -34.3265], [143.7957, -34.3612], [143.9015, -34.2618], [143.9468, -34.2587], [143.9401, -34.3387], [143.9951, -34.3649], [144.0996, -34.3299], [144.1863, -34.2465], [144.2601, -34.2604], [144.271, -34.314], [144.399, -34.246], [144.4204, -34.2718], [144.4274, -34.2368], [144.5632, -34.2446]]]}}, {"type": "Feature", "properties": {"zone": "Lachlan", "name": "LACHLAN RIVER", "division": "Murray-Darling Basin", "area_ha": 7705123}, "geometry": {"type": "Polygon", "coordinates": [[[148.0043, -33.0082], [148.0713, -32.9876], [148.1951, -33.0062], [148.3996, -32.9593], [148.5049, -33.0457], [148.5607, -33.0224], [148.5796, -33.0668], [148.6432, -33.0365], [148.7246, -33.0568], [148.8149, -33.0335], [148.8279, -33.1701], [148.8726, -33.1607], [148.9665, -33.2132], [148.9815, -33.361], [149.139, -33.3851], [149.2079, -33.4587], [149.2901, -33.4118], [149.3632, -33.451], [149.2954, -33.586], [149.3715, -33.6968], [149.439, -33.7099], [149.489, -33.8704], [149.5449, -33.8687], [149.6182, -33.9174], [149.6638, -33.8954], [149.7221, -33.9287], [149.8315, -33.9212], [149.8707, -34.041], [149.9629, -34.101], [149.9382, -34.269], [149.814, -34.314], [149.741, -34.3879], [149.7504, -34.4487], [149.6099, -34.4832], [149.5876, -34.4279], [149.5579, -34.4324], [149.5029, -34.5174], [149.4396, -34.5301], [149.4482, -34.591], [149.4074, -34.626], [149.4179, -34.6979], [149.5896, -34.7774], [149.6049, -34.8537], [149.5685, -34.9146], [149.5765, -34.9704], [149.5235, -34.9732], [149.5393, -34.9012], [149.5065, -34.8729], [149.5071, -34.8151], [149.4715, -34.7974], [149.3385, -34.9451], [149.2679, -34.8801], [149.1071, -34.8821], [149.0424, -34.8285], [149.0376, -34.7579], [148.9621, -34.7471], [148.9368, -34.7026], [148.8399, -34.6962], [148.7818, -34.7262], [148.6626, -34.6018], [148.6254, -34.4737], [148.4535, -34.3615], [148.3493, -34.3512], [148.221, -34.394], [148.1685, -34.4249], [148.119, -34.5251], [148.0435, -34.5118], [147.889, -34.6537], [147.7893, -34.5379], [147.7051, -34.5832], [147.5326, -34.5601], [147.4935, -34.6162], [147.454, -34.5387], [147.3643, -34.5393], [147.229, -34.4821], [147.1788, -34.4076], [147.036, -34.4207], [146.9779, -34.4649], [146.9396, -34.554], [146.8321, -34.5621], [146.776, -34.6104], [146.7729, -34.6624], [146.6138, -34.6965], [146.604, -34.7507], [146.5626, -34.7587], [146.4929, -34.6862], [146.4393, -34.6821], [146.4654, -34.6554], [146.4129, -34.6499], [146.4149, -34.5929], [146.3476, -34.6126], [146.2513, -34.5851], [146.1579, -34.4812], [146.0735, -34.4435], [146.0079, -34.4976], [145.9499, -34.4418], [145.6585, -34.3874], [145.4815, -34.4482], [145.4065, -34.4001], [145.3713, -34.446], [145.2499, -34.4879], [145.1279, -34.4596], [145.0485, -34.476], [145.016, -34.4468], [144.9496, -34.4946], [144.9485, -34.4482], [144.8879, -34.4051], [144.6907, -34.3626], [144.5418, -34.2265], [144.4274, -34.2368], [144.4276, -34.264], [144.4204, -34.2718], [144.4085, -34.2474], [144.3571, -34.2582], [144.271, -34.314], [144.2601, -34.2604], [144.1863, -34.2465], [144.0996, -34.3299], [143.9951, -34.3649], [143.9515, -34.3562], [143.9304, -34.3118], [143.9429, -34.2379], [144.0282, -34.2546], [144.0796, -34.2132], [144.0843, -34.1693], [144.1568, -34.146], [144.2607, -34.0479], [144.3776, -34.1026], [144.489, -34.0662], [144.5904, -33.9604], [144.6799, -34.0137], [144.8307, -33.9296], [144.8538, -33.8585], [144.9518, -33.8235], [144.9413, -33.7287], [144.9843, -33.6407], [145.1071, -33.5837], [145.1496, -33.5057], [145.364, -33.3274], [145.4451, -33.3507], [145.5771, -33.2876], [145.7446, -33.3393], [145.9724, -33.3301], [145.991, -33.3407], [145.9624, -33.3665], [146.0268, -33.391], [146.0435, -33.3237], [145.9746, -33.2124], [146.0613, -33.0562], [146.0879, -32.8285], [146.1363, -32.736], [146.1807, -32.7449], [146.2551, -32.6857], [146.3179, -32.7115], [146.4218, -32.5971], [146.4029, -32.4818], [146.4457, -32.3971], [146.4043, -32.366], [146.4238, -32.3401], [146.5665, -32.3724], [146.676, -32.3329], [146.8307, -32.4887], [146.9157, -32.5085], [146.9351, -32.5937], [147.1143, -32.6054], [147.1465, -32.651], [147.2296, -32.6787], [147.319, -32.6671], [147.3179, -32.7535], [147.3863, -32.8201], [147.5529, -32.8151], [147.5713, -32.7779], [147.6221, -32.7699], [147.7704, -32.7957], [147.7985, -32.8657], [147.9982, -32.9715], [148.0043, -33.0082]]]}}]}