{"type": "FeatureCollection", "name": "agriprove-zones-zoomed", "crs": {"type": "name", "properties": {"name": "EPSG:4283"}}, "features": [{"type": "Feature", "properties": {"zone": "Burdekin", "name": "BURDEKIN RIVER", "division": "North East Coast", "area_ha": 13105890}, "geometry": {"type": "Polygon", "coordinates": [[[145.96431, -18.87903], [145.98931, -18.88347], [146.00403, -18.87792], [146.00875, -18.88569], [146.00181, -18.90403], [146.02069, -18.91847], [146.03014, -18.91097], [146.05236, -18.91653], [146.06403, -18.90458], [146.08042, -18.92264], [146.09264, -18.92236], [146.10431, -18.93292], [146.13236, -18.92153], [146.18792, -18.94125], [146.16792, -18.95125], [146.17847, -18.97347], [146.17319, -18.97847], [146.18542, -18.99264], [146.16681, -19.01375], [146.20931, -19.00458], [146.23847, -19.01431], [146.24569, -19.02736], [146.23597, -19.04514], [146.27097, -19.04653], [146.27931, -19.06375], [146.29958, -19.06931], [146.30931, -19.08375], [146.31181, -19.11514], [146.32153, -19.12125], [146.33264, -19.11236], [146.34125, -19.12236], [146.37181, -19.12014], [146.38347, -19.14486], [146.39403, -19.14792], [146.38264, -19.16319], [146.39319, -19.17319], [146.39181, -19.18458], [146.41264, -19.19458], [146.42208, -19.21181], [146.42125, -19.22125], [146.40181, -19.23486], [146.40708, -19.24403], [146.40069, -19.25264], [146.43014, -19.27486], [146.41125, -19.28958], [146.42431, -19.28958], [146.42542, -19.29986], [146.44542, -19.30014], [146.44319, -19.31069], [146.46069, -19.32069], [146.44514, -19.33542], [146.45764, -19.34208], [146.45403, -19.35486], [146.47042, -19.37431], [146.49347, -19.37903], [146.49625, -19.39181], [146.53708, -19.41625], [146.55931, -19.41597], [146.56542, -19.42986], [146.56125, -19.45153], [146.57736, -19.46208], [146.57597, -19.49653], [146.58625, -19.51042], [146.56236, -19.52375], [146.55931, -19.54014], [146.54375, -19.55125], [146.54181, -19.56931], [146.54819, -19.57014], [146.53903, -19.58264], [146.55681, -19.61458], [146.55847, -19.65514], [146.55042, -19.66569], [146.55708, -19.67931], [146.53153, -19.68875], [146.52653, -19.70014], [146.51292, -19.69236], [146.49847, -19.69736], [146.52458, -19.71986], [146.52542, -19.73069], [146.54403, -19.72347], [146.56181, -19.73708], [146.58153, -19.73292], [146.59097, -19.74097], [146.58181, -19.79958], [146.59014, -19.81319], [146.58653, -19.83847], [146.60903, -19.86097], [146.64014, -19.87181], [146.63542, -19.88569], [146.64347, -19.91097], [146.70097, -19.90375], [146.70597, -19.89431], [146.72514, -19.89236], [146.72375, -19.90403], [146.73014, -19.90403], [146.73347, -19.91653], [146.75125, -19.91069], [146.75403, -19.92458], [146.78764, -19.94236], [146.80514, -19.93958], [146.81264, -19.93014], [146.82569, -19.94181], [146.83875, -19.92042], [146.85653, -19.92819], [146.87319, -19.91681], [146.88458, -19.93736], [146.90319, -19.93458], [146.91403, -19.94208], [146.91347, -19.95458], [146.93903, -19.97708], [146.94208, -19.98847], [146.95792, -19.98236], [146.96569, -19.98903], [146.97514, -19.97264], [146.99347, -19.96569], [147.01292, -19.97431], [147.02681, -19.97097], [147.05875, -19.95014], [147.08708, -19.96875], [147.10653, -19.94653], [147.15069, -19.93431], [147.16736, -19.93708], [147.17431, -19.92347], [147.20875, -19.91653], [147.20931, -19.90708], [147.22181, -19.90042], [147.23208, -19.85264], [147.22736, -19.79653], [147.23708, -19.76097], [147.26431, -19.73764], [147.27014, -19.70625], [147.28153, -19.69542], [147.30181, -19.70292], [147.32292, -19.69625], [147.35542, -19.66875], [147.34736, -19.65319], [147.34708, -19.62486], [147.35375, -19.62319], [147.36625, -19.58847], [147.38069, -19.58708], [147.40208, -19.57014], [147.40486, -19.57625], [147.42514, -19.57014], [147.44236, -19.54653], [147.44069, -19.53819], [147.48542, -19.52569], [147.51014, -19.53236], [147.51681, -19.52486], [147.52931, -19.54181], [147.52403, -19.54347], [147.52486, -19.54653], [147.54708, -19.54792], [147.55042, -19.53875], [147.53986, -19.52347], [147.54014, -19.51708], [147.56319, -19.56097], [147.57431, -19.60042], [147.54903, -19.58653], [147.52792, -19.60125], [147.51542, -19.59236], [147.51403, -19.59375], [147.52653, -19.60347], [147.54847, -19.59375], [147.57319, -19.60681], [147.58042, -19.62458], [147.56514, -19.63319], [147.57986, -19.63514], [147.58819, -19.65264], [147.52264, -19.66486], [147.50597, -19.64903], [147.48653, -19.64236], [147.48486, -19.64931], [147.52458, -19.68069], [147.53681, -19.70069], [147.58181, -19.70764], [147.58569, -19.71403], [147.57736, -19.72708], [147.58042, -19.73597], [147.57319, -19.74431], [147.58292, -19.73708], [147.58069, -19.72569], [147.58875, -19.72569], [147.60931, -19.77042], [147.66375, -19.81208], [147.66014, -19.81653], [147.65403, -19.81097], [147.64292, -19.81153], [147.65486, -19.81403], [147.65653, -19.82319], [147.66681, -19.81764], [147.67319, -19.83569], [147.68597, -19.84403], [147.67875, -19.87514], [147.68764, -19.89014], [147.68681, -19.92014], [147.67014, -19.92903], [147.67125, -19.94069], [147.65736, -19.94958], [147.64792, -19.97625], [147.60875, -19.98097], [147.59681, -19.97292], [147.57486, -19.98264], [147.57681, -20.00736], [147.56708, -20.01458], [147.57375, -20.05069], [147.60764, -20.06875], [147.63014, -20.09847], [147.64736, -20.09958], [147.65514, -20.08764], [147.66264, -20.09264], [147.66458, -20.11292], [147.68014, -20.12875], [147.69514, -20.10819], [147.73236, -20.11097], [147.74486, -20.09958], [147.77403, -20.10042], [147.78458, -20.09097], [147.79014, -20.11542], [147.82931, -20.12597], [147.85403, -20.19264], [147.87264, -20.19236], [147.87514, -20.20875], [147.90208, -20.23792], [147.89625, -20.25292], [147.90264, -20.26903], [147.92486, -20.26819], [147.93653, -20.29042], [147.96847, -20.29597], [147.98847, -20.31708], [148.03125, -20.32125], [148.02014, -20.36514], [148.02764, -20.38375], [148.00097, -20.40819], [148.00181, -20.42486], [148.01597, -20.45986], [148.02458, -20.45597], [148.04319, -20.46931], [148.05069, -20.50403], [148.07597, -20.53236], [148.07458, -20.54042], [148.09569, -20.54542], [148.09681, -20.56569], [148.11875, -20.57153], [148.12347, -20.56375], [148.11625, -20.53569], [148.14097, -20.52181], [148.16347, -20.53681], [148.16597, -20.55403], [148.18625, -20.55403], [148.19264, -20.57014], [148.20208, -20.56125], [148.22403, -20.55986], [148.25931, -20.58125], [148.27319, -20.57236], [148.27403, -20.56292], [148.28569, -20.56764], [148.29569, -20.59458], [148.32986, -20.60875], [148.33486, -20.63431], [148.36375, -20.65347], [148.37347, -20.67681], [148.36625, -20.69069], [148.37542, -20.70319], [148.39375, -20.69542], [148.41764, -20.70819], [148.43125, -20.70569], [148.44014, -20.72542], [148.46347, -20.74458], [148.46458, -20.77736], [148.47625, -20.79736], [148.50736, -20.80431], [148.51708, -20.79514], [148.52903, -20.81986], [148.56125, -20.83875], [148.57014, -20.83486], [148.58903, -20.85208], [148.59792, -20.87014], [148.59097, -20.87625], [148.59986, -20.91736], [148.61625, -20.92875], [148.62153, -20.94653], [148.63681, -20.94736], [148.64153, -20.95542], [148.63792, -21.02542], [148.62736, -21.02653], [148.62486, -21.00514], [148.59847, -21.01653], [148.60236, -21.03375], [148.58625, -21.04319], [148.57958, -21.06264], [148.54431, -21.07931], [148.54042, -21.09681], [148.52208, -21.09681], [148.51986, -21.11514], [148.50792, -21.11542], [148.48708, -21.13486], [148.50903, -21.16208], [148.52903, -21.16486], [148.53847, -21.17514], [148.55208, -21.16875], [148.56875, -21.17653], [148.55819, -21.19042], [148.56514, -21.23208], [148.54153, -21.25208], [148.53681, -21.28931], [148.54681, -21.30542], [148.53319, -21.33319], [148.52153, -21.32736], [148.51681, -21.30931], [148.50931, -21.31014], [148.47014, -21.27347], [148.44292, -21.28569], [148.44125, -21.33097], [148.42375, -21.34986], [148.41042, -21.35264], [148.41014, -21.37125], [148.39986, -21.38347], [148.38264, -21.37486], [148.35792, -21.38319], [148.34403, -21.37819], [148.32431, -21.38792], [148.30597, -21.41819], [148.25264, -21.41958], [148.24097, -21.40514], [148.19403, -21.40931], [148.18347, -21.42097], [148.16764, -21.41153], [148.15986, -21.42431], [148.14597, -21.42208], [148.13653, -21.43014], [148.15125, -21.44847], [148.14569, -21.46181], [148.07819, -21.45347], [148.06319, -21.49264], [148.06681, -21.54431], [148.05681, -21.54181], [148.02542, -21.55597], [148.01569, -21.56986], [147.99542, -21.57014], [147.94208, -21.65236], [147.94375, -21.67514], [147.92653, -21.69153], [147.90319, -21.67569], [147.88764, -21.72181], [147.87542, -21.73653], [147.84431, -21.74986], [147.83653, -21.76847], [147.81431, -21.77569], [147.82514, -21.78431], [147.86792, -21.79236], [147.87236, -21.80681], [147.86514, -21.81403], [147.86653, -21.83069], [147.84597, -21.83986], [147.83931, -21.86847], [147.82986, -21.87458], [147.81403, -21.86042], [147.78958, -21.86403], [147.77903, -21.88681], [147.79597, -21.91181], [147.77514, -21.93542], [147.77875, -21.95042], [147.76681, -21.95069], [147.77236, -21.95819], [147.76847, -21.99153], [147.78292, -22.02042], [147.78042, -22.03319], [147.81625, -22.08708], [147.87875, -22.13458], [147.89347, -22.19069], [147.88014, -22.22903], [147.91069, -22.23653], [147.91708, -22.24819], [147.91764, -22.26958], [147.93403, -22.28931], [147.93042, -22.32569], [147.96653, -22.33847], [147.99014, -22.36069], [148.00764, -22.35208], [148.02264, -22.37431], [148.04986, -22.38014], [148.04653, -22.40014], [148.05903, -22.40819], [148.05097, -22.42875], [148.06792, -22.44264], [148.06403, -22.46236], [148.05403, -22.46069], [148.03875, -22.48292], [148.03569, -22.47764], [148.02958, -22.48597], [148.01486, -22.48708], [148.00514, -22.50792], [147.97236, -22.52319], [147.94486, -22.55153], [147.93125, -22.54819], [147.90375, -22.52153], [147.87458, -22.52125], [147.86319, -22.52903], [147.84986, -22.51931], [147.82014, -22.53931], [147.77097, -22.51153], [147.76958, -22.52319], [147.74375, -22.54514], [147.71014, -22.52264], [147.70764, -22.53236], [147.68653, -22.53875], [147.67569, -22.55347], [147.66319, -22.55153], [147.66708, -22.56764], [147.65153, -22.57514], [147.65597, -22.59069], [147.64514, -22.58486], [147.62514, -22.59569], [147.63403, -22.60819], [147.62903, -22.62764], [147.59319, -22.62681], [147.54375, -22.65208], [147.53208, -22.63875], [147.52514, -22.64819], [147.50986, -22.64653], [147.50653, -22.65597], [147.48236, -22.64569], [147.47042, -22.65764], [147.44403, -22.64903], [147.42208, -22.65875], [147.41958, -22.69431], [147.42764, -22.71542], [147.42014, -22.73708], [147.43069, -22.74958], [147.39847, -22.75736], [147.39236, -22.77181], [147.39958, -22.78319], [147.39708, -22.80792], [147.36986, -22.81597], [147.38069, -22.86819], [147.37375, -22.88625], [147.36597, -22.88653], [147.36903, -22.89986], [147.35958, -22.91097], [147.36708, -22.93708], [147.37903, -22.93819], [147.39208, -22.95986], [147.38681, -22.97319], [147.37153, -22.97514], [147.35458, -22.99819], [147.34986, -23.01986], [147.33958, -23.01986], [147.31181, -23.05069], [147.29569, -23.08986], [147.30236, -23.09653], [147.29819, -23.10847], [147.27875, -23.13958], [147.28625, -23.16431], [147.26708, -23.17486], [147.25847, -23.19097], [147.26042, -23.24097], [147.27264, -23.26903], [147.28819, -23.27708], [147.27903, -23.30403], [147.29403, -23.32347], [147.28319, -23.33125], [147.28542, -23.36319], [147.27403, -23.36764], [147.26486, -23.38486], [147.26181, -23.43319], [147.24931, -23.45486], [147.25986, -23.46986], [147.27042, -23.46542], [147.27958, -23.48125], [147.27486, -23.51319], [147.28236, -23.52292], [147.27069, -23.53708], [147.21819, -23.55069], [147.21847, -23.56708], [147.21014, -23.57681], [147.21958, -23.59208], [147.19653, -23.60958], [147.21208, -23.63903], [147.20097, -23.65431], [147.20958, -23.67681], [147.19569, -23.68458], [147.19847, -23.70931], [147.19264, -23.71264], [147.20347, -23.73236], [147.19486, -23.74514], [147.19903, -23.77292], [147.22597, -23.78542], [147.24042, -23.80681], [147.22764, -23.83264], [147.23625, -23.84736], [147.23264, -23.88236], [147.24153, -23.90431], [147.17681, -23.94375], [147.17097, -23.96792], [147.16153, -23.97625], [147.18042, -23.99597], [147.18153, -24.01514], [147.20403, -24.02014], [147.20236, -24.03792], [147.17958, -24.06153], [147.18542, -24.07458], [147.18042, -24.09042], [147.16097, -24.09014], [147.14403, -24.09986], [147.13208, -24.09153], [147.09931, -24.09708], [147.07569, -24.11764], [147.05264, -24.11542], [147.03514, -24.12597], [147.03653, -24.14264], [147.01458, -24.14597], [147.00958, -24.16153], [146.99431, -24.15653], [146.95625, -24.16375], [146.94903, -24.19403], [146.95375, -24.20597], [146.92597, -24.25986], [146.92792, -24.27569], [146.93819, -24.27458], [146.93931, -24.27542], [146.93097, -24.29486], [146.91903, -24.29486], [146.91153, -24.30458], [146.91431, -24.32403], [146.87625, -24.33597], [146.87875, -24.34486], [146.86486, -24.36819], [146.84181, -24.35819], [146.83708, -24.36986], [146.81181, -24.37708], [146.81847, -24.39097], [146.80347, -24.39625], [146.79403, -24.41708], [146.78153, -24.40514], [146.74847, -24.40542], [146.73208, -24.41653], [146.73069, -24.42819], [146.71819, -24.39625], [146.72319, -24.38042], [146.69542, -24.38208], [146.68764, -24.37569], [146.65764, -24.40514], [146.63597, -24.39931], [146.59736, -24.41819], [146.57292, -24.41208], [146.58681, -24.42764], [146.58792, -24.44181], [146.57653, -24.44597], [146.55097, -24.43875], [146.52208, -24.40958], [146.51292, -24.38431], [146.48986, -24.37125], [146.46458, -24.37847], [146.44069, -24.35792], [146.42208, -24.35236], [146.41542, -24.32486], [146.39014, -24.31153], [146.37847, -24.27403], [146.36153, -24.26181], [146.36875, -24.25458], [146.36264, -24.23819], [146.37097, -24.21819], [146.39597, -24.18347], [146.40847, -24.17764], [146.38764, -24.13403], [146.37431, -24.13319], [146.40347, -24.06125], [146.39653, -24.03625], [146.41903, -24.02375], [146.42542, -24.01069], [146.41014, -23.96514], [146.43736, -23.94653], [146.43486, -23.93625], [146.44514, -23.92903], [146.43875, -23.91347], [146.41792, -23.90097], [146.43097, -23.87875], [146.41708, -23.85181], [146.42264, -23.82792], [146.41597, -23.82014], [146.39903, -23.81958], [146.39569, -23.79014], [146.38403, -23.78347], [146.39153, -23.78014], [146.39764, -23.74986], [146.35125, -23.74764], [146.33764, -23.72319], [146.34042, -23.71014], [146.32792, -23.70819], [146.32042, -23.71597], [146.30653, -23.70903], [146.29597, -23.67681], [146.30208, -23.67153], [146.25569, -23.63014], [146.25542, -23.61181], [146.26542, -23.61042], [146.28708, -23.57708], [146.28458, -23.54236], [146.29486, -23.52375], [146.28736, -23.46736], [146.26764, -23.44986], [146.23764, -23.45181], [146.21292, -23.41708], [146.20236, -23.42347], [146.18319, -23.37458], [146.19458, -23.32819], [146.22542, -23.32542], [146.23347, -23.31708], [146.23069, -23.29264], [146.20181, -23.25986], [146.18847, -23.26264], [146.19403, -23.24958], [146.14875, -23.25153], [146.14708, -23.26042], [146.13375, -23.25319], [146.13708, -23.21736], [146.15875, -23.20319], [146.17097, -23.17764], [146.20319, -23.15153], [146.16681, -23.13458], [146.15708, -23.11264], [146.15014, -23.11542], [146.14431, -23.10792], [146.15403, -23.09347], [146.16319, -23.09264], [146.17181, -23.07069], [146.15542, -23.05708], [146.16347, -23.03708], [146.14014, -23.02153], [146.13431, -22.99292], [146.14292, -22.98042], [146.11153, -22.99208], [146.09903, -22.97708], [146.10514, -22.95708], [146.09875, -22.94097], [146.09042, -22.93875], [146.11014, -22.87764], [146.09542, -22.87764], [146.08847, -22.84986], [146.09653, -22.83403], [146.08264, -22.80681], [146.08458, -22.78069], [146.10042, -22.76569], [146.09431, -22.71875], [146.08375, -22.69069], [146.06986, -22.67347], [146.05514, -22.67014], [146.05431, -22.65208], [146.04597, -22.64625], [146.07403, -22.60458], [146.07042, -22.59208], [146.07625, -22.58819], [146.07347, -22.55236], [146.05181, -22.53347], [146.05764, -22.52792], [146.05264, -22.51708], [146.07597, -22.49903], [146.08486, -22.46097], [146.09847, -22.46403], [146.11319, -22.45458], [146.11736, -22.42653], [146.09264, -22.40958], [146.08569, -22.39097], [146.09653, -22.37347], [146.09458, -22.34625], [146.12097, -22.31819], [146.11764, -22.27458], [146.10292, -22.22819], [146.07264, -22.22347], [146.08542, -22.20125], [146.08236, -22.18847], [146.09208, -22.18708], [146.08681, -22.17181], [146.06264, -22.16597], [146.07097, -22.14319], [146.05569, -22.12486], [146.03097, -22.12931], [146.02292, -22.11958], [146.02431, -22.12597], [146.01375, -22.12986], [146.00569, -22.12319], [146.01125, -22.10264], [145.99792, -22.09819], [146.00847, -22.07625], [145.98208, -22.05819], [145.97069, -22.06903], [145.97208, -22.09236], [145.95486, -22.10292], [145.93764, -22.09708], [145.93486, -22.08403], [145.90597, -22.08708], [145.87319, -22.07014], [145.82792, -22.08708], [145.76847, -22.07931], [145.75764, -22.09125], [145.74819, -22.08708], [145.72486, -22.10347], [145.70181, -22.04681], [145.68375, -22.02903], [145.65403, -22.02625], [145.59264, -21.96708], [145.59875, -21.93764], [145.60792, -21.93569], [145.59569, -21.91736], [145.60181, -21.87764], [145.63958, -21.88125], [145.67542, -21.84708], [145.71347, -21.84736], [145.72486, -21.83319], [145.75458, -21.85736], [145.77264, -21.83875], [145.81764, -21.85958], [145.84347, -21.90236], [145.85681, -21.90903], [145.92014, -21.91431], [145.92792, -21.90653], [145.95792, -21.90875], [145.97958, -21.89431], [145.97958, -21.87819], [146.02181, -21.83875], [146.02569, -21.81875], [146.05458, -21.81014], [146.06069, -21.79236], [146.09792, -21.76042], [146.09014, -21.73403], [146.09514, -21.70125], [146.07264, -21.67319], [146.10181, -21.63875], [146.09681, -21.61847], [146.10292, -21.61292], [146.10236, -21.57403], [146.08153, -21.53181], [146.08764, -21.49458], [146.05486, -21.47931], [146.04264, -21.44903], [146.01208, -21.43292], [146.00319, -21.41486], [145.93681, -21.39236], [145.92347, -21.37792], [145.92375, -21.35736], [145.91097, -21.35042], [145.90819, -21.33319], [145.89569, -21.32903], [145.89486, -21.31847], [145.85319, -21.30069], [145.84625, -21.28069], [145.83264, -21.27486], [145.83014, -21.25875], [145.81958, -21.25903], [145.80597, -21.23486], [145.78792, -21.23208], [145.76875, -21.21736], [145.76708, -21.20514], [145.75292, -21.20125], [145.74819, -21.17208], [145.73292, -21.16097], [145.71931, -21.16014], [145.67764, -21.17903], [145.66681, -21.17486], [145.66931, -21.19569], [145.64431, -21.21819], [145.62458, -21.26069], [145.60847, -21.26292], [145.58181, -21.30014], [145.61681, -21.33403], [145.60986, -21.36486], [145.62153, -21.37486], [145.62514, -21.39264], [145.59069, -21.43458], [145.61375, -21.45625], [145.59569, -21.47181], [145.59431, -21.49514], [145.58208, -21.50292], [145.57042, -21.49708], [145.55625, -21.46319], [145.51236, -21.43847], [145.49458, -21.41903], [145.46986, -21.41431], [145.44736, -21.33569], [145.40319, -21.32681], [145.38625, -21.34264], [145.37403, -21.34375], [145.36708, -21.32153], [145.34931, -21.30431], [145.33347, -21.30264], [145.31847, -21.27847], [145.32042, -21.26764], [145.29764, -21.23625], [145.29764, -21.20792], [145.26875, -21.19097], [145.27347, -21.14597], [145.28625, -21.13458], [145.29153, -21.11236], [145.28931, -21.05042], [145.31181, -21.02958], [145.34375, -21.02625], [145.33625, -20.99875], [145.34625, -20.98181], [145.34625, -20.95319], [145.35319, -20.95097], [145.33903, -20.94125], [145.30153, -20.94097], [145.29042, -20.91403], [145.26847, -20.89153], [145.24847, -20.88958], [145.24514, -20.87736], [145.21458, -20.85792], [145.20486, -20.79347], [145.19069, -20.77569], [145.19736, -20.76653], [145.18292, -20.72847], [145.16903, -20.71514], [145.17153, -20.70542], [145.12819, -20.65292], [145.09403, -20.64458], [145.10042, -20.62042], [145.13069, -20.59875], [145.12569, -20.58931], [145.13458, -20.56486], [145.12708, -20.51681], [145.10847, -20.50375], [145.11819, -20.49347], [145.10903, -20.47569], [145.11764, -20.47319], [145.11569, -20.46236], [145.12458, -20.45347], [145.11347, -20.42347], [145.08986, -20.41569], [145.09014, -20.40653], [145.08181, -20.40319], [145.05708, -20.40653], [145.03764, -20.39403], [145.02958, -20.37736], [144.97403, -20.36875], [144.96819, -20.35847], [144.97681, -20.34847], [144.97014, -20.33792], [144.95819, -20.32986], [144.94403, -20.33625], [144.92319, -20.32042], [144.92986, -20.31153], [144.92292, -20.30764], [144.92903, -20.29708], [144.92264, -20.27431], [144.94819, -20.26958], [144.95431, -20.25931], [144.94208, -20.25153], [144.94153, -20.24042], [144.93431, -20.24375], [144.91986, -20.22514], [144.90042, -20.22486], [144.86792, -20.20236], [144.87069, -20.17819], [144.85514, -20.16542], [144.83264, -20.15736], [144.80431, -20.15958], [144.79347, -20.14264], [144.79264, -20.12819], [144.80875, -20.12097], [144.79625, -20.09069], [144.80236, -20.07931], [144.76097, -20.04514], [144.76875, -20.02847], [144.78819, -20.03236], [144.80347, -20.01736], [144.78208, -19.97292], [144.78014, -19.94486], [144.77319, -19.94042], [144.77736, -19.92347], [144.75319, -19.92486], [144.74097, -19.91708], [144.72903, -19.92931], [144.71292, -19.92736], [144.70708, -19.90736], [144.69403, -19.90236], [144.67375, -19.91542], [144.65736, -19.91264], [144.63181, -19.92208], [144.61431, -19.94375], [144.61403, -19.96764], [144.57986, -19.95153], [144.50681, -19.95014], [144.47764, -19.96319], [144.47375, -19.97403], [144.42986, -19.97597], [144.40792, -19.93653], [144.34347, -19.93069], [144.32097, -19.90736], [144.32097, -19.88264], [144.31069, -19.88097], [144.29653, -19.83431], [144.30097, -19.78986], [144.27903, -19.76792], [144.25986, -19.77208], [144.25458, -19.72681], [144.23486, -19.70681], [144.24819, -19.69403], [144.23569, -19.68069], [144.23792, -19.67264], [144.25625, -19.65875], [144.23792, -19.64625], [144.22653, -19.61847], [144.23625, -19.61403], [144.25069, -19.58681], [144.26625, -19.58625], [144.27431, -19.57514], [144.28319, -19.59375], [144.33319, -19.59375], [144.35069, -19.57986], [144.35792, -19.58403], [144.36986, -19.57708], [144.36292, -19.54903], [144.38708, -19.53819], [144.40931, -19.48542], [144.41819, -19.48875], [144.45681, -19.46792], [144.46486, -19.44653], [144.51792, -19.44208], [144.51069, -19.42903], [144.53236, -19.38625], [144.55514, -19.40292], [144.58875, -19.39819], [144.58819, -19.36764], [144.59986, -19.36792], [144.61431, -19.34625], [144.63708, -19.34847], [144.63431, -19.32264], [144.64514, -19.31736], [144.66403, -19.32292], [144.66792, -19.30236], [144.68514, -19.29375], [144.68542, -19.27819], [144.70458, -19.26597], [144.69181, -19.22264], [144.70958, -19.19681], [144.70597, -19.18708], [144.72375, -19.18375], [144.73653, -19.15847], [144.76792, -19.14431], [144.76403, -19.13042], [144.77153, -19.12264], [144.73375, -19.09264], [144.74431, -19.06264], [144.72819, -19.04458], [144.74486, -19.03125], [144.73458, -19.02681], [144.72347, -19.00125], [144.69819, -18.98819], [144.70431, -18.98153], [144.70264, -18.95903], [144.71319, -18.94653], [144.70819, -18.91264], [144.69486, -18.90708], [144.69181, -18.91847], [144.68097, -18.92236], [144.67181, -18.90708], [144.61847, -18.90236], [144.61764, -18.89292], [144.59569, -18.88153], [144.59681, -18.87153], [144.57708, -18.87125], [144.56653, -18.86097], [144.59486, -18.79681], [144.62569, -18.79514], [144.61792, -18.78625], [144.62264, -18.77708], [144.61403, -18.75208], [144.63264, -18.70514], [144.62847, -18.68347], [144.65736, -18.65069], [144.66708, -18.61986], [144.66292, -18.59125], [144.64708, -18.56569], [144.65264, -18.55708], [144.64736, -18.51819], [144.66764, -18.49014], [144.65958, -18.45597], [144.69208, -18.43097], [144.68792, -18.40403], [144.69569, -18.39903], [144.69542, -18.38708], [144.72542, -18.37625], [144.73958, -18.35264], [144.75042, -18.35153], [144.75764, -18.31625], [144.74875, -18.30431], [144.76708, -18.29875], [144.76847, -18.28819], [144.83069, -18.23319], [144.87319, -18.22792], [144.87958, -18.21042], [144.88597, -18.21208], [144.91403, -18.18097], [144.95597, -18.16292], [144.99236, -18.15847], [145.00236, -18.14681], [145.02597, -18.14514], [145.02847, -18.15153], [145.03653, -18.14764], [145.06986, -18.16236], [145.10153, -18.14514], [145.12319, -18.16431], [145.14819, -18.16458], [145.16014, -18.18931], [145.15181, -18.20153], [145.16069, -18.20958], [145.17542, -18.20847], [145.19375, -18.23819], [145.22069, -18.25542], [145.22181, -18.26986], [145.24486, -18.27847], [145.24903, -18.28986], [145.26875, -18.29736], [145.28458, -18.31875], [145.30847, -18.32597], [145.34736, -18.31069], [145.37236, -18.33153], [145.38736, -18.32486], [145.39375, -18.32986], [145.40819, -18.30736], [145.43458, -18.30875], [145.44403, -18.31625], [145.44208, -18.34403], [145.45458, -18.34403], [145.47486, -18.38014], [145.49181, -18.38819], [145.52875, -18.34736], [145.54847, -18.35597], [145.55486, -18.34792], [145.57625, -18.35125], [145.62736, -18.37375], [145.65458, -18.40736], [145.67569, -18.41708], [145.67319, -18.42653], [145.68792, -18.43236], [145.68181, -18.44014], [145.69319, -18.44458], [145.71458, -18.48042], [145.70347, -18.50847], [145.68181, -18.52125], [145.68208, -18.53319], [145.70125, -18.53903], [145.69708, -18.55153], [145.70819, -18.56097], [145.69986, -18.56625], [145.70042, -18.58125], [145.71014, -18.58958], [145.70514, -18.59903], [145.74625, -18.65736], [145.73792, -18.67875], [145.73819, -18.71625], [145.75542, -18.72319], [145.76958, -18.74319], [145.78153, -18.73097], [145.79458, -18.74986], [145.81569, -18.75208], [145.83042, -18.77153], [145.82486, -18.78375], [145.83153, -18.79792], [145.82431, -18.80903], [145.83014, -18.81653], [145.90319, -18.83958], [145.90764, -18.84986], [145.90153, -18.86542], [145.93681, -18.85681], [145.95542, -18.86375], [145.96431, -18.87903]]]}}, {"type": "Feature", "properties": {"zone": "Fitzroy", "name": "FITZROY RIVER (QLD)", "division": "North East Coast", "area_ha": 14258462}, "geometry": {"type": "Polygon", "coordinates": [[[149.17097, -21.59236], [149.19569, -21.68903], [149.20625, -21.69236], [149.20542, -21.70375], [149.21792, -21.71236], [149.22403, -21.73486], [149.20681, -21.74986], [149.21319, -21.76847], [149.20819, -21.77736], [149.23736, -21.79181], [149.24875, -21.77597], [149.26069, -21.78597], [149.27153, -21.78458], [149.28986, -21.80431], [149.28208, -21.82014], [149.29181, -21.82958], [149.28764, -21.86292], [149.29347, -21.87069], [149.26958, -21.89292], [149.27875, -21.90958], [149.27042, -21.92097], [149.28375, -21.91542], [149.32847, -21.95903], [149.35458, -21.96264], [149.35903, -21.98931], [149.37569, -21.98792], [149.38236, -22.01458], [149.39931, -22.03319], [149.41736, -22.03903], [149.41569, -22.06625], [149.42931, -22.07708], [149.42792, -22.08625], [149.41347, -22.09403], [149.40681, -22.08903], [149.39625, -22.10403], [149.37569, -22.10458], [149.36931, -22.11653], [149.38514, -22.14792], [149.39347, -22.19625], [149.38736, -22.21764], [149.37181, -22.23264], [149.39125, -22.25736], [149.37931, -22.25597], [149.33708, -22.28986], [149.33542, -22.29875], [149.31986, -22.30264], [149.31403, -22.34903], [149.33208, -22.38653], [149.32319, -22.40542], [149.32708, -22.42542], [149.34375, -22.44181], [149.36375, -22.43903], [149.38792, -22.46931], [149.39125, -22.49542], [149.38097, -22.49236], [149.38042, -22.51792], [149.37403, -22.51792], [149.36514, -22.56208], [149.37986, -22.57819], [149.37597, -22.60319], [149.38875, -22.61625], [149.37736, -22.66431], [149.39042, -22.68542], [149.40431, -22.68069], [149.40736, -22.69625], [149.43125, -22.70042], [149.43458, -22.73042], [149.45125, -22.74542], [149.43542, -22.76819], [149.41375, -22.77486], [149.42958, -22.79792], [149.44042, -22.83875], [149.45097, -22.83597], [149.45431, -22.84458], [149.52847, -22.82597], [149.54153, -22.84264], [149.53931, -22.86153], [149.55708, -22.86264], [149.57125, -22.87403], [149.59542, -22.86319], [149.61208, -22.89347], [149.63986, -22.88986], [149.66819, -22.86569], [149.69708, -22.86375], [149.69986, -22.84486], [149.73708, -22.80403], [149.75931, -22.80931], [149.76458, -22.78653], [149.75458, -22.76681], [149.86514, -22.76014], [149.87986, -22.73847], [149.89486, -22.73319], [149.90264, -22.70792], [149.91736, -22.71792], [149.93514, -22.70597], [149.94569, -22.71486], [149.94153, -22.74264], [149.95458, -22.75014], [149.95542, -22.76792], [149.97264, -22.77653], [149.98125, -22.77292], [149.98625, -22.80097], [149.99458, -22.79625], [149.99903, -22.81181], [150.03181, -22.82847], [150.02736, -22.84764], [150.05264, -22.86125], [150.04708, -22.86958], [150.08014, -22.89292], [150.08514, -22.90681], [150.10069, -22.90792], [150.11292, -22.94014], [150.17347, -22.95931], [150.17653, -22.97069], [150.20514, -22.97764], [150.21319, -22.99097], [150.23903, -22.97819], [150.24236, -22.95375], [150.25208, -22.95514], [150.26931, -22.92764], [150.25847, -22.91597], [150.28431, -22.88514], [150.31708, -22.88431], [150.32014, -22.87347], [150.34042, -22.87153], [150.34375, -22.86069], [150.36292, -22.87319], [150.37847, -22.86542], [150.35653, -22.83569], [150.36569, -22.79458], [150.37403, -22.78681], [150.36292, -22.76958], [150.37903, -22.75514], [150.40903, -22.75403], [150.41736, -22.78292], [150.43486, -22.77903], [150.46764, -22.79514], [150.48153, -22.76681], [150.49431, -22.77319], [150.50458, -22.76542], [150.52625, -22.76792], [150.58125, -22.73153], [150.61181, -22.78597], [150.60514, -22.81319], [150.61625, -22.83069], [150.60819, -22.84347], [150.59208, -22.83986], [150.58208, -22.84708], [150.57958, -22.86069], [150.59569, -22.89764], [150.62208, -22.90208], [150.62958, -22.92042], [150.65875, -22.94403], [150.67042, -22.94819], [150.67431, -22.94208], [150.69764, -22.95542], [150.70236, -22.96653], [150.68931, -22.98653], [150.69736, -23.00125], [150.68819, -23.01042], [150.68875, -23.02931], [150.70792, -23.05208], [150.69569, -23.06542], [150.73347, -23.10431], [150.71625, -23.12764], [150.72653, -23.18681], [150.70153, -23.19069], [150.69431, -23.23042], [150.67375, -23.24431], [150.66819, -23.26458], [150.68514, -23.31153], [150.71292, -23.32819], [150.71542, -23.37486], [150.69764, -23.39986], [150.71375, -23.40597], [150.72236, -23.42236], [150.75319, -23.43153], [150.75903, -23.44514], [150.75181, -23.47153], [150.76403, -23.46819], [150.77875, -23.48153], [150.79486, -23.47597], [150.79986, -23.46264], [150.79264, -23.45014], [150.81514, -23.44431], [150.80097, -23.41736], [150.81153, -23.40903], [150.87042, -23.47847], [150.86181, -23.50069], [150.84958, -23.50736], [150.76764, -23.50236], [150.73097, -23.48625], [150.70625, -23.50264], [150.68347, -23.49431], [150.66819, -23.50125], [150.65931, -23.48625], [150.66153, -23.49764], [150.63819, -23.50347], [150.63319, -23.51875], [150.65264, -23.52319], [150.68236, -23.49986], [150.70486, -23.50792], [150.71931, -23.54597], [150.70431, -23.54681], [150.68625, -23.57264], [150.70236, -23.58319], [150.70569, -23.56236], [150.72458, -23.56847], [150.70431, -23.58458], [150.71736, -23.61403], [150.70681, -23.61236], [150.70042, -23.62486], [150.72347, -23.62208], [150.72375, -23.61486], [150.74597, -23.60681], [150.73875, -23.59403], [150.72069, -23.60458], [150.73653, -23.58958], [150.76653, -23.61458], [150.78708, -23.61736], [150.80375, -23.56264], [150.85403, -23.56792], [150.86597, -23.57569], [150.85681, -23.61569], [150.83847, -23.60597], [150.83153, -23.59208], [150.82375, -23.58931], [150.81569, -23.59542], [150.82042, -23.61236], [150.79986, -23.60847], [150.79514, -23.61236], [150.79625, -23.61903], [150.80125, -23.60958], [150.82042, -23.61431], [150.82236, -23.60958], [150.81792, -23.59431], [150.82986, -23.59264], [150.83431, -23.60458], [150.82542, -23.61097], [150.82319, -23.61986], [150.82847, -23.62597], [150.83931, -23.63153], [150.82403, -23.62986], [150.81875, -23.63486], [150.81931, -23.63736], [150.82542, -23.64181], [150.83153, -23.64181], [150.83486, -23.63903], [150.83681, -23.63986], [150.83958, -23.65292], [150.83236, -23.65431], [150.83319, -23.64625], [150.83208, -23.64542], [150.83125, -23.65319], [150.83403, -23.65681], [150.83875, -23.65542], [150.84097, -23.64986], [150.83736, -23.63847], [150.82014, -23.63653], [150.84069, -23.63181], [150.82514, -23.61486], [150.83542, -23.60597], [150.84986, -23.61875], [150.86181, -23.61708], [150.87153, -23.57986], [150.88236, -23.58847], [150.88903, -23.61069], [150.90569, -23.61819], [150.89708, -23.62569], [150.92514, -23.62125], [150.92597, -23.65681], [150.92042, -23.65764], [150.91181, -23.64653], [150.90903, -23.64486], [150.90736, -23.64542], [150.93014, -23.67903], [150.93014, -23.62014], [150.96458, -23.60903], [150.97347, -23.55653], [150.97903, -23.55597], [150.97653, -23.62208], [150.99625, -23.66986], [150.99181, -23.67347], [151.00569, -23.68042], [150.98903, -23.70375], [150.98486, -23.73875], [151.00458, -23.80403], [150.98486, -23.81986], [150.96264, -23.81819], [150.94736, -23.83319], [150.92653, -23.83986], [150.92153, -23.85569], [150.90847, -23.84986], [150.89125, -23.85681], [150.88514, -23.86597], [150.88931, -23.89264], [150.86153, -23.90486], [150.86486, -23.94958], [150.84986, -23.97014], [150.81764, -23.97069], [150.79208, -23.95375], [150.77431, -23.96208], [150.73069, -23.94514], [150.69819, -23.95486], [150.68486, -23.95042], [150.70236, -23.98819], [150.69486, -24.00597], [150.69764, -24.04236], [150.70486, -24.06264], [150.73181, -24.08514], [150.71569, -24.10792], [150.72153, -24.11486], [150.71875, -24.13819], [150.75708, -24.14153], [150.77542, -24.15681], [150.78653, -24.15347], [150.81347, -24.18125], [150.80319, -24.20403], [150.80597, -24.21708], [150.81708, -24.22319], [150.86069, -24.21958], [150.86597, -24.23542], [150.88347, -24.23764], [150.88875, -24.25431], [150.92069, -24.25958], [150.92042, -24.27708], [150.94403, -24.27847], [150.96181, -24.30708], [150.97153, -24.30431], [150.97486, -24.31403], [150.98542, -24.31375], [150.99236, -24.33375], [150.98819, -24.34903], [151.02181, -24.36375], [151.03736, -24.38486], [151.03736, -24.39236], [151.00597, -24.39403], [150.99125, -24.41153], [150.99042, -24.45597], [150.97931, -24.49125], [150.96375, -24.50764], [150.96625, -24.52708], [150.98125, -24.54875], [150.96736, -24.55486], [150.97431, -24.57792], [150.95875, -24.57708], [150.94875, -24.60181], [150.93653, -24.60514], [150.93181, -24.61764], [150.90903, -24.61986], [150.89903, -24.63653], [150.91097, -24.65153], [150.88292, -24.67764], [150.87375, -24.72097], [150.85403, -24.72653], [150.79042, -24.70875], [150.77375, -24.71986], [150.75514, -24.70208], [150.73236, -24.69681], [150.71458, -24.70542], [150.67653, -24.69792], [150.66597, -24.70375], [150.65208, -24.69069], [150.63403, -24.69847], [150.63431, -24.70875], [150.61264, -24.71181], [150.59931, -24.72514], [150.60097, -24.74236], [150.59069, -24.75292], [150.59819, -24.75875], [150.59736, -24.77542], [150.56875, -24.78347], [150.59347, -24.80903], [150.60181, -24.83431], [150.58653, -24.84847], [150.58486, -24.86736], [150.60319, -24.87569], [150.59292, -24.89653], [150.58597, -24.89292], [150.55014, -24.90736], [150.54903, -24.92875], [150.55986, -24.94319], [150.53514, -24.96903], [150.56486, -24.99542], [150.54736, -25.01236], [150.55042, -25.02097], [150.53681, -25.03931], [150.56319, -25.06069], [150.55653, -25.09264], [150.57014, -25.10875], [150.55681, -25.13542], [150.56125, -25.15431], [150.55403, -25.16319], [150.52681, -25.16542], [150.47236, -25.19153], [150.47542, -25.23375], [150.45181, -25.26514], [150.45486, -25.27847], [150.44125, -25.28347], [150.44875, -25.30153], [150.44181, -25.32181], [150.43736, -25.32792], [150.42236, -25.32486], [150.41958, -25.34681], [150.40458, -25.36236], [150.41097, -25.37819], [150.39681, -25.38819], [150.40153, -25.41181], [150.38931, -25.42292], [150.40014, -25.42569], [150.40458, -25.43931], [150.37597, -25.46181], [150.36931, -25.47903], [150.37653, -25.48292], [150.37403, -25.49014], [150.38736, -25.49153], [150.38403, -25.50208], [150.40069, -25.50847], [150.39097, -25.51875], [150.39125, -25.53181], [150.40625, -25.53653], [150.40375, -25.55264], [150.41292, -25.56736], [150.40264, -25.59792], [150.43542, -25.60069], [150.44375, -25.63764], [150.45569, -25.65125], [150.42347, -25.66597], [150.43069, -25.68208], [150.42764, -25.69958], [150.43708, -25.71375], [150.43042, -25.72208], [150.43625, -25.73847], [150.42319, -25.74708], [150.42236, -25.78569], [150.37125, -25.81292], [150.40542, -25.83208], [150.40431, -25.84819], [150.41431, -25.84875], [150.40764, -25.88042], [150.41264, -25.89319], [150.38958, -25.89347], [150.38125, -25.90458], [150.35014, -25.91069], [150.35875, -25.92681], [150.34458, -25.93569], [150.34208, -25.96597], [150.33069, -25.97097], [150.31403, -25.99736], [150.30597, -25.99653], [150.31125, -26.07569], [150.31875, -26.09403], [150.33153, -26.10236], [150.32708, -26.14153], [150.33958, -26.14903], [150.33625, -26.15597], [150.28708, -26.16181], [150.23208, -26.11958], [150.21847, -26.13375], [150.20875, -26.13458], [150.20264, -26.12431], [150.19014, -26.13069], [150.18986, -26.14292], [150.16875, -26.17069], [150.18931, -26.17208], [150.20931, -26.18542], [150.20792, -26.19819], [150.19569, -26.19958], [150.18375, -26.23819], [150.22347, -26.25875], [150.21569, -26.27292], [150.19264, -26.28708], [150.19792, -26.30431], [150.14764, -26.31764], [150.13708, -26.29708], [150.12042, -26.29847], [150.11958, -26.34681], [150.09403, -26.35542], [150.08236, -26.37569], [150.04931, -26.37708], [150.05042, -26.38958], [150.03875, -26.40764], [150.00403, -26.40792], [149.98569, -26.42125], [149.95931, -26.42625], [149.94153, -26.42236], [149.93486, -26.40681], [149.92514, -26.40458], [149.90931, -26.41764], [149.87625, -26.40681], [149.87069, -26.42125], [149.82958, -26.40069], [149.81264, -26.40819], [149.80292, -26.39403], [149.76847, -26.40097], [149.76764, -26.39097], [149.75458, -26.38597], [149.72792, -26.38986], [149.71347, -26.37347], [149.72208, -26.32069], [149.70736, -26.32292], [149.70097, -26.34208], [149.67097, -26.35903], [149.64986, -26.35014], [149.63264, -26.36236], [149.59792, -26.34597], [149.58708, -26.35042], [149.57069, -26.33069], [149.49819, -26.33403], [149.48708, -26.31042], [149.47153, -26.30958], [149.45792, -26.31569], [149.45792, -26.32319], [149.44847, -26.32264], [149.43764, -26.31208], [149.43875, -26.30236], [149.41958, -26.29125], [149.41486, -26.27431], [149.40403, -26.27319], [149.38819, -26.29264], [149.37431, -26.28569], [149.34847, -26.29125], [149.31375, -26.27903], [149.28681, -26.28597], [149.26958, -26.30681], [149.25931, -26.30153], [149.23264, -26.30986], [149.21014, -26.30069], [149.18597, -26.32125], [149.17958, -26.30931], [149.15069, -26.30597], [149.14514, -26.28792], [149.12764, -26.28569], [149.11986, -26.27486], [149.10042, -26.28681], [149.09681, -26.27819], [149.07764, -26.27236], [149.04736, -26.28986], [149.01542, -26.28931], [148.99958, -26.30764], [148.99125, -26.28181], [148.99903, -26.25125], [148.98847, -26.24069], [148.92819, -26.22153], [148.91458, -26.23097], [148.90014, -26.21764], [148.89208, -26.22069], [148.88764, -26.20264], [148.87069, -26.19458], [148.86264, -26.19958], [148.85097, -26.17681], [148.83542, -26.17847], [148.82847, -26.17153], [148.82292, -26.18347], [148.79264, -26.17542], [148.76736, -26.11819], [148.75736, -26.12042], [148.74153, -26.10986], [148.71597, -26.11375], [148.71069, -26.04319], [148.67458, -26.02153], [148.65736, -26.03708], [148.62347, -26.02681], [148.59931, -26.03236], [148.59014, -26.01708], [148.57736, -26.01292], [148.55875, -26.02819], [148.52319, -26.02514], [148.51236, -26.04431], [148.50042, -26.04431], [148.49069, -26.03319], [148.38458, -26.00125], [148.34681, -26.02042], [148.34181, -26.03236], [148.32292, -26.04319], [148.32069, -26.03708], [148.29125, -26.05181], [148.28292, -26.06792], [148.26292, -26.05764], [148.24542, -26.05931], [148.24403, -26.04458], [148.25986, -26.03819], [148.24292, -26.03347], [148.25403, -25.99264], [148.24181, -25.97875], [148.24236, -25.95819], [148.25569, -25.92153], [148.28042, -25.89986], [148.27208, -25.87625], [148.27569, -25.85097], [148.25264, -25.82403], [148.26125, -25.81181], [148.26014, -25.76486], [148.27208, -25.76153], [148.26958, -25.74931], [148.28903, -25.74069], [148.30014, -25.72236], [148.32042, -25.71542], [148.31569, -25.68042], [148.29375, -25.64681], [148.30264, -25.63681], [148.30403, -25.60319], [148.32319, -25.58431], [148.33069, -25.53542], [148.38958, -25.47458], [148.40292, -25.44208], [148.40292, -25.42903], [148.37764, -25.41514], [148.37819, -25.39903], [148.35764, -25.38264], [148.36319, -25.36236], [148.35347, -25.34542], [148.38542, -25.29903], [148.38681, -25.28042], [148.36958, -25.26681], [148.36986, -25.25375], [148.35708, -25.24431], [148.35958, -25.23375], [148.34736, -25.22042], [148.32542, -25.21097], [148.30236, -25.21486], [148.30569, -25.20264], [148.29153, -25.18653], [148.29514, -25.16486], [148.23653, -25.11514], [148.23514, -25.10153], [148.20847, -25.08069], [148.15958, -25.08458], [148.15014, -25.06097], [148.13458, -25.04486], [148.12125, -25.04319], [148.11653, -25.02181], [148.09014, -25.01069], [148.07514, -24.97875], [148.07764, -24.94764], [148.06319, -24.93375], [148.05764, -24.91403], [148.03125, -24.91181], [148.00875, -24.89653], [147.99403, -24.90069], [147.97514, -24.87847], [147.95181, -24.88292], [147.94208, -24.86403], [147.91569, -24.84736], [147.91569, -24.81931], [147.90097, -24.81431], [147.87847, -24.78764], [147.85458, -24.78097], [147.84597, -24.76181], [147.82764, -24.75208], [147.82458, -24.73569], [147.79042, -24.73069], [147.77542, -24.74347], [147.76458, -24.72625], [147.73653, -24.72847], [147.71542, -24.75236], [147.70431, -24.75319], [147.70292, -24.76153], [147.69292, -24.76097], [147.68014, -24.77375], [147.64597, -24.77319], [147.64681, -24.79792], [147.58931, -24.81847], [147.58153, -24.83236], [147.57125, -24.83208], [147.55903, -24.81903], [147.54319, -24.81792], [147.51903, -24.83069], [147.50847, -24.82125], [147.48653, -24.88014], [147.43653, -24.88264], [147.43042, -24.87597], [147.41903, -24.88236], [147.38042, -24.86875], [147.36375, -24.87847], [147.32125, -24.87042], [147.31986, -24.88236], [147.30597, -24.88486], [147.27931, -24.92014], [147.28236, -24.95181], [147.23347, -24.98847], [147.22042, -24.98014], [147.21931, -24.98792], [147.19514, -24.99653], [147.16931, -24.99236], [147.15792, -24.98264], [147.15986, -24.96264], [147.13653, -24.95681], [147.11153, -24.97764], [147.10847, -24.99819], [147.09208, -25.00292], [147.07403, -24.99125], [147.07375, -25.00708], [147.05681, -25.01236], [147.03125, -25.03542], [146.99903, -25.03847], [146.97847, -25.01403], [146.97708, -24.98875], [146.89903, -24.92319], [146.90236, -24.90403], [146.87097, -24.86153], [146.87847, -24.83347], [146.89653, -24.83236], [146.89069, -24.81847], [146.90042, -24.81097], [146.87819, -24.76792], [146.90847, -24.74375], [146.91986, -24.71625], [146.94431, -24.70014], [146.93375, -24.67514], [146.89097, -24.64014], [146.88292, -24.60264], [146.86458, -24.58514], [146.85514, -24.59042], [146.84903, -24.61014], [146.81181, -24.63792], [146.80125, -24.61903], [146.77708, -24.63208], [146.76319, -24.66403], [146.73403, -24.64708], [146.73736, -24.64208], [146.71625, -24.61875], [146.68319, -24.62153], [146.66625, -24.61319], [146.66764, -24.58903], [146.68069, -24.57514], [146.66431, -24.56236], [146.64069, -24.50097], [146.62625, -24.49514], [146.62069, -24.45875], [146.59625, -24.45292], [146.58681, -24.42764], [146.57292, -24.41542], [146.61097, -24.41569], [146.63597, -24.39931], [146.65764, -24.40514], [146.68875, -24.37569], [146.69542, -24.38208], [146.72319, -24.38042], [146.71819, -24.39625], [146.72514, -24.40347], [146.72403, -24.42208], [146.73042, -24.42819], [146.73208, -24.41653], [146.74847, -24.40542], [146.78153, -24.40514], [146.79403, -24.41708], [146.80347, -24.39625], [146.81847, -24.39097], [146.81181, -24.37708], [146.83708, -24.36986], [146.84181, -24.35819], [146.86486, -24.36819], [146.87875, -24.34486], [146.87625, -24.33597], [146.91542, -24.32264], [146.91153, -24.30458], [146.91903, -24.29486], [146.93097, -24.29486], [146.93931, -24.27542], [146.92792, -24.27569], [146.92597, -24.25986], [146.95375, -24.20597], [146.94903, -24.19403], [146.95681, -24.16431], [146.99431, -24.15653], [147.00958, -24.16153], [147.01458, -24.14597], [147.03653, -24.14264], [147.03514, -24.12597], [147.05264, -24.11542], [147.07569, -24.11764], [147.09931, -24.09708], [147.13208, -24.09153], [147.14403, -24.09986], [147.18375, -24.08431], [147.17958, -24.06153], [147.20153, -24.03958], [147.20403, -24.02014], [147.18181, -24.01486], [147.18042, -23.99597], [147.16153, -23.97625], [147.17097, -23.96792], [147.17681, -23.94375], [147.24153, -23.90431], [147.23264, -23.88236], [147.23625, -23.84736], [147.22764, -23.83264], [147.24042, -23.80681], [147.22597, -23.78542], [147.19903, -23.77292], [147.19486, -23.74514], [147.20347, -23.73236], [147.19264, -23.71264], [147.19847, -23.70931], [147.19569, -23.68458], [147.20958, -23.67681], [147.20097, -23.65431], [147.21208, -23.63903], [147.19653, -23.60958], [147.21958, -23.59208], [147.21014, -23.57681], [147.21847, -23.56708], [147.21819, -23.55069], [147.27069, -23.53708], [147.28236, -23.52292], [147.27486, -23.51319], [147.27958, -23.48125], [147.27042, -23.46542], [147.25986, -23.46986], [147.24931, -23.45486], [147.26181, -23.43319], [147.26486, -23.38486], [147.27403, -23.36764], [147.28542, -23.36319], [147.28319, -23.33125], [147.29403, -23.32347], [147.27903, -23.30403], [147.28819, -23.27708], [147.27264, -23.26903], [147.26042, -23.24097], [147.25847, -23.19097], [147.26708, -23.17486], [147.28625, -23.16431], [147.27875, -23.13958], [147.29819, -23.10847], [147.30236, -23.09653], [147.29569, -23.08986], [147.31181, -23.05069], [147.33958, -23.01986], [147.34986, -23.01986], [147.35458, -22.99819], [147.37153, -22.97514], [147.38681, -22.97319], [147.39208, -22.95986], [147.37903, -22.93819], [147.36708, -22.93708], [147.35986, -22.91736], [147.36014, -22.90569], [147.36903, -22.89986], [147.36597, -22.88653], [147.37431, -22.88542], [147.38153, -22.86014], [147.36819, -22.82653], [147.37181, -22.81431], [147.39708, -22.80792], [147.39958, -22.78319], [147.39236, -22.77181], [147.39847, -22.75736], [147.42958, -22.75292], [147.42014, -22.73708], [147.42736, -22.72597], [147.41958, -22.69431], [147.42708, -22.65153], [147.47042, -22.65764], [147.48264, -22.64569], [147.50653, -22.65597], [147.50986, -22.64653], [147.52514, -22.64819], [147.53125, -22.63986], [147.54375, -22.65208], [147.59319, -22.62681], [147.62903, -22.62764], [147.63403, -22.60819], [147.62514, -22.59569], [147.64514, -22.58486], [147.65597, -22.59069], [147.65153, -22.57514], [147.66708, -22.56764], [147.66319, -22.55153], [147.67569, -22.55347], [147.68653, -22.53875], [147.70764, -22.53236], [147.71014, -22.52264], [147.74375, -22.54514], [147.76986, -22.52347], [147.77097, -22.51153], [147.82014, -22.53931], [147.84986, -22.51931], [147.86319, -22.52903], [147.87458, -22.52125], [147.90375, -22.52153], [147.93125, -22.54819], [147.94486, -22.55153], [147.97236, -22.52319], [148.00514, -22.50792], [148.01486, -22.48708], [148.02958, -22.48597], [148.03569, -22.47764], [148.03875, -22.48292], [148.05403, -22.46069], [148.06375, -22.46292], [148.06792, -22.44264], [148.05097, -22.42875], [148.05903, -22.40819], [148.04653, -22.40014], [148.04986, -22.38014], [148.02264, -22.37431], [148.00764, -22.35208], [147.99014, -22.36069], [147.97819, -22.34514], [147.93042, -22.32569], [147.93403, -22.28931], [147.91764, -22.26958], [147.91708, -22.24819], [147.91069, -22.23653], [147.88014, -22.22903], [147.89347, -22.19069], [147.87875, -22.13458], [147.84292, -22.11181], [147.84042, -22.10097], [147.81625, -22.08708], [147.79292, -22.05764], [147.79264, -22.04542], [147.78042, -22.03319], [147.78292, -22.02042], [147.77236, -22.00958], [147.76681, -21.95069], [147.77875, -21.95042], [147.77514, -21.93542], [147.79597, -21.91458], [147.77903, -21.88736], [147.78958, -21.86403], [147.81403, -21.86042], [147.83042, -21.87458], [147.83931, -21.86847], [147.84597, -21.83986], [147.86653, -21.83069], [147.86875, -21.79153], [147.82514, -21.78431], [147.81431, -21.77569], [147.83653, -21.76847], [147.84431, -21.74986], [147.87542, -21.73653], [147.88764, -21.72181], [147.90319, -21.67569], [147.92653, -21.69153], [147.94375, -21.67514], [147.94208, -21.65236], [147.99542, -21.57014], [148.01569, -21.56986], [148.02542, -21.55597], [148.05681, -21.54181], [148.06681, -21.54431], [148.06319, -21.49264], [148.07597, -21.45569], [148.08847, -21.45069], [148.13097, -21.46431], [148.14569, -21.46181], [148.15125, -21.44847], [148.13653, -21.43014], [148.14597, -21.42208], [148.15986, -21.42431], [148.16764, -21.41153], [148.18347, -21.42097], [148.19403, -21.40931], [148.24097, -21.40514], [148.25264, -21.41958], [148.30597, -21.41819], [148.32431, -21.38792], [148.34403, -21.37819], [148.35792, -21.38319], [148.38264, -21.37486], [148.40347, -21.38181], [148.41042, -21.35264], [148.42375, -21.34986], [148.44125, -21.33097], [148.44097, -21.28875], [148.47014, -21.27347], [148.50931, -21.31014], [148.51681, -21.30931], [148.54736, -21.37014], [148.60542, -21.37014], [148.61736, -21.38292], [148.64958, -21.36736], [148.68264, -21.37792], [148.69181, -21.34764], [148.71069, -21.34736], [148.76069, -21.39514], [148.79069, -21.38903], [148.79736, -21.42097], [148.82097, -21.45875], [148.87292, -21.45736], [148.90069, -21.47208], [148.90958, -21.44597], [148.91931, -21.44264], [148.90236, -21.41431], [148.90958, -21.38125], [148.92514, -21.37708], [148.93681, -21.38708], [148.95181, -21.38569], [148.97347, -21.36764], [149.03264, -21.35375], [149.05514, -21.38347], [149.07542, -21.39042], [149.07653, -21.41347], [149.08514, -21.41903], [149.08069, -21.42875], [149.09486, -21.44208], [149.08681, -21.45431], [149.08653, -21.48986], [149.11208, -21.49236], [149.11403, -21.50458], [149.12569, -21.50097], [149.13903, -21.50792], [149.15431, -21.49097], [149.16736, -21.50069], [149.19264, -21.50069], [149.18986, -21.54736], [149.20181, -21.55236], [149.17097, -21.59236]]]}}, {"type": "Feature", "properties": {"zone": "Murrumbidgee", "name": "MURRUMBIDGEE RIVER", "division": "Murray-Darling Basin", "area_ha": 4737598}, "geometry": {"type": "Polygon", "coordinates": [[[144.56319, -34.24458], [144.57042, -34.27292], [144.62514, -34.29375], [144.64542, -34.33153], [144.66069, -34.34625], [144.67514, -34.34292], [144.69069, -34.36264], [144.70986, -34.36542], [144.73458, -34.38264], [144.76319, -34.38681], [144.77403, -34.38069], [144.78514, -34.38986], [144.83014, -34.38958], [144.88792, -34.40514], [144.89181, -34.42264], [144.91403, -34.42569], [144.94847, -34.44819], [144.95708, -34.46653], [144.94264, -34.48569], [144.94958, -34.49458], [144.97292, -34.48903], [144.97625, -34.47375], [144.99486, -34.46708], [144.99708, -34.45792], [145.01431, -34.46403], [145.01625, -34.44708], [145.04597, -34.46625], [145.04847, -34.47597], [145.05597, -34.46597], [145.06819, -34.47069], [145.08431, -34.45708], [145.09431, -34.47319], [145.10958, -34.47014], [145.11486, -34.47625], [145.11653, -34.46153], [145.12792, -34.45958], [145.13597, -34.46764], [145.15403, -34.46764], [145.16431, -34.47903], [145.19264, -34.47014], [145.19958, -34.47931], [145.22319, -34.47569], [145.24986, -34.48792], [145.27319, -34.46542], [145.27708, -34.47292], [145.29653, -34.45625], [145.30764, -34.46931], [145.31847, -34.45236], [145.32347, -34.45681], [145.33542, -34.44986], [145.34403, -34.45931], [145.35958, -34.44986], [145.36097, -34.43792], [145.37125, -34.44597], [145.38181, -34.41514], [145.40653, -34.40014], [145.42042, -34.40069], [145.42708, -34.41375], [145.44042, -34.41042], [145.44958, -34.42403], [145.45736, -34.41431], [145.46903, -34.41819], [145.46569, -34.43736], [145.48153, -34.44819], [145.48681, -34.43736], [145.49708, -34.44208], [145.50264, -34.43181], [145.51708, -34.43903], [145.53375, -34.43097], [145.54875, -34.40875], [145.60569, -34.40625], [145.61986, -34.39403], [145.63819, -34.39819], [145.65847, -34.38736], [145.67847, -34.39597], [145.69069, -34.38792], [145.70792, -34.40708], [145.72236, -34.40431], [145.72542, -34.41014], [145.76681, -34.39292], [145.77625, -34.39958], [145.77458, -34.40847], [145.79125, -34.41792], [145.81014, -34.41986], [145.81875, -34.41292], [145.82486, -34.42264], [145.83542, -34.41764], [145.85597, -34.43208], [145.87764, -34.42736], [145.89708, -34.44208], [145.91625, -34.44125], [145.91931, -34.45208], [145.94958, -34.44208], [146.00792, -34.49764], [146.04736, -34.49069], [146.03903, -34.46181], [146.04375, -34.44986], [146.07347, -34.44347], [146.08736, -34.45486], [146.10708, -34.45181], [146.11042, -34.46069], [146.12597, -34.46069], [146.13375, -34.48236], [146.13736, -34.47681], [146.15792, -34.48125], [146.16181, -34.50903], [146.17319, -34.51375], [146.18153, -34.50653], [146.18236, -34.51708], [146.19736, -34.52292], [146.19042, -34.53681], [146.21069, -34.53042], [146.21569, -34.54736], [146.24458, -34.56319], [146.25125, -34.58514], [146.28514, -34.57986], [146.30264, -34.58764], [146.30625, -34.60875], [146.33958, -34.60236], [146.34764, -34.61264], [146.36264, -34.58958], [146.39292, -34.59958], [146.41486, -34.59292], [146.41292, -34.60097], [146.42264, -34.60653], [146.41708, -34.62792], [146.42208, -34.63653], [146.41292, -34.64986], [146.42097, -34.64625], [146.43514, -34.65736], [146.45042, -34.64931], [146.46542, -34.65542], [146.43931, -34.68208], [146.49292, -34.68625], [146.50819, -34.71097], [146.50736, -34.72347], [146.52597, -34.72986], [146.53569, -34.75097], [146.56264, -34.75875], [146.57486, -34.74625], [146.60403, -34.75069], [146.59431, -34.72486], [146.61375, -34.69653], [146.65319, -34.68792], [146.67042, -34.69875], [146.69042, -34.69931], [146.71264, -34.67347], [146.77292, -34.66236], [146.78264, -34.63653], [146.77597, -34.61042], [146.78458, -34.61014], [146.83208, -34.56208], [146.84069, -34.57431], [146.85764, -34.56486], [146.86958, -34.57069], [146.88764, -34.55264], [146.93958, -34.55403], [146.94125, -34.52375], [146.97069, -34.51597], [146.97653, -34.50653], [146.97792, -34.46486], [147.00847, -34.46569], [147.00847, -34.45403], [147.02014, -34.44875], [147.01736, -34.43708], [147.03597, -34.42069], [147.04597, -34.42792], [147.10569, -34.41597], [147.12347, -34.42236], [147.14792, -34.40958], [147.17875, -34.40764], [147.20653, -34.42736], [147.21069, -34.43792], [147.20347, -34.45347], [147.22903, -34.48208], [147.27569, -34.48125], [147.30847, -34.51597], [147.36431, -34.53931], [147.41319, -34.51931], [147.42847, -34.53403], [147.45403, -34.53875], [147.49347, -34.61625], [147.50458, -34.60819], [147.50347, -34.57625], [147.53264, -34.56014], [147.55819, -34.56847], [147.60042, -34.55569], [147.62069, -34.56375], [147.64958, -34.55625], [147.67708, -34.57903], [147.70514, -34.58319], [147.72819, -34.57181], [147.72514, -34.55819], [147.73792, -34.54958], [147.76069, -34.55319], [147.76069, -34.54042], [147.76958, -34.53347], [147.78431, -34.54431], [147.78931, -34.53792], [147.80958, -34.56403], [147.80542, -34.57708], [147.84125, -34.59486], [147.84486, -34.62125], [147.86319, -34.63014], [147.87431, -34.64986], [147.88903, -34.65375], [147.91986, -34.63819], [147.93069, -34.62236], [147.93847, -34.62542], [147.94625, -34.61403], [147.96292, -34.61069], [147.97375, -34.59681], [147.96375, -34.58431], [147.96736, -34.56153], [147.98597, -34.55653], [147.99653, -34.54375], [148.01069, -34.55986], [148.01625, -34.53958], [148.03319, -34.53792], [148.02958, -34.52292], [148.04347, -34.51181], [148.07847, -34.50986], [148.08347, -34.52069], [148.09875, -34.52042], [148.10403, -34.52986], [148.11931, -34.52542], [148.11708, -34.50319], [148.13208, -34.50042], [148.12403, -34.48347], [148.14736, -34.46847], [148.15625, -34.44514], [148.17153, -34.43569], [148.16847, -34.42486], [148.20208, -34.42264], [148.22097, -34.39403], [148.26292, -34.38708], [148.26958, -34.37708], [148.29042, -34.37542], [148.29986, -34.36681], [148.34542, -34.36653], [148.34931, -34.35125], [148.36542, -34.35903], [148.38875, -34.35458], [148.39736, -34.37097], [148.43431, -34.37069], [148.45347, -34.36153], [148.48069, -34.37236], [148.50736, -34.41403], [148.53986, -34.44014], [148.56958, -34.42764], [148.58486, -34.46569], [148.61014, -34.46264], [148.62542, -34.47375], [148.61986, -34.49958], [148.62986, -34.51431], [148.62264, -34.52292], [148.63931, -34.52931], [148.63847, -34.54208], [148.65014, -34.54875], [148.65625, -34.58069], [148.66375, -34.58347], [148.66264, -34.60181], [148.68597, -34.60347], [148.68903, -34.62986], [148.70597, -34.62875], [148.71736, -34.64431], [148.73542, -34.64903], [148.74486, -34.67958], [148.76208, -34.68153], [148.76097, -34.69681], [148.78125, -34.70125], [148.77625, -34.71292], [148.78181, -34.72625], [148.80764, -34.72625], [148.83986, -34.69625], [148.85681, -34.71153], [148.86792, -34.70264], [148.90625, -34.71208], [148.91431, -34.70431], [148.93681, -34.70264], [148.96208, -34.74708], [148.98375, -34.73792], [148.99569, -34.75458], [149.02347, -34.74597], [149.03764, -34.75792], [149.03014, -34.78125], [149.03986, -34.81153], [149.04903, -34.81458], [149.04236, -34.82847], [149.06931, -34.83986], [149.06764, -34.85458], [149.07653, -34.85153], [149.11236, -34.86542], [149.10708, -34.88208], [149.11542, -34.87875], [149.12208, -34.88875], [149.14486, -34.89069], [149.15625, -34.87486], [149.18208, -34.89292], [149.19708, -34.88264], [149.22042, -34.89986], [149.26792, -34.88014], [149.29375, -34.91375], [149.29153, -34.92708], [149.31736, -34.92792], [149.33847, -34.94514], [149.35319, -34.94431], [149.38347, -34.91653], [149.38792, -34.89153], [149.37514, -34.87569], [149.42431, -34.86708], [149.42125, -34.84264], [149.42931, -34.82292], [149.45958, -34.81597], [149.47097, -34.79736], [149.49153, -34.80375], [149.50764, -34.81653], [149.49708, -34.84069], [149.50931, -34.87875], [149.52208, -34.89986], [149.53931, -34.90125], [149.51681, -34.95625], [149.52347, -34.97319], [149.54458, -34.99042], [149.54597, -35.00486], [149.57569, -35.03014], [149.55097, -35.05792], [149.56625, -35.06181], [149.56569, -35.07903], [149.57958, -35.09597], [149.57069, -35.11986], [149.57625, -35.13736], [149.55847, -35.14597], [149.54458, -35.18403], [149.54653, -35.23069], [149.57375, -35.24625], [149.57764, -35.26958], [149.56875, -35.28986], [149.57181, -35.35764], [149.52958, -35.39014], [149.53042, -35.41792], [149.54597, -35.44486], [149.54153, -35.49181], [149.55403, -35.50958], [149.51514, -35.52208], [149.51542, -35.54903], [149.50264, -35.56986], [149.49875, -35.61236], [149.51375, -35.66958], [149.50458, -35.67847], [149.50681, -35.69069], [149.52264, -35.71625], [149.51486, -35.77986], [149.52292, -35.79042], [149.51736, -35.79875], [149.52347, -35.81653], [149.49736, -35.81347], [149.49597, -35.83097], [149.48403, -35.83819], [149.48903, -35.87431], [149.51514, -35.89653], [149.51069, -35.90375], [149.51875, -35.92625], [149.51097, -35.95181], [149.52097, -35.97931], [149.54847, -35.99569], [149.54931, -35.98847], [149.56542, -35.98792], [149.57097, -36.03958], [149.56097, -36.04847], [149.55764, -36.07569], [149.56931, -36.08708], [149.54431, -36.10542], [149.54681, -36.11736], [149.53736, -36.11014], [149.52069, -36.12625], [149.51097, -36.14486], [149.51542, -36.15486], [149.49764, -36.17486], [149.48403, -36.15514], [149.46819, -36.15569], [149.45347, -36.16764], [149.45819, -36.18153], [149.44208, -36.19014], [149.42375, -36.21681], [149.42153, -36.23819], [149.43153, -36.24847], [149.41625, -36.27319], [149.44208, -36.27792], [149.44597, -36.29875], [149.45847, -36.31208], [149.47542, -36.31625], [149.47319, -36.32736], [149.46292, -36.33181], [149.48181, -36.34708], [149.48181, -36.39153], [149.50847, -36.40403], [149.51264, -36.41681], [149.49736, -36.42847], [149.48847, -36.42569], [149.45542, -36.48458], [149.47181, -36.50236], [149.45542, -36.52931], [149.44125, -36.52903], [149.43347, -36.54514], [149.40208, -36.54958], [149.34375, -36.52681], [149.33375, -36.51625], [149.30847, -36.52181], [149.30514, -36.51014], [149.28319, -36.50542], [149.28542, -36.49458], [149.27292, -36.49319], [149.26403, -36.46597], [149.22653, -36.46431], [149.21069, -36.44819], [149.17486, -36.45014], [149.13069, -36.41042], [149.09653, -36.41875], [149.07153, -36.39819], [149.04931, -36.40458], [149.05708, -36.37736], [149.04764, -36.37653], [149.04208, -36.35458], [149.02458, -36.35347], [149.02014, -36.33597], [148.99569, -36.31236], [148.96875, -36.31069], [148.95181, -36.30431], [148.94347, -36.28875], [148.89903, -36.27847], [148.89708, -36.25069], [148.85486, -36.22292], [148.85542, -36.20875], [148.83736, -36.19319], [148.85958, -36.19014], [148.87208, -36.17181], [148.85042, -36.15458], [148.85625, -36.13514], [148.84403, -36.13097], [148.84403, -36.11264], [148.82292, -36.07903], [148.79375, -36.07903], [148.75514, -36.04931], [148.74097, -36.04903], [148.74042, -36.02236], [148.72403, -36.02097], [148.71903, -36.00681], [148.69208, -35.98375], [148.66931, -35.99042], [148.64986, -35.97403], [148.65403, -35.94597], [148.63708, -35.91819], [148.64292, -35.89708], [148.63347, -35.88653], [148.60514, -35.89014], [148.56514, -35.87514], [148.55319, -35.85569], [148.55792, -35.84181], [148.54625, -35.83986], [148.53986, -35.82569], [148.51708, -35.83097], [148.50431, -35.77625], [148.47931, -35.79181], [148.47014, -35.82292], [148.45264, -35.84208], [148.45069, -35.87181], [148.43847, -35.89931], [148.47264, -35.91403], [148.46958, -35.94347], [148.48264, -35.94625], [148.49486, -35.96569], [148.52625, -35.98375], [148.53486, -36.00042], [148.55903, -36.00042], [148.55625, -36.04097], [148.57014, -36.06875], [148.56042, -36.08292], [148.56625, -36.09542], [148.55375, -36.10542], [148.52653, -36.08819], [148.48542, -36.09792], [148.47875, -36.11347], [148.45375, -36.12569], [148.46069, -36.14569], [148.43903, -36.17486], [148.42625, -36.17847], [148.39903, -36.14681], [148.37236, -36.15764], [148.36347, -36.14903], [148.36264, -36.11958], [148.34792, -36.11375], [148.34319, -36.10236], [148.36792, -36.06375], [148.36236, -36.04208], [148.38597, -36.02569], [148.36403, -36.01125], [148.35681, -35.99181], [148.33486, -35.98903], [148.34014, -35.97847], [148.32486, -35.96986], [148.33819, -35.95236], [148.33042, -35.94153], [148.34986, -35.91569], [148.32819, -35.89708], [148.30264, -35.90153], [148.31014, -35.89264], [148.30347, -35.87903], [148.28597, -35.88292], [148.27653, -35.85847], [148.29708, -35.83875], [148.29819, -35.81431], [148.28597, -35.79236], [148.27764, -35.79125], [148.27153, -35.76653], [148.26181, -35.75875], [148.24264, -35.76597], [148.22431, -35.74681], [148.22403, -35.73125], [148.20653, -35.72514], [148.20681, -35.71125], [148.18875, -35.69403], [148.15375, -35.69125], [148.14264, -35.67958], [148.14486, -35.66764], [148.13597, -35.65736], [148.14875, -35.64597], [148.13097, -35.59792], [148.12347, -35.60597], [148.11458, -35.59819], [148.09875, -35.60347], [148.08069, -35.62514], [148.06847, -35.62819], [148.06431, -35.63931], [148.07097, -35.64458], [148.03958, -35.68875], [148.03292, -35.71542], [148.02931, -35.72097], [148.00875, -35.71847], [148.00792, -35.73458], [147.99514, -35.74736], [147.96708, -35.73986], [147.91931, -35.66125], [147.91181, -35.66236], [147.89236, -35.63153], [147.87514, -35.63292], [147.87069, -35.64347], [147.85014, -35.63625], [147.82458, -35.64403], [147.80208, -35.68292], [147.79681, -35.67319], [147.71958, -35.67181], [147.67097, -35.69125], [147.64208, -35.65903], [147.63986, -35.61514], [147.64681, -35.60486], [147.63708, -35.58208], [147.64625, -35.57097], [147.63403, -35.56097], [147.64069, -35.54736], [147.60931, -35.54125], [147.58153, -35.51569], [147.56875, -35.51569], [147.56764, -35.50875], [147.52181, -35.48236], [147.51458, -35.48875], [147.51875, -35.49764], [147.49875, -35.50847], [147.50208, -35.52792], [147.48875, -35.54514], [147.45625, -35.53042], [147.42736, -35.53847], [147.41542, -35.53264], [147.39153, -35.56347], [147.38236, -35.55042], [147.38819, -35.53181], [147.37208, -35.51847], [147.30458, -35.49653], [147.29458, -35.50153], [147.26208, -35.48819], [147.25069, -35.49069], [147.23236, -35.46986], [147.20319, -35.47431], [147.18375, -35.48736], [147.18319, -35.50292], [147.19458, -35.51403], [147.17042, -35.55681], [147.14319, -35.53264], [147.12903, -35.54236], [147.12069, -35.53681], [147.10181, -35.54653], [147.06569, -35.54764], [147.04792, -35.56014], [147.00319, -35.56431], [146.99292, -35.55125], [146.95653, -35.54347], [146.94181, -35.55375], [146.90264, -35.55542], [146.90236, -35.54542], [146.87958, -35.53458], [146.87431, -35.51181], [146.81069, -35.46542], [146.81597, -35.45097], [146.80875, -35.43014], [146.81431, -35.43097], [146.82014, -35.41264], [146.81569, -35.40181], [146.82458, -35.39292], [146.82097, -35.38625], [146.83875, -35.37736], [146.82764, -35.35819], [146.83569, -35.35264], [146.84014, -35.32375], [146.82181, -35.31014], [146.81514, -35.29431], [146.80958, -35.27792], [146.81903, -35.25986], [146.81069, -35.25097], [146.83736, -35.19875], [146.85486, -35.19486], [146.85653, -35.17986], [146.84264, -35.15486], [146.82847, -35.14903], [146.81931, -35.11931], [146.79764, -35.11903], [146.78903, -35.10708], [146.77514, -35.10736], [146.75931, -35.09264], [146.74597, -35.09097], [146.73764, -35.08236], [146.73958, -35.06597], [146.72514, -35.05625], [146.72403, -35.03347], [146.70236, -35.01292], [146.68097, -35.00931], [146.66708, -34.99542], [146.64931, -34.99736], [146.62514, -34.96403], [146.54958, -34.96931], [146.49958, -34.96042], [146.48764, -34.95097], [146.47125, -34.91958], [146.47736, -34.89986], [146.46819, -34.88403], [146.50653, -34.86375], [146.51403, -34.84625], [146.52986, -34.84292], [146.52208, -34.80819], [146.50097, -34.78431], [146.50486, -34.77014], [146.52014, -34.76153], [146.51958, -34.75153], [146.48292, -34.71681], [146.46569, -34.72653], [146.43736, -34.71819], [146.42681, -34.70569], [146.39847, -34.70042], [146.38319, -34.68514], [146.37069, -34.68875], [146.37319, -34.66431], [146.33014, -34.65042], [146.32319, -34.64097], [146.28819, -34.65125], [146.29236, -34.66819], [146.28319, -34.66097], [146.25569, -34.66514], [146.24236, -34.65153], [146.22764, -34.66264], [146.20986, -34.64653], [146.20681, -34.62986], [146.18236, -34.62431], [146.18736, -34.64292], [146.15514, -34.66958], [146.13208, -34.67292], [146.13236, -34.66653], [146.12625, -34.66625], [146.12042, -34.67792], [146.10292, -34.66486], [146.09458, -34.67458], [146.07569, -34.65931], [146.05875, -34.65847], [146.04986, -34.66625], [146.05236, -34.67986], [146.04208, -34.68319], [146.02514, -34.67986], [146.00208, -34.65069], [145.99208, -34.65986], [145.97069, -34.65486], [145.97097, -34.64069], [145.95264, -34.63569], [145.95014, -34.62653], [145.92042, -34.62764], [145.91347, -34.61736], [145.88625, -34.63069], [145.85681, -34.63236], [145.85514, -34.61875], [145.81958, -34.61542], [145.81597, -34.60764], [145.78264, -34.61292], [145.77958, -34.60431], [145.75958, -34.60042], [145.74708, -34.61042], [145.70069, -34.59403], [145.69542, -34.60958], [145.70958, -34.61458], [145.68903, -34.62597], [145.68375, -34.66958], [145.66431, -34.68125], [145.65847, -34.67764], [145.65014, -34.68875], [145.63486, -34.67292], [145.59625, -34.68514], [145.58403, -34.66458], [145.56625, -34.67042], [145.55792, -34.65514], [145.53292, -34.65236], [145.52292, -34.63792], [145.51736, -34.64181], [145.50181, -34.63097], [145.44319, -34.63958], [145.42542, -34.64847], [145.42931, -34.65792], [145.41792, -34.66208], [145.39375, -34.65625], [145.38042, -34.63792], [145.36903, -34.64403], [145.36431, -34.63819], [145.32736, -34.64236], [145.32458, -34.63042], [145.30931, -34.63542], [145.30764, -34.62681], [145.29319, -34.62486], [145.29014, -34.61514], [145.27625, -34.61014], [145.25319, -34.62153], [145.23514, -34.61708], [145.19569, -34.62736], [145.19264, -34.63458], [145.20736, -34.64708], [145.17847, -34.66569], [145.17042, -34.66208], [145.15764, -34.67347], [145.10625, -34.68097], [145.05792, -34.71792], [145.02958, -34.70764], [145.01264, -34.72264], [144.96042, -34.72958], [144.94069, -34.75458], [144.91625, -34.75208], [144.87847, -34.71181], [144.86125, -34.72514], [144.85347, -34.72347], [144.84903, -34.70625], [144.81903, -34.71181], [144.79125, -34.70542], [144.75319, -34.73097], [144.75708, -34.74069], [144.75097, -34.74708], [144.73042, -34.73542], [144.71764, -34.74208], [144.71597, -34.78375], [144.73403, -34.80736], [144.71625, -34.81708], [144.68764, -34.81431], [144.67264, -34.79292], [144.63514, -34.80153], [144.61319, -34.78153], [144.56069, -34.79542], [144.53819, -34.79097], [144.52653, -34.79431], [144.51847, -34.81264], [144.47681, -34.83181], [144.46208, -34.84819], [144.43958, -34.85069], [144.42514, -34.86125], [144.41597, -34.85653], [144.37319, -34.86319], [144.32542, -34.88569], [144.31042, -34.88542], [144.30569, -34.87708], [144.23347, -34.87125], [144.22042, -34.87514], [144.21792, -34.88736], [144.19708, -34.88292], [144.18153, -34.90681], [144.15764, -34.89736], [144.13347, -34.91569], [144.11264, -34.91542], [144.09569, -34.90292], [144.04514, -34.94264], [144.02764, -34.94792], [144.01625, -34.93847], [143.98319, -34.96042], [143.96931, -34.94181], [143.94708, -34.94181], [143.93403, -34.93319], [143.90764, -34.93903], [143.90153, -34.92792], [143.89264, -34.92764], [143.88319, -34.93819], [143.88514, -34.95014], [143.86764, -34.94486], [143.83986, -34.95986], [143.86236, -34.98069], [143.86736, -34.99986], [143.83319, -35.00514], [143.82097, -34.99458], [143.81347, -34.99819], [143.81208, -34.98542], [143.77736, -34.99764], [143.76625, -34.99486], [143.75653, -34.97764], [143.74208, -34.97736], [143.73097, -34.98792], [143.72236, -34.97486], [143.70097, -34.98097], [143.68431, -34.97014], [143.67708, -34.97208], [143.67514, -34.98986], [143.64792, -34.99153], [143.64597, -34.97069], [143.61097, -34.96208], [143.60681, -34.94292], [143.59375, -34.94375], [143.57319, -34.96347], [143.56042, -34.93819], [143.56347, -34.90153], [143.55181, -34.89153], [143.53569, -34.90236], [143.52875, -34.87764], [143.51819, -34.87708], [143.51903, -34.86097], [143.50319, -34.85903], [143.50653, -34.84819], [143.49486, -34.84236], [143.49403, -34.83042], [143.48292, -34.82736], [143.48514, -34.80431], [143.49375, -34.79458], [143.48069, -34.78014], [143.46403, -34.79681], [143.43042, -34.79208], [143.42597, -34.80958], [143.41708, -34.80486], [143.38736, -34.81153], [143.38569, -34.79958], [143.36792, -34.79625], [143.37014, -34.78375], [143.35597, -34.77875], [143.35181, -34.76014], [143.33319, -34.75014], [143.31931, -34.75681], [143.29986, -34.74014], [143.28625, -34.74042], [143.27292, -34.71958], [143.26181, -34.72542], [143.24792, -34.71208], [143.23625, -34.71375], [143.22153, -34.72903], [143.20708, -34.73069], [143.20319, -34.72208], [143.21403, -34.70792], [143.20486, -34.70014], [143.21097, -34.69458], [143.18958, -34.68903], [143.19903, -34.66181], [143.20931, -34.65431], [143.22458, -34.65736], [143.23042, -34.66708], [143.23764, -34.66292], [143.24264, -34.67486], [143.26264, -34.67014], [143.26653, -34.65986], [143.29931, -34.67264], [143.31014, -34.66347], [143.32736, -34.66653], [143.34625, -34.64347], [143.37153, -34.64403], [143.38792, -34.63014], [143.42042, -34.62653], [143.43292, -34.63125], [143.43792, -34.64375], [143.42403, -34.64458], [143.41819, -34.65514], [143.44264, -34.66625], [143.45125, -34.66014], [143.44597, -34.64847], [143.45097, -34.64347], [143.49208, -34.63486], [143.48014, -34.61792], [143.48458, -34.59014], [143.49958, -34.59347], [143.50292, -34.57875], [143.52931, -34.57875], [143.53569, -34.56931], [143.55764, -34.57847], [143.55486, -34.57125], [143.56736, -34.55125], [143.59069, -34.55097], [143.59958, -34.52681], [143.59153, -34.50736], [143.57903, -34.50625], [143.60208, -34.49514], [143.61208, -34.47486], [143.60431, -34.44375], [143.62264, -34.42458], [143.61625, -34.40292], [143.65181, -34.37431], [143.66792, -34.34819], [143.68181, -34.34958], [143.68681, -34.33486], [143.70431, -34.34014], [143.71542, -34.36958], [143.72514, -34.36069], [143.72875, -34.34125], [143.73819, -34.34153], [143.74569, -34.32653], [143.75708, -34.35431], [143.77208, -34.35764], [143.77875, -34.35153], [143.79569, -34.36125], [143.81236, -34.34653], [143.80542, -34.32764], [143.81986, -34.32014], [143.83097, -34.32958], [143.87264, -34.28986], [143.89125, -34.29125], [143.89264, -34.27153], [143.90153, -34.26181], [143.91875, -34.26486], [143.92903, -34.25403], [143.94681, -34.25875], [143.94625, -34.28069], [143.93819, -34.28208], [143.93097, -34.29792], [143.94014, -34.33875], [143.95153, -34.35625], [143.96764, -34.36153], [143.97625, -34.35569], [143.97931, -34.36347], [143.99514, -34.36486], [144.01014, -34.34347], [144.02319, -34.34875], [144.03153, -34.34097], [144.04736, -34.34819], [144.05097, -34.33375], [144.07403, -34.32319], [144.09958, -34.32986], [144.10736, -34.30681], [144.14319, -34.29819], [144.14181, -34.28764], [144.16458, -34.25847], [144.17597, -34.26264], [144.18625, -34.24653], [144.20875, -34.25514], [144.22903, -34.25292], [144.23264, -34.26431], [144.25514, -34.26736], [144.26014, -34.26042], [144.27264, -34.27819], [144.27403, -34.28958], [144.27042, -34.29458], [144.27097, -34.31403], [144.30375, -34.30514], [144.31597, -34.28042], [144.33486, -34.27958], [144.35708, -34.25819], [144.37681, -34.26125], [144.38181, -34.25097], [144.39819, -34.25264], [144.39903, -34.24597], [144.42292, -34.25319], [144.41625, -34.26736], [144.42042, -34.27181], [144.42764, -34.26403], [144.42736, -34.23681], [144.45319, -34.24403], [144.46292, -34.23042], [144.48319, -34.24097], [144.54181, -34.22653], [144.54486, -34.23653], [144.56319, -34.24458]]]}}, {"type": "Feature", "properties": {"zone": "Lachlan", "name": "LACHLAN RIVER", "division": "Murray-Darling Basin", "area_ha": 7705123}, "geometry": {"type": "Polygon", "coordinates": [[[148.05403, -33.01903], [148.06514, -33.00681], [148.07125, -32.98764], [148.09069, -32.99847], [148.11069, -32.98569], [148.12847, -32.99292], [148.13986, -32.98125], [148.16736, -33.00347], [148.19514, -33.00625], [148.20847, -32.98875], [148.24153, -32.98903], [148.25347, -32.97847], [148.39014, -32.97403], [148.39958, -32.95931], [148.41792, -32.97347], [148.43097, -32.97014], [148.44236, -32.97986], [148.44347, -32.99486], [148.45625, -32.99625], [148.46597, -33.01542], [148.48236, -33.01653], [148.50486, -33.04569], [148.52847, -33.02375], [148.56069, -33.02236], [148.56986, -33.03681], [148.56208, -33.05708], [148.57958, -33.06681], [148.59903, -33.04736], [148.64319, -33.03653], [148.72458, -33.05681], [148.77375, -33.03208], [148.81486, -33.03347], [148.82958, -33.04931], [148.82319, -33.06708], [148.82847, -33.07514], [148.82542, -33.08569], [148.80847, -33.09014], [148.80847, -33.10375], [148.82403, -33.12181], [148.83681, -33.12236], [148.82792, -33.17014], [148.84486, -33.15958], [148.87264, -33.16069], [148.87625, -33.17236], [148.90514, -33.18903], [148.94264, -33.18986], [148.94764, -33.20764], [148.95625, -33.20264], [148.96653, -33.21319], [148.96847, -33.26653], [148.99042, -33.27847], [148.99014, -33.33708], [148.98125, -33.34514], [148.98153, -33.36097], [149.01014, -33.36153], [149.01347, -33.36958], [149.03319, -33.37181], [149.06014, -33.39097], [149.10292, -33.39347], [149.11264, -33.38319], [149.13903, -33.38514], [149.15514, -33.41569], [149.19014, -33.43264], [149.18986, -33.44819], [149.20792, -33.45875], [149.24514, -33.44042], [149.25014, -33.42431], [149.29014, -33.41181], [149.29708, -33.42181], [149.33986, -33.43347], [149.34819, -33.44931], [149.36319, -33.45097], [149.36208, -33.46792], [149.35486, -33.46931], [149.34875, -33.48764], [149.35597, -33.50986], [149.33347, -33.51042], [149.31181, -33.52375], [149.30708, -33.53514], [149.31542, -33.56292], [149.29542, -33.58597], [149.30736, -33.59319], [149.30903, -33.61764], [149.31931, -33.62653], [149.30986, -33.63097], [149.31264, -33.64125], [149.36264, -33.65042], [149.35264, -33.66597], [149.37153, -33.68458], [149.37153, -33.69681], [149.39458, -33.69319], [149.43903, -33.70986], [149.43097, -33.73097], [149.45931, -33.77014], [149.45764, -33.78736], [149.48458, -33.79653], [149.47986, -33.84625], [149.48903, -33.87042], [149.50764, -33.87931], [149.52069, -33.86819], [149.54486, -33.86875], [149.56375, -33.88486], [149.59375, -33.88958], [149.61819, -33.91736], [149.63319, -33.91875], [149.63486, -33.90958], [149.64986, -33.90875], [149.66375, -33.89542], [149.67069, -33.90569], [149.69236, -33.90542], [149.72208, -33.92875], [149.78792, -33.92208], [149.79542, -33.91208], [149.81681, -33.92792], [149.83153, -33.92125], [149.84236, -33.94153], [149.83819, -33.96097], [149.84708, -33.99153], [149.84153, -33.99819], [149.85292, -34.01375], [149.86042, -34.01014], [149.87069, -34.04097], [149.90236, -34.06153], [149.90903, -34.07597], [149.90514, -34.08708], [149.92542, -34.08181], [149.96292, -34.10097], [149.96347, -34.12486], [149.97347, -34.13903], [149.96042, -34.17153], [149.96625, -34.17514], [149.92486, -34.22653], [149.93819, -34.26903], [149.89597, -34.27514], [149.88236, -34.30097], [149.84542, -34.30042], [149.81403, -34.31403], [149.81014, -34.33819], [149.78681, -34.34181], [149.79097, -34.35875], [149.78458, -34.36542], [149.76764, -34.36292], [149.74097, -34.38792], [149.73042, -34.42403], [149.75042, -34.44875], [149.73653, -34.44347], [149.72153, -34.45319], [149.69292, -34.44847], [149.69903, -34.45847], [149.68903, -34.47347], [149.62736, -34.47569], [149.60986, -34.48319], [149.59347, -34.46597], [149.59764, -34.45181], [149.58764, -34.42792], [149.55792, -34.43236], [149.51569, -34.49486], [149.50681, -34.49792], [149.50292, -34.51736], [149.46403, -34.53069], [149.43958, -34.53014], [149.44819, -34.59097], [149.43764, -34.60597], [149.41319, -34.61319], [149.40736, -34.62597], [149.41403, -34.63569], [149.41097, -34.68181], [149.41792, -34.69792], [149.42931, -34.70542], [149.44264, -34.70014], [149.45708, -34.72097], [149.48903, -34.71819], [149.49542, -34.73708], [149.50708, -34.74486], [149.54597, -34.75681], [149.55208, -34.77042], [149.58958, -34.77736], [149.58181, -34.79847], [149.59236, -34.81458], [149.58097, -34.83097], [149.60486, -34.85375], [149.58708, -34.86403], [149.56847, -34.91458], [149.57014, -34.92792], [149.58903, -34.93764], [149.57653, -34.97042], [149.54597, -34.97792], [149.54181, -34.98819], [149.52347, -34.97319], [149.51681, -34.95597], [149.53931, -34.90125], [149.52208, -34.89986], [149.50653, -34.87292], [149.49708, -34.83875], [149.50708, -34.81514], [149.47153, -34.79736], [149.45958, -34.81597], [149.42847, -34.82375], [149.42125, -34.84264], [149.42431, -34.86708], [149.37514, -34.87569], [149.38792, -34.89153], [149.37708, -34.92903], [149.36736, -34.92931], [149.36125, -34.94153], [149.33847, -34.94514], [149.31736, -34.92792], [149.29153, -34.92708], [149.29375, -34.91375], [149.26792, -34.88014], [149.22042, -34.89986], [149.19708, -34.88264], [149.18208, -34.89292], [149.15625, -34.87486], [149.14486, -34.89069], [149.12208, -34.88875], [149.11542, -34.87875], [149.10708, -34.88208], [149.11236, -34.86542], [149.07653, -34.85153], [149.06764, -34.85458], [149.06931, -34.83986], [149.04236, -34.82847], [149.04903, -34.81458], [149.03986, -34.81153], [149.03014, -34.78125], [149.03764, -34.75792], [149.02347, -34.74597], [148.99569, -34.75458], [148.98375, -34.73792], [148.96208, -34.74708], [148.93681, -34.70264], [148.91431, -34.70431], [148.90653, -34.71208], [148.86792, -34.70264], [148.85681, -34.71153], [148.83986, -34.69625], [148.80764, -34.72625], [148.78181, -34.72625], [148.77625, -34.71292], [148.78125, -34.70125], [148.76097, -34.69681], [148.76208, -34.68153], [148.74486, -34.67958], [148.73542, -34.64903], [148.71736, -34.64431], [148.70597, -34.62875], [148.68903, -34.62986], [148.68597, -34.60347], [148.66264, -34.60181], [148.66375, -34.58347], [148.65347, -34.57319], [148.65014, -34.54875], [148.63847, -34.54208], [148.63931, -34.52931], [148.62264, -34.52292], [148.62986, -34.51431], [148.61986, -34.49958], [148.62542, -34.47375], [148.61014, -34.46264], [148.58486, -34.46569], [148.56958, -34.42764], [148.53986, -34.44014], [148.50736, -34.41403], [148.48069, -34.37236], [148.45347, -34.36153], [148.43431, -34.37069], [148.39736, -34.37097], [148.38875, -34.35458], [148.36542, -34.35903], [148.34931, -34.35125], [148.34542, -34.36653], [148.29986, -34.36681], [148.29042, -34.37542], [148.26958, -34.37708], [148.26292, -34.38708], [148.22097, -34.39403], [148.20208, -34.42264], [148.16847, -34.42486], [148.17153, -34.43569], [148.15625, -34.44514], [148.14736, -34.46847], [148.12403, -34.48347], [148.13181, -34.50014], [148.11708, -34.50319], [148.11903, -34.52514], [148.10403, -34.52986], [148.09903, -34.52014], [148.08375, -34.52042], [148.07847, -34.50986], [148.04347, -34.51181], [148.02958, -34.52292], [148.03319, -34.53792], [148.01625, -34.53958], [148.01069, -34.55986], [147.99653, -34.54375], [147.98597, -34.55653], [147.96736, -34.56153], [147.96375, -34.58431], [147.97375, -34.59681], [147.96292, -34.61069], [147.94625, -34.61403], [147.93847, -34.62542], [147.93069, -34.62236], [147.91986, -34.63819], [147.88903, -34.65375], [147.87431, -34.64986], [147.86319, -34.63014], [147.84486, -34.62125], [147.84125, -34.59486], [147.80542, -34.57708], [147.80958, -34.56403], [147.78931, -34.53792], [147.78431, -34.54431], [147.76958, -34.53347], [147.76069, -34.54042], [147.76069, -34.55319], [147.73792, -34.54958], [147.72514, -34.55819], [147.72819, -34.57181], [147.70514, -34.58319], [147.67708, -34.57903], [147.64958, -34.55625], [147.62069, -34.56375], [147.60042, -34.55569], [147.55819, -34.56847], [147.53264, -34.56014], [147.50347, -34.57625], [147.50458, -34.60819], [147.49347, -34.61625], [147.45403, -34.53875], [147.42847, -34.53403], [147.41319, -34.51931], [147.36431, -34.53931], [147.30847, -34.51597], [147.27569, -34.48125], [147.22903, -34.48208], [147.20347, -34.45347], [147.21069, -34.43792], [147.20653, -34.42736], [147.17875, -34.40764], [147.14792, -34.40958], [147.12347, -34.42236], [147.10569, -34.41597], [147.04597, -34.42792], [147.03597, -34.42069], [147.01736, -34.43708], [147.02014, -34.44875], [147.00847, -34.45403], [147.00847, -34.46569], [146.97792, -34.46486], [146.97653, -34.50653], [146.97069, -34.51597], [146.94097, -34.52347], [146.93958, -34.55403], [146.88764, -34.55264], [146.86958, -34.57069], [146.85764, -34.56486], [146.84069, -34.57431], [146.83208, -34.56208], [146.78458, -34.61014], [146.77597, -34.61042], [146.78264, -34.63653], [146.77292, -34.66236], [146.71264, -34.67347], [146.69042, -34.69931], [146.67042, -34.69875], [146.65319, -34.68792], [146.61375, -34.69653], [146.59431, -34.72486], [146.60403, -34.75069], [146.57486, -34.74625], [146.56264, -34.75875], [146.53569, -34.75097], [146.52597, -34.72986], [146.50736, -34.72347], [146.50819, -34.71097], [146.49292, -34.68625], [146.43931, -34.68208], [146.46542, -34.65542], [146.45042, -34.64931], [146.43514, -34.65736], [146.42097, -34.64625], [146.41292, -34.64986], [146.42208, -34.63653], [146.41708, -34.62792], [146.42264, -34.60653], [146.41292, -34.60097], [146.41486, -34.59292], [146.39292, -34.59958], [146.36264, -34.58958], [146.34764, -34.61264], [146.33958, -34.60236], [146.30625, -34.60875], [146.30264, -34.58764], [146.28514, -34.57986], [146.25125, -34.58514], [146.24458, -34.56319], [146.21569, -34.54736], [146.21069, -34.53042], [146.19042, -34.53681], [146.19736, -34.52292], [146.18236, -34.51708], [146.18153, -34.50653], [146.17319, -34.51375], [146.16181, -34.50903], [146.15792, -34.48125], [146.13736, -34.47681], [146.13375, -34.48236], [146.12569, -34.46042], [146.11042, -34.46069], [146.10708, -34.45181], [146.08736, -34.45486], [146.07347, -34.44347], [146.04264, -34.45097], [146.04597, -34.49208], [146.00792, -34.49764], [145.94986, -34.44181], [145.91931, -34.45208], [145.91625, -34.44125], [145.89708, -34.44208], [145.87764, -34.42736], [145.85597, -34.43208], [145.83542, -34.41764], [145.82486, -34.42264], [145.81875, -34.41292], [145.81014, -34.41986], [145.79125, -34.41792], [145.77458, -34.40847], [145.77625, -34.39958], [145.76681, -34.39292], [145.72542, -34.41014], [145.72236, -34.40431], [145.70792, -34.40708], [145.69069, -34.38792], [145.67847, -34.39597], [145.65847, -34.38736], [145.63819, -34.39819], [145.61986, -34.39403], [145.60569, -34.40625], [145.54875, -34.40875], [145.53375, -34.43097], [145.51708, -34.43903], [145.50264, -34.43181], [145.49708, -34.44208], [145.48681, -34.43736], [145.48153, -34.44819], [145.46569, -34.43736], [145.46903, -34.41819], [145.45736, -34.41431], [145.44958, -34.42403], [145.44042, -34.41042], [145.42708, -34.41375], [145.42042, -34.40069], [145.40653, -34.40014], [145.38181, -34.41514], [145.37125, -34.44597], [145.36097, -34.43792], [145.35958, -34.44986], [145.34403, -34.45931], [145.33542, -34.44986], [145.32347, -34.45681], [145.31847, -34.45236], [145.30764, -34.46931], [145.29653, -34.45625], [145.27708, -34.47292], [145.27319, -34.46542], [145.24986, -34.48792], [145.22319, -34.47569], [145.19958, -34.47931], [145.19264, -34.47014], [145.16431, -34.47903], [145.15403, -34.46764], [145.13597, -34.46764], [145.12792, -34.45958], [145.11653, -34.46153], [145.11486, -34.47625], [145.10958, -34.47014], [145.09431, -34.47319], [145.08431, -34.45708], [145.06903, -34.47042], [145.05597, -34.46597], [145.04847, -34.47597], [145.04597, -34.46625], [145.01597, -34.44681], [145.01431, -34.46403], [144.99708, -34.45792], [144.99486, -34.46708], [144.97625, -34.47375], [144.97292, -34.48903], [144.94958, -34.49458], [144.94264, -34.48569], [144.95708, -34.46653], [144.94847, -34.44819], [144.91403, -34.42569], [144.89181, -34.42264], [144.88792, -34.40514], [144.83014, -34.38958], [144.78514, -34.38986], [144.77403, -34.38069], [144.76319, -34.38681], [144.73458, -34.38264], [144.70986, -34.36542], [144.69069, -34.36264], [144.67514, -34.34292], [144.66069, -34.34625], [144.64542, -34.33153], [144.62514, -34.29375], [144.57042, -34.27292], [144.56347, -34.24431], [144.54486, -34.23653], [144.54181, -34.22653], [144.48319, -34.24097], [144.46292, -34.23042], [144.45319, -34.24403], [144.42736, -34.23681], [144.42764, -34.26403], [144.42042, -34.27181], [144.42292, -34.25319], [144.40847, -34.24736], [144.38236, -34.25069], [144.37681, -34.26125], [144.35708, -34.25819], [144.33486, -34.27958], [144.31597, -34.28042], [144.30375, -34.30514], [144.27097, -34.31403], [144.27264, -34.27819], [144.26014, -34.26042], [144.25514, -34.26736], [144.23264, -34.26431], [144.22903, -34.25292], [144.20875, -34.25514], [144.18625, -34.24653], [144.17597, -34.26264], [144.16458, -34.25847], [144.14181, -34.28764], [144.14319, -34.29819], [144.10736, -34.30681], [144.09958, -34.32986], [144.07403, -34.32319], [144.05097, -34.33375], [144.04736, -34.34819], [144.03153, -34.34097], [144.02319, -34.34875], [144.01014, -34.34347], [143.99514, -34.36486], [143.97931, -34.36347], [143.97625, -34.35569], [143.96764, -34.36153], [143.95153, -34.35625], [143.93042, -34.31181], [143.93514, -34.28708], [143.94625, -34.28069], [143.94292, -34.23792], [143.96819, -34.23125], [143.97819, -34.24347], [144.01347, -34.24264], [144.01681, -34.25264], [144.02819, -34.25458], [144.02958, -34.23764], [144.04125, -34.23875], [144.06292, -34.21236], [144.07958, -34.21319], [144.06958, -34.19264], [144.08431, -34.16931], [144.10125, -34.16542], [144.10014, -34.15736], [144.13681, -34.14875], [144.14208, -34.13903], [144.15681, -34.14597], [144.17069, -34.12708], [144.17042, -34.11486], [144.18847, -34.09569], [144.21819, -34.08875], [144.21264, -34.07014], [144.22681, -34.07153], [144.24236, -34.05764], [144.24931, -34.06125], [144.26069, -34.04792], [144.27819, -34.06125], [144.30014, -34.06375], [144.31847, -34.05375], [144.34208, -34.07847], [144.34958, -34.07708], [144.35875, -34.10125], [144.37764, -34.10264], [144.44903, -34.06514], [144.48903, -34.06625], [144.51653, -34.03958], [144.51542, -34.03014], [144.53375, -34.00819], [144.53181, -33.99681], [144.54264, -33.99736], [144.54764, -33.98708], [144.56625, -33.98847], [144.59042, -33.96042], [144.62042, -33.97069], [144.62069, -33.99097], [144.65847, -33.98264], [144.65681, -34.00097], [144.67986, -34.01375], [144.70375, -33.99514], [144.71653, -33.99792], [144.73125, -33.97431], [144.74431, -33.97514], [144.74736, -33.95792], [144.75792, -33.95736], [144.78625, -33.93403], [144.80153, -33.93569], [144.80347, -33.94514], [144.83069, -33.92958], [144.83569, -33.91625], [144.85792, -33.90042], [144.85986, -33.88292], [144.84986, -33.87653], [144.85375, -33.85847], [144.87014, -33.85625], [144.88097, -33.84319], [144.89542, -33.84736], [144.91931, -33.82625], [144.95181, -33.82347], [144.94153, -33.80069], [144.94764, -33.78014], [144.93875, -33.77097], [144.93736, -33.75236], [144.94569, -33.73875], [144.94125, -33.72875], [144.96514, -33.71181], [144.96903, -33.69569], [144.95931, -33.68403], [144.98486, -33.65069], [144.98431, -33.64069], [145.00458, -33.62264], [145.02042, -33.62375], [145.03236, -33.60292], [145.05236, -33.60514], [145.07597, -33.58931], [145.10708, -33.58375], [145.11264, -33.57153], [145.13236, -33.55986], [145.13042, -33.54764], [145.14486, -33.53153], [145.13819, -33.52764], [145.14958, -33.50569], [145.18875, -33.48792], [145.18847, -33.47042], [145.20236, -33.46486], [145.21208, -33.47514], [145.22986, -33.46431], [145.23264, -33.43931], [145.25347, -33.42681], [145.26097, -33.40347], [145.27931, -33.39236], [145.27792, -33.38514], [145.28319, -33.38819], [145.31514, -33.36764], [145.32153, -33.34931], [145.33458, -33.35792], [145.34125, -33.34542], [145.35458, -33.34681], [145.36403, -33.32736], [145.37569, -33.34069], [145.40042, -33.33875], [145.42958, -33.34764], [145.43542, -33.34236], [145.44514, -33.35069], [145.45681, -33.34403], [145.45847, -33.33264], [145.47875, -33.33736], [145.50681, -33.31042], [145.55347, -33.28792], [145.57708, -33.28764], [145.60236, -33.29514], [145.60347, -33.30264], [145.61569, -33.29819], [145.61819, -33.30458], [145.63708, -33.30514], [145.64653, -33.32708], [145.64931, -33.31653], [145.65597, -33.32264], [145.66625, -33.31653], [145.66931, -33.32458], [145.69597, -33.31653], [145.71153, -33.33208], [145.73264, -33.32736], [145.74458, -33.33931], [145.75764, -33.32542], [145.81569, -33.32292], [145.81792, -33.33181], [145.83931, -33.34181], [145.93847, -33.34069], [145.95125, -33.35014], [145.97236, -33.33014], [145.99097, -33.34069], [145.96236, -33.36653], [145.97264, -33.37569], [146.00875, -33.38264], [146.01458, -33.39292], [146.02681, -33.39097], [146.03014, -33.37764], [146.04042, -33.37514], [146.03542, -33.36542], [146.04681, -33.35014], [146.04347, -33.32375], [146.02931, -33.32014], [146.02653, -33.30764], [146.01458, -33.30319], [146.01597, -33.27875], [146.00542, -33.26986], [146.00264, -33.25097], [145.98042, -33.23403], [145.97458, -33.21236], [145.98847, -33.19125], [145.99847, -33.19514], [146.00708, -33.18903], [146.01125, -33.15458], [146.04347, -33.10875], [146.03875, -33.09208], [146.06125, -33.05625], [146.05347, -33.04708], [146.05542, -33.02208], [146.07486, -33.00569], [146.07764, -32.97736], [146.06736, -32.95292], [146.07708, -32.93819], [146.06236, -32.90875], [146.08264, -32.87347], [146.08792, -32.82847], [146.09597, -32.81208], [146.11208, -32.80264], [146.11375, -32.78819], [146.12653, -32.79042], [146.12486, -32.75819], [146.13625, -32.73597], [146.15569, -32.72847], [146.18069, -32.74486], [146.20708, -32.72903], [146.21681, -32.71069], [146.23708, -32.70819], [146.25514, -32.68569], [146.28653, -32.69236], [146.29653, -32.70458], [146.31792, -32.71153], [146.31792, -32.69486], [146.34014, -32.66236], [146.38097, -32.64236], [146.37931, -32.62125], [146.40931, -32.61097], [146.42181, -32.59708], [146.43181, -32.56625], [146.42375, -32.55319], [146.41042, -32.54986], [146.41458, -32.53319], [146.40458, -32.51764], [146.41236, -32.50347], [146.40208, -32.49958], [146.40292, -32.48181], [146.43347, -32.41875], [146.42819, -32.41264], [146.44569, -32.39708], [146.42736, -32.38931], [146.42486, -32.37431], [146.41375, -32.37819], [146.40431, -32.36597], [146.42375, -32.34014], [146.44236, -32.33514], [146.49375, -32.36819], [146.56653, -32.37236], [146.60375, -32.36597], [146.62208, -32.35403], [146.63764, -32.35597], [146.63958, -32.34653], [146.67597, -32.33292], [146.69042, -32.36625], [146.70819, -32.37181], [146.71819, -32.39264], [146.72875, -32.39347], [146.74819, -32.41792], [146.76597, -32.41625], [146.77958, -32.43819], [146.80403, -32.43597], [146.80347, -32.46125], [146.82681, -32.46819], [146.83069, -32.48875], [146.85819, -32.48792], [146.87653, -32.50125], [146.88292, -32.49431], [146.90319, -32.49792], [146.91569, -32.50847], [146.93181, -32.53681], [146.92125, -32.54819], [146.91097, -32.54514], [146.90931, -32.54792], [146.91653, -32.56542], [146.92958, -32.56986], [146.93514, -32.59375], [146.98931, -32.58847], [147.00292, -32.59514], [147.00514, -32.60514], [147.03153, -32.59819], [147.04681, -32.61153], [147.06903, -32.60097], [147.09542, -32.60375], [147.09736, -32.61042], [147.11431, -32.60542], [147.13847, -32.63042], [147.14653, -32.65097], [147.16347, -32.64597], [147.19014, -32.66264], [147.21431, -32.66069], [147.22958, -32.67875], [147.24236, -32.67236], [147.24264, -32.66097], [147.27042, -32.65403], [147.28736, -32.66875], [147.31903, -32.66708], [147.32042, -32.67903], [147.30903, -32.69042], [147.32458, -32.70958], [147.31236, -32.72236], [147.31792, -32.75347], [147.34542, -32.78347], [147.35736, -32.78236], [147.37931, -32.79875], [147.38625, -32.82014], [147.41597, -32.82514], [147.43125, -32.81097], [147.46764, -32.80319], [147.48514, -32.82208], [147.49819, -32.82403], [147.52986, -32.81153], [147.55292, -32.81514], [147.56403, -32.81181], [147.56236, -32.79514], [147.57125, -32.77792], [147.60375, -32.77625], [147.60986, -32.78264], [147.62208, -32.76986], [147.65458, -32.77097], [147.67653, -32.78819], [147.68792, -32.77403], [147.70847, -32.78042], [147.70542, -32.79236], [147.71125, -32.79486], [147.72347, -32.78986], [147.72736, -32.79764], [147.74236, -32.79042], [147.77042, -32.79569], [147.78042, -32.84319], [147.79847, -32.86569], [147.82181, -32.86653], [147.84042, -32.87875], [147.85542, -32.87597], [147.85819, -32.89542], [147.86736, -32.89931], [147.86431, -32.90736], [147.88875, -32.90875], [147.89181, -32.91875], [147.93181, -32.93403], [147.94458, -32.96403], [147.99819, -32.97153], [148.00792, -32.98653], [148.00431, -33.00819], [148.02375, -33.00542], [148.02458, -33.01236], [148.04375, -33.01931], [148.05403, -33.01903]]]}}]}