{"type": "FeatureCollection", "features": [{"type": "Feature", "properties": {"label": "Fitzroy (Qld)", "division": "North East Coast", "area_ha": 14258462, "carbon": true, "water_scheme": "Reef Credits", "water_status": "Live market. Methods active, credits issued and retired.", "instruments": "Soil carbon + Reef Credits", "popup": "Fitzroy (Qld) \u00b7 Soil carbon + Reef Credits"}, "geometry": {"type": "Polygon", "coordinates": [[[149.193, -21.501], [149.208, -21.777], [149.29, -21.804], [149.27, -21.921], [149.429, -22.077], [149.314, -22.349], [149.388, -22.469], [149.44, -22.839], [149.64, -22.89], [149.755, -22.767], [149.935, -22.706], [150.213, -22.991], [150.284, -22.885], [150.378, -22.865], [150.379, -22.755], [150.468, -22.795], [150.581, -22.732], [150.58, -22.861], [150.698, -22.955], [150.733, -23.104], [150.668, -23.265], [150.698, -23.4], [150.752, -23.472], [150.812, -23.409], [150.87, -23.478], [150.659, -23.486], [150.633, -23.519], [150.705, -23.508], [150.7, -23.625], [150.854, -23.568], [150.857, -23.616], [150.838, -23.606], [150.832, -23.592], [150.824, -23.589], [150.816, -23.595], [150.82, -23.612], [150.8, -23.608], [150.795, -23.612], [150.796, -23.619], [150.82, -23.614], [150.83, -23.593], [150.819, -23.635], [150.819, -23.637], [150.825, -23.642], [150.832, -23.642], [150.835, -23.639], [150.837, -23.64], [150.839, -23.655], [150.837, -23.638], [150.82, -23.637], [150.825, -23.615], [150.862, -23.617], [150.872, -23.58], [150.93, -23.679], [150.979, -23.556], [151.006, -23.68], [151.005, -23.804], [150.891, -23.857], [150.85, -23.97], [150.685, -23.95], [150.719, -24.138], [151.037, -24.385], [150.974, -24.578], [150.874, -24.721], [150.599, -24.725], [150.603, -24.876], [150.535, -24.969], [150.561, -25.154], [150.472, -25.192], [150.369, -25.479], [150.456, -25.651], [150.371, -25.813], [150.413, -25.893], [150.306, -25.997], [150.34, -26.149], [150.19, -26.131], [150.198, -26.304], [150.12, -26.298], [149.959, -26.426], [149.415, -26.274], [149.0, -26.308], [148.988, -26.241], [148.793, -26.175], [148.675, -26.022], [148.385, -26.001], [148.245, -26.059], [148.26, -25.765], [148.403, -25.442], [148.387, -25.28], [148.09, -25.011], [148.058, -24.914], [147.737, -24.728], [147.487, -24.88], [147.321, -24.87], [147.233, -24.988], [147.137, -24.957], [146.999, -25.038], [146.871, -24.862], [146.934, -24.675], [146.865, -24.585], [146.763, -24.664], [146.666, -24.613], [146.573, -24.415], [146.689, -24.376], [146.794, -24.417], [146.915, -24.323], [146.957, -24.164], [147.184, -24.084], [147.162, -23.976], [147.242, -23.904], [147.197, -23.61], [147.282, -23.523], [147.258, -23.191], [147.392, -22.96], [147.427, -22.652], [147.629, -22.628], [147.71, -22.523], [147.945, -22.552], [148.064, -22.463], [148.05, -22.38], [147.93, -22.326], [147.767, -21.951], [147.867, -21.831], [147.814, -21.776], [148.067, -21.544], [148.076, -21.456], [148.403, -21.382], [148.47, -21.273], [148.547, -21.37], [148.711, -21.347], [148.901, -21.472], [148.91, -21.381], [149.033, -21.354], [149.087, -21.49], [149.193, -21.501]]]}}, {"type": "Feature", "properties": {"label": "Burdekin", "division": "North East Coast", "area_ha": 13105890, "carbon": true, "water_scheme": "Reef Credits", "water_status": "Live market. Methods active, credits issued and retired.", "instruments": "Soil carbon + Reef Credits", "popup": "Burdekin \u00b7 Soil carbon + Reef Credits"}, "geometry": {"type": "Polygon", "coordinates": [[[145.964, -18.879], [146.188, -18.941], [146.167, -19.014], [146.394, -19.148], [146.411, -19.29], [146.577, -19.462], [146.557, -19.679], [146.498, -19.697], [146.591, -19.741], [146.643, -19.911], [146.873, -19.917], [146.942, -19.988], [147.167, -19.937], [147.366, -19.588], [147.54, -19.517], [147.574, -19.6], [147.549, -19.587], [147.514, -19.594], [147.588, -19.653], [147.523, -19.665], [147.506, -19.649], [147.485, -19.649], [147.686, -19.844], [147.574, -20.051], [147.68, -20.129], [147.829, -20.126], [147.903, -20.269], [148.031, -20.321], [148.002, -20.425], [148.097, -20.566], [148.141, -20.522], [148.286, -20.568], [148.642, -20.955], [148.638, -21.025], [148.487, -21.135], [148.569, -21.177], [148.533, -21.333], [148.47, -21.273], [148.4, -21.383], [148.078, -21.453], [148.067, -21.544], [147.814, -21.776], [147.872, -21.807], [147.779, -21.887], [147.78, -22.033], [148.064, -22.462], [147.945, -22.552], [147.71, -22.523], [147.629, -22.628], [147.422, -22.659], [147.392, -22.96], [147.258, -23.191], [147.282, -23.523], [147.197, -23.61], [147.24, -23.807], [147.242, -23.904], [147.162, -23.976], [147.202, -24.038], [146.956, -24.164], [146.914, -24.324], [146.731, -24.428], [146.688, -24.376], [146.551, -24.439], [146.362, -24.262], [146.445, -23.929], [146.398, -23.75], [146.256, -23.63], [146.287, -23.467], [146.183, -23.375], [146.231, -23.293], [146.134, -23.253], [146.203, -23.152], [146.099, -22.977], [146.046, -22.646], [146.117, -22.427], [146.087, -22.172], [145.982, -22.058], [145.725, -22.103], [145.593, -21.967], [145.602, -21.878], [145.725, -21.833], [145.857, -21.909], [145.98, -21.894], [146.098, -21.76], [146.088, -21.495], [145.733, -21.161], [145.582, -21.3], [145.625, -21.393], [145.582, -21.503], [145.447, -21.336], [145.374, -21.344], [145.269, -21.191], [145.353, -20.951], [145.215, -20.858], [145.094, -20.645], [145.113, -20.423], [144.974, -20.369], [144.942, -20.24], [144.793, -20.143], [144.777, -19.923], [144.43, -19.976], [144.321, -19.907], [144.235, -19.707], [144.251, -19.587], [144.358, -19.584], [144.532, -19.386], [144.589, -19.398], [144.768, -19.144], [144.708, -18.913], [144.567, -18.861], [144.667, -18.62], [144.66, -18.456], [144.914, -18.181], [145.102, -18.145], [145.285, -18.319], [145.627, -18.374], [145.715, -18.48], [145.738, -18.716], [145.964, -18.879]]]}}, {"type": "Feature", "properties": {"label": "Burnett", "division": "North East Coast", "area_ha": 3322926, "carbon": true, "water_scheme": "Reef Credits", "water_status": "Live market. Methods active, credits issued and retired.", "instruments": "Soil carbon + Reef Credits", "popup": "Burnett \u00b7 Soil carbon + Reef Credits"}, "geometry": {"type": "Polygon", "coordinates": [[[151.874, -25.081], [152.199, -24.821], [152.359, -24.797], [152.346, -24.733], [152.417, -24.772], [152.427, -24.872], [152.223, -24.962], [152.07, -25.214], [152.179, -25.529], [151.98, -25.731], [152.046, -25.878], [152.169, -25.882], [152.206, -25.955], [152.205, -26.025], [152.094, -26.096], [152.139, -26.258], [152.242, -26.308], [152.309, -26.268], [152.423, -26.365], [152.37, -26.463], [152.214, -26.513], [152.138, -26.477], [152.132, -26.638], [151.82, -26.929], [151.701, -26.939], [151.421, -26.746], [151.405, -26.647], [151.204, -26.503], [151.235, -26.389], [151.115, -26.336], [151.049, -26.177], [150.927, -26.168], [150.878, -26.265], [150.817, -26.22], [150.613, -26.279], [150.322, -26.183], [150.306, -25.997], [150.413, -25.893], [150.372, -25.813], [150.456, -25.651], [150.369, -25.479], [150.472, -25.192], [150.561, -25.154], [150.569, -24.782], [150.652, -24.691], [150.874, -24.721], [151.006, -24.394], [151.169, -24.479], [151.195, -24.642], [151.337, -24.646], [151.436, -24.837], [151.55, -24.836], [151.559, -25.102], [151.704, -25.092], [151.713, -25.159], [151.789, -25.067], [151.874, -25.081]]]}}, {"type": "Feature", "properties": {"label": "Normanby", "division": "North East Coast", "area_ha": 2438657, "carbon": false, "water_scheme": "Reef Credits", "water_status": "Live market. Methods active, credits issued and retired.", "instruments": "Reef Credits", "popup": "Normanby \u00b7 Reef Credits"}, "geometry": {"type": "Polygon", "coordinates": [[[144.377, -14.395], [144.485, -14.507], [144.471, -14.63], [144.719, -14.74], [144.742, -14.904], [144.852, -14.871], [145.022, -14.942], [144.94, -15.119], [145.058, -15.204], [144.899, -15.463], [144.974, -15.587], [145.167, -15.64], [145.137, -15.804], [145.256, -15.88], [145.07, -15.968], [145.042, -16.162], [144.929, -16.166], [144.814, -15.962], [144.651, -15.852], [144.363, -15.947], [144.219, -15.846], [144.096, -15.886], [143.871, -15.825], [143.814, -15.75], [143.845, -15.685], [143.627, -15.55], [143.538, -15.334], [143.483, -15.354], [143.408, -15.22], [143.302, -15.182], [143.363, -14.963], [143.461, -14.907], [143.391, -14.786], [143.483, -14.59], [143.407, -14.482], [143.467, -14.386], [143.709, -14.439], [143.742, -14.326], [143.941, -14.511], [144.143, -14.409], [144.202, -14.26], [144.28, -14.422], [144.377, -14.395]]]}}, {"type": "Feature", "properties": {"label": "Herbert", "division": "North East Coast", "area_ha": 996471, "carbon": false, "water_scheme": "Reef Credits", "water_status": "Live market. Methods active, credits issued and retired.", "instruments": "Reef Credits", "popup": "Herbert \u00b7 Reef Credits"}, "geometry": {"type": "Polygon", "coordinates": [[[145.517, -17.886], [145.836, -18.318], [145.966, -18.301], [146.12, -18.508], [146.34, -18.526], [146.285, -18.947], [146.021, -18.918], [145.83, -18.817], [145.738, -18.716], [145.715, -18.48], [145.6, -18.358], [145.492, -18.388], [145.435, -18.309], [145.285, -18.319], [145.102, -18.145], [144.816, -18.241], [144.871, -17.887], [144.994, -17.606], [145.224, -17.528], [145.26, -17.411], [145.414, -17.327], [145.48, -17.488], [145.543, -17.503], [145.517, -17.886]]]}}, {"type": "Feature", "properties": {"label": "Mary (Qld)", "division": "North East Coast", "area_ha": 943078, "carbon": true, "water_scheme": "Reef Credits", "water_status": "Live market. Methods active, credits issued and retired.", "instruments": "Soil carbon + Reef Credits", "popup": "Mary (Qld) \u00b7 Soil carbon + Reef Credits"}, "geometry": {"type": "Polygon", "coordinates": [[[152.976, -26.154], [152.836, -26.276], [152.998, -26.418], [152.876, -26.467], [152.887, -26.775], [152.684, -26.842], [152.666, -26.772], [152.571, -26.71], [152.502, -26.759], [152.352, -26.6], [152.42, -26.347], [152.309, -26.268], [152.242, -26.308], [152.139, -26.258], [152.094, -26.096], [152.205, -26.025], [152.206, -25.955], [152.169, -25.882], [152.044, -25.875], [151.981, -25.713], [152.224, -25.489], [152.273, -25.483], [152.308, -25.588], [152.427, -25.566], [152.753, -25.287], [152.835, -25.311], [152.925, -25.431], [152.895, -25.409], [152.853, -25.408], [152.91, -25.429], [152.73, -25.589], [152.801, -25.84], [152.972, -25.997], [152.864, -26.021], [152.976, -26.154]]]}}, {"type": "Feature", "properties": {"label": "Haughton", "division": "North East Coast", "area_ha": 421607, "carbon": false, "water_scheme": "Reef Credits", "water_status": "Live market. Methods active, credits issued and retired.", "instruments": "Reef Credits", "popup": "Haughton \u00b7 Reef Credits"}, "geometry": {"type": "Polygon", "coordinates": [[[147.21, -19.916], [146.942, -19.988], [146.873, -19.917], [146.643, -19.911], [146.591, -19.741], [146.498, -19.697], [146.557, -19.679], [146.586, -19.51], [146.78, -19.698], [146.943, -19.49], [146.88, -19.347], [147.015, -19.182], [147.126, -19.461], [147.135, -19.407], [147.253, -19.454], [147.44, -19.421], [147.455, -19.389], [147.42, -19.322], [147.406, -19.313], [147.407, -19.311], [147.427, -19.325], [147.448, -19.356], [147.543, -19.54], [147.367, -19.588], [147.237, -19.762], [147.21, -19.916]]]}}, {"type": "Feature", "properties": {"label": "Baffle Creek", "division": "North East Coast", "area_ha": 410196, "carbon": false, "water_scheme": "Reef Credits", "water_status": "Live market. Methods active, credits issued and retired.", "instruments": "Reef Credits", "popup": "Baffle Creek \u00b7 Reef Credits"}, "geometry": {"type": "Polygon", "coordinates": [[[151.568, -24.711], [151.5, -24.493], [151.427, -24.461], [151.459, -24.35], [151.363, -24.194], [151.45, -24.138], [151.355, -23.991], [151.362, -23.932], [151.446, -24.09], [151.443, -24.026], [151.563, -24.112], [151.565, -24.036], [151.681, -24.105], [151.626, -23.973], [151.729, -24.023], [151.715, -24.085], [151.74, -24.002], [151.765, -24.015], [151.753, -24.123], [151.855, -24.206], [151.888, -24.149], [152.026, -24.531], [152.156, -24.681], [152.0, -24.8], [151.955, -24.702], [151.842, -24.792], [151.731, -24.647], [151.568, -24.711]]]}}]}