{"type": "FeatureCollection", "features": [{"type": "Feature", "properties": {"label": "Condamine-Culgoa", "division": "Murray-Darling Basin", "area_ha": 16795509, "carbon": true, "water_scheme": "ACWIS", "water_status": "Grazing method live at v1.0. No issuance or price history yet. AgriProve assessment, not a published scheme boundary.", "instruments": "Soil carbon + ACWIS", "popup": "Condamine-Culgoa \u00b7 Soil carbon + ACWIS"}, "geometry": {"type": "Polygon", "coordinates": [[[148.403, -25.438], [148.245, -26.059], [148.385, -26.001], [148.675, -26.022], [148.793, -26.175], [148.988, -26.241], [149.001, -26.308], [149.415, -26.274], [149.959, -26.426], [150.12, -26.298], [150.198, -26.304], [150.202, -26.124], [150.613, -26.279], [150.817, -26.22], [150.878, -26.265], [150.927, -26.168], [151.049, -26.177], [151.115, -26.336], [151.235, -26.389], [151.212, -26.514], [151.405, -26.647], [151.421, -26.746], [151.52, -26.767], [151.904, -27.247], [152.066, -27.321], [151.938, -27.475], [151.994, -27.763], [152.143, -27.824], [152.223, -27.948], [152.382, -27.966], [152.487, -28.254], [152.218, -28.449], [152.015, -28.53], [151.859, -28.518], [151.701, -28.388], [151.693, -28.309], [151.509, -28.259], [151.446, -28.105], [151.211, -27.985], [151.075, -27.763], [151.09, -27.592], [150.844, -27.542], [150.798, -27.427], [150.847, -27.337], [150.788, -27.271], [150.576, -27.323], [150.226, -27.542], [150.153, -27.498], [149.703, -27.522], [149.477, -27.403], [149.318, -27.392], [149.179, -27.639], [149.09, -27.689], [148.968, -27.66], [148.789, -27.872], [148.715, -27.86], [148.669, -27.99], [148.773, -28.305], [148.712, -28.49], [148.834, -28.653], [148.822, -28.73], [148.727, -28.755], [148.805, -28.83], [148.598, -29.077], [148.597, -29.378], [148.505, -29.445], [148.505, -29.553], [148.369, -29.65], [148.352, -29.762], [148.193, -29.821], [148.08, -30.073], [147.991, -30.032], [147.864, -30.094], [147.757, -30.06], [147.639, -30.143], [147.375, -30.145], [146.96, -30.014], [146.83, -30.043], [146.707, -29.934], [146.527, -30.01], [146.27, -29.938], [146.023, -29.981], [145.925, -29.825], [146.018, -29.725], [145.878, -29.547], [145.868, -29.037], [145.922, -28.962], [145.749, -28.288], [145.868, -27.859], [145.834, -27.617], [146.021, -27.267], [145.978, -27.155], [146.039, -27.127], [145.998, -27.09], [146.055, -26.934], [146.194, -26.854], [146.23, -26.742], [146.558, -26.785], [146.713, -26.639], [147.047, -26.653], [147.125, -26.504], [147.293, -26.426], [147.315, -26.301], [147.458, -26.13], [147.458, -25.99], [147.269, -25.907], [147.244, -25.761], [147.472, -25.553], [147.493, -25.377], [147.741, -25.201], [147.742, -25.032], [147.955, -24.879], [148.058, -24.914], [148.16, -25.085], [148.36, -25.234], [148.403, -25.438]]]}}, {"type": "Feature", "properties": {"label": "Lachlan", "division": "Murray-Darling Basin", "area_ha": 7705123, "carbon": true, "water_scheme": "ACWIS", "water_status": "Grazing method live at v1.0. No issuance or price history yet. AgriProve assessment, not a published scheme boundary.", "instruments": "Soil carbon + ACWIS", "popup": "Lachlan \u00b7 Soil carbon + ACWIS"}, "geometry": {"type": "Polygon", "coordinates": [[[148.056, -33.011], [148.4, -32.959], [148.58, -33.067], [148.815, -33.033], [148.828, -33.17], [148.967, -33.213], [148.982, -33.361], [149.139, -33.385], [149.208, -33.459], [149.29, -33.412], [149.363, -33.451], [149.295, -33.586], [149.439, -33.71], [149.489, -33.87], [149.832, -33.921], [149.963, -34.101], [149.938, -34.269], [149.814, -34.314], [149.75, -34.449], [149.61, -34.483], [149.558, -34.432], [149.407, -34.626], [149.418, -34.698], [149.59, -34.777], [149.577, -34.97], [149.523, -34.973], [149.472, -34.797], [149.338, -34.945], [149.268, -34.88], [149.107, -34.882], [148.937, -34.703], [148.782, -34.726], [148.625, -34.474], [148.453, -34.362], [148.221, -34.394], [148.119, -34.525], [148.043, -34.512], [147.889, -34.654], [147.789, -34.538], [147.533, -34.56], [147.493, -34.616], [147.454, -34.539], [147.229, -34.482], [147.179, -34.408], [147.036, -34.421], [146.94, -34.554], [146.832, -34.562], [146.773, -34.662], [146.563, -34.759], [146.439, -34.682], [146.415, -34.593], [146.251, -34.585], [146.073, -34.443], [146.008, -34.498], [145.658, -34.387], [144.95, -34.495], [144.888, -34.405], [144.691, -34.363], [144.542, -34.227], [144.271, -34.314], [144.186, -34.247], [143.995, -34.365], [143.93, -34.312], [143.943, -34.238], [144.028, -34.255], [144.261, -34.048], [144.378, -34.103], [144.59, -33.96], [144.68, -34.014], [144.831, -33.93], [144.952, -33.823], [144.984, -33.641], [145.364, -33.327], [145.577, -33.288], [145.972, -33.33], [146.027, -33.391], [145.975, -33.212], [146.088, -32.828], [146.136, -32.736], [146.318, -32.712], [146.422, -32.597], [146.424, -32.34], [146.676, -32.333], [146.916, -32.508], [146.935, -32.594], [147.319, -32.667], [147.386, -32.82], [147.77, -32.796], [148.056, -33.011]]]}}, {"type": "Feature", "properties": {"label": "Macquarie-Bogan", "division": "Murray-Darling Basin", "area_ha": 7342722, "carbon": true, "water_scheme": "ACWIS", "water_status": "Grazing method live at v1.0. No issuance or price history yet. AgriProve assessment, not a published scheme boundary.", "instruments": "Soil carbon + ACWIS", "popup": "Macquarie-Bogan \u00b7 Soil carbon + ACWIS"}, "geometry": {"type": "Polygon", "coordinates": [[[146.984, -30.025], [147.23, -30.137], [147.515, -30.11], [147.592, -30.14], [147.525, -30.205], [147.594, -30.231], [147.642, -30.176], [147.707, -30.246], [147.765, -30.203], [147.904, -30.282], [147.823, -30.364], [147.893, -30.628], [147.811, -30.655], [147.806, -30.802], [148.075, -30.992], [148.119, -31.16], [148.241, -31.208], [148.544, -31.508], [148.862, -32.057], [149.103, -31.946], [149.643, -31.848], [149.842, -31.679], [150.128, -31.766], [149.753, -32.097], [149.672, -32.252], [149.704, -32.377], [149.883, -32.446], [149.876, -32.533], [150.093, -32.716], [150.241, -32.719], [150.219, -32.761], [150.363, -32.845], [150.28, -32.92], [150.001, -32.888], [149.931, -32.976], [149.963, -33.128], [150.109, -33.244], [149.947, -33.405], [150.036, -33.45], [150.064, -33.679], [149.918, -33.905], [149.489, -33.87], [149.439, -33.71], [149.295, -33.586], [149.363, -33.451], [149.29, -33.412], [149.208, -33.459], [149.139, -33.385], [148.982, -33.361], [148.967, -33.213], [148.828, -33.17], [148.812, -33.032], [148.58, -33.067], [148.4, -32.959], [148.004, -33.008], [147.77, -32.796], [147.396, -32.824], [147.319, -32.667], [146.935, -32.594], [146.916, -32.508], [146.676, -32.333], [146.462, -32.346], [146.385, -32.045], [146.28, -31.905], [146.36, -31.87], [146.335, -31.774], [146.512, -31.586], [146.453, -31.529], [146.501, -31.392], [146.712, -31.386], [146.69, -31.122], [146.755, -30.887], [146.688, -30.666], [146.534, -30.621], [146.513, -30.547], [146.588, -30.498], [146.545, -30.411], [146.388, -30.338], [146.427, -30.147], [146.323, -29.993], [146.449, -29.95], [146.527, -30.01], [146.707, -29.934], [146.83, -30.043], [146.984, -30.025]]]}}, {"type": "Feature", "properties": {"label": "Border Rivers", "division": "Murray-Darling Basin", "area_ha": 4862583, "carbon": true, "water_scheme": "ACWIS", "water_status": "Grazing method live at v1.0. No issuance or price history yet. AgriProve assessment, not a published scheme boundary.", "instruments": "Soil carbon + ACWIS", "popup": "Border Rivers \u00b7 Soil carbon + ACWIS"}, "geometry": {"type": "Polygon", "coordinates": [[[150.878, -27.549], [151.09, -27.592], [151.075, -27.763], [151.211, -27.985], [151.446, -28.105], [151.509, -28.259], [151.693, -28.309], [151.701, -28.388], [151.859, -28.518], [151.952, -28.507], [152.077, -28.708], [152.016, -28.9], [152.085, -28.944], [152.058, -29.131], [152.119, -29.252], [152.003, -29.399], [152.063, -29.517], [151.976, -29.651], [151.833, -29.694], [151.67, -29.98], [151.596, -29.941], [151.457, -29.998], [151.096, -29.882], [151.062, -29.768], [150.952, -29.69], [150.97, -29.553], [150.792, -29.498], [150.705, -29.387], [150.442, -29.338], [149.902, -29.418], [149.459, -29.129], [149.253, -29.143], [149.173, -29.087], [149.072, -29.167], [148.83, -29.169], [148.798, -29.248], [148.706, -29.29], [148.661, -29.082], [148.752, -29.03], [148.793, -28.905], [148.88, -28.89], [148.879, -28.825], [149.025, -28.775], [149.087, -28.593], [149.22, -28.53], [149.234, -28.387], [149.414, -28.314], [149.546, -28.13], [149.85, -28.115], [149.922, -27.998], [150.107, -28.032], [150.565, -27.591], [150.878, -27.549]]]}}, {"type": "Feature", "properties": {"label": "Murrumbidgee", "division": "Murray-Darling Basin", "area_ha": 4737598, "carbon": true, "water_scheme": "ACWIS", "water_status": "Grazing method live at v1.0. No issuance or price history yet. AgriProve assessment, not a published scheme boundary.", "instruments": "Soil carbon + ACWIS", "popup": "Murrumbidgee \u00b7 Soil carbon + ACWIS"}, "geometry": {"type": "Polygon", "coordinates": [[[144.563, -34.245], [144.691, -34.363], [144.888, -34.405], [144.95, -34.495], [145.658, -34.387], [146.008, -34.498], [146.107, -34.452], [146.251, -34.585], [146.415, -34.593], [146.439, -34.682], [146.563, -34.759], [146.773, -34.662], [146.832, -34.562], [146.94, -34.554], [147.036, -34.421], [147.179, -34.408], [147.229, -34.482], [147.454, -34.539], [147.493, -34.616], [147.533, -34.56], [147.789, -34.538], [147.889, -34.654], [148.043, -34.512], [148.119, -34.525], [148.221, -34.394], [148.453, -34.362], [148.625, -34.474], [148.782, -34.726], [148.937, -34.703], [149.122, -34.889], [149.268, -34.88], [149.353, -34.944], [149.375, -34.876], [149.492, -34.804], [149.576, -35.03], [149.484, -35.838], [149.569, -36.087], [149.416, -36.273], [149.513, -36.417], [149.402, -36.55], [149.049, -36.405], [148.855, -36.223], [148.823, -36.079], [148.65, -35.974], [148.643, -35.897], [148.504, -35.776], [148.438, -35.899], [148.559, -36.0], [148.566, -36.095], [148.372, -36.158], [148.35, -35.916], [148.131, -35.598], [147.995, -35.747], [147.892, -35.632], [147.671, -35.691], [147.641, -35.547], [147.522, -35.482], [147.392, -35.563], [147.232, -35.47], [147.17, -35.557], [146.903, -35.555], [146.811, -35.465], [146.843, -35.155], [146.625, -34.964], [146.488, -34.951], [146.52, -34.752], [146.323, -34.641], [146.042, -34.683], [145.701, -34.594], [145.65, -34.689], [145.276, -34.61], [144.941, -34.755], [144.791, -34.705], [144.718, -34.742], [144.716, -34.817], [144.538, -34.791], [143.983, -34.96], [143.893, -34.928], [143.833, -35.005], [143.573, -34.963], [143.481, -34.78], [143.387, -34.812], [143.19, -34.689], [143.42, -34.627], [143.443, -34.666], [143.591, -34.551], [143.668, -34.348], [143.796, -34.361], [143.902, -34.262], [143.995, -34.365], [144.186, -34.247], [144.271, -34.314], [144.563, -34.245]]]}}, {"type": "Feature", "properties": {"label": "Namoi", "division": "Murray-Darling Basin", "area_ha": 3937612, "carbon": true, "water_scheme": "ACWIS", "water_status": "Grazing method live at v1.0. No issuance or price history yet. AgriProve assessment, not a published scheme boundary.", "instruments": "Soil carbon + ACWIS", "popup": "Namoi \u00b7 Soil carbon + ACWIS"}, "geometry": {"type": "Polygon", "coordinates": [[[148.41, -29.823], [148.908, -29.894], [148.966, -29.957], [149.162, -29.941], [149.247, -30.048], [149.647, -30.196], [150.074, -30.105], [150.29, -30.371], [150.46, -30.253], [150.541, -30.316], [150.72, -30.295], [150.925, -30.183], [150.976, -30.267], [150.947, -30.423], [151.027, -30.412], [151.067, -30.563], [151.248, -30.725], [151.375, -30.723], [151.366, -30.82], [151.461, -30.9], [151.44, -31.002], [151.55, -31.019], [151.553, -31.13], [151.673, -31.247], [151.656, -31.333], [151.413, -31.384], [151.355, -31.49], [151.247, -31.461], [151.168, -31.621], [150.998, -31.603], [150.724, -31.838], [150.293, -31.849], [149.883, -31.697], [149.813, -31.584], [149.673, -31.558], [149.522, -31.235], [149.362, -31.195], [149.029, -31.261], [149.069, -30.947], [148.568, -30.498], [148.382, -30.16], [148.098, -30.027], [148.316, -29.947], [148.41, -29.823]]]}}, {"type": "Feature", "properties": {"label": "Gwydir", "division": "Murray-Darling Basin", "area_ha": 2722429, "carbon": true, "water_scheme": "ACWIS", "water_status": "Grazing method live at v1.0. No issuance or price history yet. AgriProve assessment, not a published scheme boundary.", "instruments": "Soil carbon + ACWIS", "popup": "Gwydir \u00b7 Soil carbon + ACWIS"}, "geometry": {"type": "Polygon", "coordinates": [[[149.902, -29.418], [150.705, -29.387], [150.792, -29.498], [150.97, -29.553], [150.952, -29.69], [151.062, -29.768], [151.096, -29.882], [151.457, -29.998], [151.596, -29.941], [151.667, -29.981], [151.694, -30.302], [151.517, -30.405], [151.534, -30.646], [151.428, -30.824], [151.366, -30.82], [151.37, -30.718], [151.248, -30.725], [151.067, -30.563], [151.027, -30.412], [150.947, -30.423], [150.976, -30.267], [150.925, -30.183], [150.72, -30.295], [150.541, -30.316], [150.46, -30.253], [150.29, -30.371], [150.074, -30.105], [149.647, -30.196], [149.247, -30.048], [149.162, -29.941], [148.966, -29.957], [148.815, -29.872], [148.41, -29.823], [148.315, -29.948], [148.093, -29.988], [148.193, -29.82], [148.367, -29.744], [148.369, -29.65], [148.487, -29.58], [148.589, -29.34], [148.692, -29.329], [148.886, -29.151], [149.072, -29.167], [149.173, -29.087], [149.253, -29.143], [149.459, -29.129], [149.902, -29.418]]]}}, {"type": "Feature", "properties": {"label": "Castlereagh", "division": "Murray-Darling Basin", "area_ha": 1895328, "carbon": true, "water_scheme": "ACWIS", "water_status": "Grazing method live at v1.0. No issuance or price history yet. AgriProve assessment, not a published scheme boundary.", "instruments": "Soil carbon + ACWIS", "popup": "Castlereagh \u00b7 Soil carbon + ACWIS"}, "geometry": {"type": "Polygon", "coordinates": [[[148.387, -30.185], [148.576, -30.508], [149.069, -30.947], [149.029, -31.261], [149.362, -31.195], [149.522, -31.235], [149.673, -31.558], [149.813, -31.584], [149.864, -31.681], [149.643, -31.848], [149.103, -31.946], [148.862, -32.057], [148.544, -31.508], [148.241, -31.208], [148.119, -31.16], [148.075, -30.992], [147.806, -30.802], [147.811, -30.655], [147.893, -30.628], [147.823, -30.364], [147.904, -30.282], [147.765, -30.203], [147.713, -30.247], [147.642, -30.176], [147.594, -30.231], [147.517, -30.198], [147.757, -30.06], [147.864, -30.094], [148.142, -30.023], [148.387, -30.185]]]}}, {"type": "Feature", "properties": {"label": "Murray Riverina", "division": "Murray-Darling Basin", "area_ha": 1893369, "carbon": true, "water_scheme": "ACWIS", "water_status": "Grazing method live at v1.0. No issuance or price history yet. AgriProve assessment, not a published scheme boundary.", "instruments": "Soil carbon + ACWIS", "popup": "Murray Riverina \u00b7 Soil carbon + ACWIS"}, "geometry": {"type": "Polygon", "coordinates": [[[143.573, -34.963], [143.979, -35.056], [144.085, -35.024], [144.033, -35.095], [144.169, -35.158], [144.333, -35.09], [144.45, -35.161], [144.635, -35.138], [144.945, -35.36], [145.142, -35.355], [145.41, -35.583], [145.824, -35.676], [145.794, -35.808], [146.026, -35.763], [146.193, -35.88], [146.339, -35.813], [146.477, -35.891], [146.582, -35.78], [146.701, -35.766], [146.85, -36.01], [147.0, -35.965], [147.045, -36.09], [146.824, -36.199], [146.844, -36.272], [146.513, -36.233], [146.417, -36.321], [146.338, -36.296], [146.178, -36.033], [146.133, -36.115], [145.887, -35.982], [145.634, -35.994], [145.268, -35.854], [144.955, -35.962], [144.979, -36.089], [144.871, -36.063], [144.755, -36.156], [144.581, -36.03], [144.552, -36.093], [144.23, -35.88], [144.254, -35.811], [143.955, -35.627], [143.813, -35.436], [143.636, -35.414], [143.561, -35.342], [143.557, -35.407], [143.472, -35.483], [143.43, -35.331], [143.365, -35.341], [143.281, -35.228], [143.268, -34.841], [143.226, -34.807], [143.138, -34.87], [143.104, -34.792], [143.248, -34.712], [143.387, -34.812], [143.481, -34.78], [143.573, -34.963]]]}}, {"type": "Feature", "properties": {"label": "Goulburn", "division": "Murray-Darling Basin", "area_ha": 1710458, "carbon": true, "water_scheme": "ACWIS", "water_status": "Grazing method live at v1.0. No issuance or price history yet. AgriProve assessment, not a published scheme boundary.", "instruments": "Soil carbon + ACWIS", "popup": "Goulburn \u00b7 Soil carbon + ACWIS"}, "geometry": {"type": "Polygon", "coordinates": [[[145.266, -36.068], [145.445, -36.363], [145.44, -36.413], [145.368, -36.398], [145.392, -36.436], [145.519, -36.473], [145.641, -36.423], [145.877, -36.553], [145.8, -36.785], [145.964, -36.967], [146.235, -37.055], [146.303, -37.018], [146.655, -37.168], [146.573, -37.285], [146.427, -37.341], [146.389, -37.461], [146.503, -37.559], [146.462, -37.618], [146.19, -37.576], [146.055, -37.665], [145.959, -37.554], [145.825, -37.527], [145.736, -37.568], [145.768, -37.662], [145.737, -37.678], [145.622, -37.571], [145.343, -37.535], [145.085, -37.371], [144.842, -37.312], [144.824, -37.225], [144.657, -37.206], [144.71, -37.103], [144.743, -37.135], [144.828, -37.063], [144.75, -36.874], [144.659, -36.822], [144.724, -36.78], [144.753, -36.611], [144.704, -36.347], [144.778, -36.282], [144.76, -36.137], [144.871, -36.063], [144.979, -36.089], [145.005, -36.016], [145.266, -36.068]]]}}, {"type": "Feature", "properties": {"label": "Loddon", "division": "Murray-Darling Basin", "area_ha": 1575027, "carbon": true, "water_scheme": "ACWIS", "water_status": "Grazing method live at v1.0. No issuance or price history yet. AgriProve assessment, not a published scheme boundary.", "instruments": "Soil carbon + ACWIS", "popup": "Loddon \u00b7 Soil carbon + ACWIS"}, "geometry": {"type": "Polygon", "coordinates": [[[144.23, -35.88], [144.551, -36.062], [144.625, -36.397], [144.486, -36.726], [144.322, -36.76], [144.243, -36.857], [144.308, -36.992], [144.296, -37.369], [143.903, -37.505], [143.78, -37.408], [143.455, -37.331], [143.694, -36.575], [143.579, -36.414], [143.499, -36.479], [143.422, -36.441], [143.387, -36.22], [143.526, -36.107], [143.66, -36.225], [143.597, -35.954], [143.672, -35.935], [143.783, -35.715], [143.748, -35.668], [143.618, -35.713], [143.526, -35.836], [143.43, -35.856], [143.424, -35.656], [143.558, -35.344], [143.887, -35.487], [143.955, -35.627], [144.115, -35.679], [144.263, -35.825], [144.23, -35.88]]]}}, {"type": "Feature", "properties": {"label": "Upper Murray", "division": "Murray-Darling Basin", "area_ha": 1533338, "carbon": true, "water_scheme": "ACWIS", "water_status": "Grazing method live at v1.0. No issuance or price history yet. AgriProve assessment, not a published scheme boundary.", "instruments": "Soil carbon + ACWIS", "popup": "Upper Murray \u00b7 Soil carbon + ACWIS"}, "geometry": {"type": "Polygon", "coordinates": [[[148.35, -35.916], [148.344, -36.11], [148.433, -36.25], [148.27, -36.433], [148.251, -36.545], [148.308, -36.595], [148.201, -36.799], [148.0, -36.986], [147.977, -36.916], [147.902, -36.914], [147.726, -37.017], [147.529, -37.319], [147.43, -37.27], [147.242, -37.022], [147.136, -36.977], [147.349, -36.863], [147.269, -36.784], [147.308, -36.69], [147.215, -36.67], [147.125, -36.551], [147.003, -36.139], [147.039, -35.999], [146.85, -36.01], [146.821, -35.89], [147.08, -35.79], [147.305, -35.945], [147.377, -35.858], [147.585, -35.847], [147.623, -35.656], [147.802, -35.683], [147.892, -35.632], [147.996, -35.747], [148.131, -35.598], [148.35, -35.916]]]}}]}