{"type": "FeatureCollection", "features": [{"type": "Feature", "properties": {"id": "cad2392e33a8261", "__typename": "FeatureProperties", "cpId": "cad2392e33a8261", "pId": "1/591342", "lot": "1", "plan": "DP591342", "area": 173315.08, "areaUnits": "sq m", "areaRoundedHa": 17, "state": "NSW", "cadastre_pid": "cad2392e33a8261"}, "geometry": {"type": "MultiPolygon", "coordinates": [[[[147.71482735861022, -35.915689409564095], [147.7172936659371, -35.91679100144999], [147.7201925314749, -35.91713168585402], [147.72362374241897, -35.91467904945708], [147.7255844741783, -35.91545352831073], [147.72487951509095, -35.9130852436249], [147.72096376959237, -35.912606676137784], [147.72063497122346, -35.912566481763825], [147.7205620313635, -35.912557571591954], [147.71980363012776, -35.91632783190894], [147.71482735861022, -35.915689409564095]]]]}}, {"type": "Feature", "properties": {"id": "cad2392e33a8261", "__typename": "FeatureProperties", "cpId": "cad2392e33a8261", "pId": "1/591342", "lot": "1", "plan": "DP591342", "area": 437158.92, "areaUnits": "sq m", "areaRoundedHa": 44, "state": "NSW", "cadastre_pid": "cad2392e33a8261"}, "geometry": {"type": "MultiPolygon", "coordinates": [[[[147.71540907050814, -35.91174419110268], [147.7206680933815, -35.912387148290975], [147.72317812154338, -35.91103257271332], [147.72529123311912, -35.9098921917556], [147.72598404021107, -35.909728616999836], [147.7253473567438, -35.90903618552234], [147.7245676163403, -35.90794950047417], [147.72307096278146, -35.90364786687173], [147.72294985089266, -35.90363659022515], [147.7228800754167, -35.90430023852015], [147.72112272676674, -35.90592444966347], [147.7183371034181, -35.90758941161049], [147.71540907050814, -35.91174419110268]]]]}}, {"type": "Feature", "properties": {"id": "cad2392e33a8261", "__typename": "FeatureProperties", "cpId": "cad2392e33a8261", "pId": "1/591342", "lot": "1", "plan": "DP591342", "area": 109450.65, "areaUnits": "sq m", "areaRoundedHa": 11, "state": "NSW", "cadastre_pid": "cad2392e33a8261"}, "geometry": {"type": "MultiPolygon", "coordinates": [[[[147.72099688275, -35.91242734266244], [147.7249126282437, -35.912905910219784], [147.7250504309956, -35.912922744488895], [147.72515064783843, -35.912934998292044], [147.7268545191469, -35.91314318675408], [147.7270578067434, -35.910896426684936], [147.72612668407083, -35.90988377447333], [147.72538608094789, -35.91005863487571], [147.72330541813926, -35.91118150031658], [147.72099688275, -35.91242734266244]]]]}}, {"type": "Feature", "properties": {"id": "cad2392e33a8261", "__typename": "FeatureProperties", "cpId": "cad2392e33a8261", "pId": "1/591342", "lot": "1", "plan": "DP591342", "area": 11.84, "areaUnits": "sq m", "areaRoundedHa": 0, "state": "NSW", "cadastre_pid": "cad2392e33a8261"}, "geometry": {"type": "MultiPolygon", "coordinates": [[[[147.7285266614123, -35.916324558803964], [147.72855083736397, -35.916331640409275], [147.72867966823978, -35.916271563779105], [147.7285266614123, -35.916324558803964]]]]}}, {"type": "Feature", "properties": {"id": "cad2392e33a8261", "__typename": "FeatureProperties", "cpId": "cad2392e33a8261", "pId": "1/591342", "lot": "1", "plan": "DP591342", "area": 21954.13, "areaUnits": "sq m", "areaRoundedHa": 2, "state": "NSW", "cadastre_pid": "cad2392e33a8261"}, "geometry": {"type": "MultiPolygon", "coordinates": [[[[147.71248430336507, -35.91596152973492], [147.71558949145745, -35.91634759851419], [147.71681718638337, -35.91710146011503], [147.71952142505862, -35.917611357639665], [147.71997236666692, -35.91728904865081], [147.71722179284677, -35.91696578119852], [147.71475417652033, -35.91586361549767], [147.71256201270947, -35.91558229962239], [147.71248430336507, -35.91596152973492]]]]}}, {"type": "Feature", "properties": {"id": "cad2392e33a8261", "__typename": "FeatureProperties", "cpId": "cad2392e33a8261", "pId": "1/591342", "lot": "1", "plan": "DP591342", "area": 202911.23, "areaUnits": "sq m", "areaRoundedHa": 20, "state": "NSW", "cadastre_pid": "cad2392e33a8261"}, "geometry": {"type": "MultiPolygon", "coordinates": [[[[147.71351088083085, -35.910991459764055], [147.71352138617675, -35.911495934567796], [147.71352051615648, -35.911513235068504], [147.71517249396481, -35.91171526450908], [147.71816714651135, -35.90746595979259], [147.72097132483412, -35.90578990933806], [147.72266424159284, -35.90422526382025], [147.72272830609506, -35.90361595522277], [147.72233816744875, -35.90357961549433], [147.7224893806241, -35.90401722790792], [147.72211255301005, -35.904015381474544], [147.7218712526656, -35.90451506066254], [147.72151738210835, -35.90458063241967], [147.721123738428, -35.90445613180034], [147.7207681467212, -35.90435959886188], [147.7204026852214, -35.90446773152389], [147.72002961397732, -35.90480173858875], [147.71965496562896, -35.905010142358584], [147.71927381714747, -35.90507840323332], [147.7188787396255, -35.90509368691474], [147.7185178321071, -35.90514269318122], [147.71814787172838, -35.90528815185453], [147.7177634614156, -35.90545949853698], [147.7173903179544, -35.905521816312564], [147.7170771793426, -35.90552606535861], [147.71663305086483, -35.90551257476493], [147.71624125358764, -35.90567238485576], [147.71590368046043, -35.905960478330414], [147.71580946046907, -35.90651941840797], [147.7157567173258, -35.90701167536284], [147.71568294523664, -35.90751416932963], [147.71570063200258, -35.90800815635085], [147.71556077703036, -35.90850949385312], [147.71516378119026, -35.90882293757865], [147.7148139980992, -35.909017922274565], [147.7144055110796, -35.909187323801355], [147.71403698514837, -35.90943327771597], [147.71367859774097, -35.90995777825393], [147.71352130642202, -35.91050730625033], [147.71351088083085, -35.910991459764055]]]]}}, {"type": "Feature", "properties": {"id": "cad2392e33a8261", "__typename": "FeatureProperties", "cpId": "cad2392e33a8261", "pId": "1/591342", "lot": "1", "plan": "DP591342", "area": 25752.4, "areaUnits": "sq m", "areaRoundedHa": 3, "state": "NSW", "cadastre_pid": "cad2392e33a8261"}, "geometry": {"type": "MultiPolygon", "coordinates": [[[[147.72511753467333, -35.91311433178607], [147.72578847596463, -35.91536829877039], [147.72646590959866, -35.91561921862397], [147.72660301517143, -35.914202433945704], [147.7268055299915, -35.91332058405414], [147.72511753467333, -35.91311433178607]]]]}}, {"type": "Feature", "properties": {"id": "cadd5a63626f757", "__typename": "FeatureProperties", "cpId": "cadd5a63626f757", "pId": "14/755872", "lot": "14", "plan": "DP755872", "area": 231808.72, "areaUnits": "sq m", "areaRoundedHa": 23, "state": "NSW", "cadastre_pid": "cadd5a63626f757"}, "geometry": {"type": "MultiPolygon", "coordinates": [[[[147.71217360408465, -35.915034421258966], [147.7121974220456, -35.915032278851484], [147.71223049899095, -35.91502959864108], [147.71226362993582, -35.91502725003061], [147.71229678688022, -35.91502524212014], [147.71232997182406, -35.91502359270964], [147.71236318376748, -35.915022274999096], [147.71239640371041, -35.91502130688856], [147.71242965165285, -35.91502068837799], [147.7124628985949, -35.91502039256741], [147.71249614553648, -35.91502044635681], [147.71252938447765, -35.91502084974622], [147.71256262241843, -35.9150216026356], [147.71259584335877, -35.915022678324995], [147.71262904529866, -35.9150241125144], [147.71266222123828, -35.9150258785038], [147.7126953701774, -35.91502798499323], [147.7127284831162, -35.91503045008265], [147.71276156005464, -35.915033246772076], [147.71279458299273, -35.915036393161536], [147.7128275529305, -35.915039862251035], [147.71286046786796, -35.915043689840516], [147.71289332080505, -35.91504784913005], [147.71292611174184, -35.915052349019604], [147.71295882067832, -35.91505718950922], [147.7129914586145, -35.91506236179883], [147.71302400655048, -35.915067865588505], [147.71305646548615, -35.91507371907822], [147.71308884342156, -35.915079895267965], [147.71312111335675, -35.91508641205778], [147.71315327629173, -35.91509326054765], [147.71318533122644, -35.91510042273757], [147.7132172701609, -35.915107943527524], [147.71324909209528, -35.915115778017565], [147.71328079702934, -35.91512394420766], [147.71331236796325, -35.91513244199783], [147.71334379589703, -35.91514125358806], [147.71337508883065, -35.91515039687836], [147.71340622976408, -35.915159862868734], [147.7134372276974, -35.91516965145918], [147.7134680816306, -35.915179753849706], [147.7134987565637, -35.91519017004032], [147.71352926949663, -35.91520090883103], [147.71355962142954, -35.91521196142181], [147.71358979436232, -35.91522332771268], [147.71361977829505, -35.91523500780366], [147.71364959222777, -35.91524698369473], [147.71367920916032, -35.915259282285895], [147.7137086380929, -35.91527186767714], [147.71373787002543, -35.91528476686848], [147.713766876958, -35.91529796175995], [147.71379569589058, -35.915311452551535], [147.7138242998231, -35.9153252481432], [147.71385267975566, -35.915339339535], [147.71388084468822, -35.9153537177269], [147.71390877662083, -35.9153683828189], [147.71393648455353, -35.91538333471103], [147.71396394948619, -35.9153985824033], [147.7139911734191, -35.91541409909565], [147.7140181633519, -35.915429902588144], [147.7140448942849, -35.91544598388078], [147.71407138321797, -35.915462334173505], [147.71409760215118, -35.91547896236636], [147.7141235710845, -35.91549585945934], [147.71414926201797, -35.91551302545245], [147.7141746919516, -35.91553045144569], [147.71419984488534, -35.91554813733908], [147.7142247198193, -35.9155660832326], [147.71424931775346, -35.91558427112624], [147.71427362768773, -35.91560273692], [147.71429764162227, -35.91562144481394], [147.71482735861022, -35.915689409564095], [147.71980363012776, -35.91632783190894], [147.7205620313635, -35.912557571591954], [147.7153561113818, -35.9119210953443], [147.71521872936293, -35.912131892325796], [147.7151343599989, -35.91254357219932], [147.71483404011002, -35.91288039385241], [147.7148135841169, -35.91290389746256], [147.71325214061676, -35.914698065514074], [147.71236525397407, -35.91485640560383], [147.71217360408465, -35.915034421258966]]]]}}, {"type": "Feature", "properties": {"id": "cadd5a63626f757", "__typename": "FeatureProperties", "cpId": "cadd5a63626f757", "pId": "14/755872", "lot": "14", "plan": "DP755872", "area": 75115.56, "areaUnits": "sq m", "areaRoundedHa": 8, "state": "NSW", "cadastre_pid": "cadd5a63626f757"}, "geometry": {"type": "MultiPolygon", "coordinates": [[[[147.70813915617052, -35.91483102039339], [147.7113179673248, -35.91523905131503], [147.71132155232036, -35.91523762601403], [147.71135150128282, -35.915225883205686], [147.71138163824457, -35.91521444509719], [147.71141195420557, -35.91520332978864], [147.71144242316592, -35.91519251917994], [147.71147307012558, -35.91518203137116], [147.71150388008454, -35.915171857262266], [147.71153484104278, -35.91516199685329], [147.71156595500034, -35.915152468144214], [147.71159721295726, -35.91514325313505], [147.7116286219135, -35.91513436082578], [147.71166015786912, -35.91512580021641], [147.71169182682402, -35.915117562306996], [147.71172362277838, -35.91510964709748], [147.71175553373206, -35.91510207258788], [147.71178756268506, -35.915094811778204], [147.7118197076375, -35.91508790946846], [147.7122458453922, -35.91469205994888], [147.71312005605344, -35.914535987857946], [147.7146366175686, -35.912793183427844], [147.71501626981686, -35.912056137809365], [147.71512752182278, -35.91189314574541], [147.7135113189433, -35.91169549967601], [147.713496626603, -35.91198644358763], [147.71330751332457, -35.91247358217687], [147.71292069050813, -35.91287091073951], [147.7125512947496, -35.91319648268368], [147.7121940620019, -35.91349521641381], [147.7118163204506, -35.913666751249465], [147.71144160888755, -35.91384262467807], [147.7110439043704, -35.91401346920971], [147.71067583488147, -35.91412083093169], [147.7102955833849, -35.91425039645179], [147.70990080982648, -35.91439146263579], [147.70958690101043, -35.91451146342257], [147.70915273940707, -35.91456715671919], [147.70879549874402, -35.91460523561744], [147.70841259303194, -35.91470508540768], [147.70813915617052, -35.91483102039339]]]]}}, {"type": "Feature", "properties": {"id": "cadd5a63626f757", "__typename": "FeatureProperties", "cpId": "cadd5a63626f757", "pId": "14/755872", "lot": "14", "plan": "DP755872", "area": 2961.32, "areaUnits": "sq m", "areaRoundedHa": 0, "state": "NSW", "cadastre_pid": "cadd5a63626f757"}, "geometry": {"type": "MultiPolygon", "coordinates": [[[[147.7118761892552, -35.91531069123869], [147.71259867487174, -35.91540341441561], [147.7138700434396, -35.91556656743719], [147.71384288250675, -35.91555097014467], [147.71381546157394, -35.915535677552334], [147.7137877716413, -35.9155206987601], [147.71375983970864, -35.91550603366796], [147.71373165777604, -35.91549168237597], [147.71370323284347, -35.91547763578408], [147.71367456591096, -35.91546392989229], [147.71364567497835, -35.91545055570063], [147.7136165600458, -35.91543749510909], [147.71358722111322, -35.91542476631763], [147.71355766718057, -35.91541238702629], [147.71352790624795, -35.915400312635036], [147.71349794031514, -35.915388587743905], [147.71346778538233, -35.91537720345284], [147.71343743344943, -35.91536616886189], [147.7134068935164, -35.91535546587101], [147.7133761735833, -35.91534511248024], [147.71334528365003, -35.915335117589535], [147.7133142327166, -35.91532544549892], [147.71328301078304, -35.91531614090838], [147.7132516378493, -35.91530719481792], [147.71322011091544, -35.915298598427526], [147.71318844098133, -35.91529035153721], [147.713156637047, -35.91528247224694], [147.71312469911246, -35.91527495145675], [147.7130926341777, -35.91526778926662], [147.71306044524272, -35.915260985576545], [147.71302815730743, -35.915254549486505], [147.71299576137184, -35.915248480896516], [147.7129632574361, -35.91524277980658], [147.71293066449996, -35.91523743721672], [147.71289798256353, -35.91523247122686], [147.7128652186268, -35.91522787273703], [147.7128323746897, -35.915223650647256], [147.7127994677523, -35.91521977825751], [147.71276649881446, -35.91521629126777], [147.71273346687624, -35.91521318077806], [147.71270038993777, -35.91521043778837], [147.71266726799882, -35.91520807129868], [147.7126341100595, -35.91520608130901], [147.71260091611975, -35.91520444991936], [147.71256770517954, -35.9152032129297], [147.71253447523884, -35.91520234344004], [147.71250122829784, -35.91520184145038], [147.71246798135627, -35.9152017248607], [147.71243473341417, -35.91520198487102], [147.71240149547165, -35.915202612381336], [147.71236826552868, -35.91520361629161], [147.7123350635851, -35.91520499680188], [147.71230188764102, -35.91520675371213], [147.71226873869648, -35.91520887822235], [147.71223563475132, -35.915211388132505], [147.71220257580563, -35.91521425664268], [147.71216956185938, -35.91521750155276], [147.71213661891255, -35.91522113206281], [147.71210372996515, -35.91522512097285], [147.71207091301713, -35.9152294864828], [147.71203817706848, -35.915234210492706], [147.71200553011926, -35.91523932000256], [147.71197296416935, -35.91524479701234], [147.71194095321817, -35.91525054292197], [147.7118761892552, -35.91531069123869]]]]}}, {"type": "Feature", "properties": {"id": "cad728b5ac6f26d", "__typename": "FeatureProperties", "cpId": "cad728b5ac6f26d", "pId": "13/755872", "lot": "13", "plan": "DP755872", "area": 115571.2, "areaUnits": "sq m", "areaRoundedHa": 12, "state": "NSW", "cadastre_pid": "cad728b5ac6f26d"}, "geometry": {"type": "MultiPolygon", "coordinates": [[[[147.70492113109364, -35.91870451691118], [147.70707511026026, -35.91897064845119], [147.70749795974626, -35.918174503652736], [147.70750323075146, -35.918165360453905], [147.70752261977012, -35.91813207715812], [147.7075422957884, -35.918098865662344], [147.70756223080625, -35.918065770666566], [147.70758242682368, -35.91803277427073], [147.70760288284077, -35.917999885374904], [147.70762362585737, -35.91796710407905], [147.70764460987365, -35.917934430383184], [147.70766586388945, -35.91790186428732], [147.70768738690487, -35.91786941469143], [147.7077091599199, -35.91783707269551], [147.70773119393448, -35.91780485609958], [147.70775348694863, -35.91777274710364], [147.70777603996243, -35.917740754707665], [147.70779885397585, -35.91770886981169], [147.70782191798878, -35.91767711941568], [147.7078452420013, -35.91764548551965], [147.70786881701346, -35.917613977123615], [147.7078926440252, -35.917582585327544], [147.70791673003652, -35.91755131893147], [147.70794105804742, -35.917520178035375], [147.70796563705792, -35.91748917163926], [147.70799046806798, -35.91745829074314], [147.70801554907766, -35.91742754434696], [147.7080408630869, -35.917396914450805], [147.70806644609576, -35.91736641895462], [147.7080922541042, -35.9173360848584], [147.70811831211225, -35.91730585826217], [147.7081446121198, -35.9172757841659], [147.70817115512708, -35.91724584446964], [147.7081979391338, -35.917216039273335], [147.7082249561402, -35.91718637747703], [147.70825221614615, -35.9171568679807], [147.70827970815174, -35.91712748408435], [147.70830744315685, -35.91709826148798], [147.70833541116153, -35.91706917339157], [147.7083636021659, -35.91704023769516], [147.70839202716982, -35.91701144539872], [147.70842069417324, -35.916982805502236], [147.70844957617632, -35.91695431800576], [147.70847869117898, -35.91692597380925], [147.70850803918125, -35.91689779111274], [147.70853760218307, -35.91686976071616], [147.7085673981845, -35.916841891719585], [147.70859741018552, -35.916814175122994], [147.70862765418613, -35.91678661982636], [147.70865810518634, -35.91675921692975], [147.70868878918608, -35.91673198443308], [147.70871967818545, -35.916704904236376], [147.70875079218436, -35.91667799433966], [147.70878212218295, -35.916651236842924], [147.70881365718103, -35.91662464974617], [147.70884541617878, -35.916598232849374], [147.7088773821761, -35.91657197735258], [147.70890955317293, -35.91654590115574], [147.70894194016938, -35.91651998625889], [147.70897452416548, -35.916494241762], [147.70900731516113, -35.9164686764651], [147.7090403111564, -35.91644327256819], [147.7090735141512, -35.91641805687123], [147.70910692214557, -35.91639301157424], [147.70914051913962, -35.91636813647725], [147.7091743231332, -35.91634344968021], [147.7092083141264, -35.91631892428317], [147.70924250311919, -35.91629458708609], [147.70927689711155, -35.91627043808897], [147.70931147110346, -35.916246459491845], [147.70934623409502, -35.9162226779947], [147.7093811930862, -35.9161990578975], [147.7094163320769, -35.916175635100295], [147.70945165906724, -35.91615240040308], [147.70948718305715, -35.91612934510582], [147.70952287804667, -35.91610648690852], [147.70955876103574, -35.91608382601122], [147.70959483202444, -35.91606133541388], [147.7096310640127, -35.91603904191651], [147.70966748500055, -35.91601693681911], [147.70970406698802, -35.91599502882171], [147.7097408369751, -35.91597330912425], [147.70977777796176, -35.91595178662678], [147.70981487994797, -35.91593046122928], [147.70985216093388, -35.91590933313175], [147.70988961191932, -35.91588839333421], [147.7099272159044, -35.915867659636596], [147.70996498088903, -35.915847123138995], [147.7100029258732, -35.91582679284138], [147.7100410228342, -35.91580665083399], [147.71007928079288, -35.91578671492572], [147.71011769175104, -35.91576698511733], [147.71015626370863, -35.91574746160879], [147.7101949876657, -35.91572813530013], [147.71023387362223, -35.91570901509134], [147.7102728845782, -35.9156901100824], [147.71031205753366, -35.915671393273335], [147.71035138248854, -35.91565290056413], [147.7103908594429, -35.915634605054805], [147.7104304623968, -35.915616524645365], [147.7104702263501, -35.915598650535756], [147.71051010730292, -35.91558098252606], [147.71055014925514, -35.91556353861623], [147.71059032620693, -35.915546282906256], [147.71063062815813, -35.915529269296165], [147.71067106410885, -35.91551246178596], [147.71071164405902, -35.91549586047564], [147.71075234100874, -35.91547947436519], [147.7107931629579, -35.915463321254634], [147.7108341189066, -35.91544735634395], [147.71087520085473, -35.915431624533156], [147.71091639880242, -35.91541610792224], [147.71095773174957, -35.91540082431122], [147.71099917269626, -35.91538572900009], [147.71102085667292, -35.915374263994565], [147.71104962164148, -35.91535940168717], [147.7110786196093, -35.91534483527965], [147.71110781557636, -35.91533056457201], [147.71113723554262, -35.91531658976423], [147.71116686150816, -35.91530291065634], [147.711196693473, -35.915289527448316], [147.711226731437, -35.91527645794016], [147.7112569584003, -35.9152636753319], [147.71128736436293, -35.91525121542352], [147.7113179673248, -35.91523905131503], [147.70813915617052, -35.91483102039339], [147.70803169622485, -35.91488091388775], [147.70746985255468, -35.91510758596286], [147.70729534155328, -35.9152635502437], [147.7070106995422, -35.915527046411334], [147.70652280778944, -35.91576497728448], [147.70614640188754, -35.916028294153215], [147.70577073878678, -35.91646079719956], [147.70539216365185, -35.916930545541156], [147.70526933808156, -35.91752864906315], [147.70513669762803, -35.918040178496774], [147.70501127317578, -35.91854591723116], [147.70492113109364, -35.91870451691118]]]]}}, {"type": "Feature", "properties": {"id": "cad728b5ac6f26d", "__typename": "FeatureProperties", "cpId": "cad728b5ac6f26d", "pId": "13/755872", "lot": "13", "plan": "DP755872", "area": 41825.01, "areaUnits": "sq m", "areaRoundedHa": 4, "state": "NSW", "cadastre_pid": "cad728b5ac6f26d"}, "geometry": {"type": "MultiPolygon", "coordinates": [[[[147.70729772996606, -35.91899815884496], [147.70787119120703, -35.91906901012889], [147.70806270594997, -35.91909522982317], [147.70963852890176, -35.917685868194724], [147.71063053718237, -35.91629167361408], [147.7115260558051, -35.91536066554235], [147.71149474484605, -35.9153715926511], [147.71146362188625, -35.91538285135973], [147.7114326789257, -35.91539445976826], [147.71140194096432, -35.915406399776664], [147.7113713740022, -35.91541868938495], [147.71134103103927, -35.91543131069311], [147.71131090307549, -35.91544426360117], [147.71128098111095, -35.91545755720909], [147.71125129314558, -35.91547116451688], [147.71122181917943, -35.91548510352456], [147.7111925872124, -35.91549935633208], [147.71116359824455, -35.91551394963949], [147.7111348422759, -35.915528847846744], [147.71110633630633, -35.915544059653875], [147.7111053503074, -35.915544588554134], [147.71106382036103, -35.915559567365065], [147.7110224244141, -35.9155747523759], [147.71098112746665, -35.915590188386645], [147.71093998351867, -35.91560583049725], [147.71089895457018, -35.91562169680776], [147.71085805262123, -35.91563779611816], [147.71081728467166, -35.915654110528415], [147.7107766507216, -35.91567065803855], [147.71073615177107, -35.91568742074859], [147.71069579581993, -35.9157044074585], [147.71065557386825, -35.91572160936827], [147.71061548691614, -35.915739035377925], [147.71057555296338, -35.915756685387464], [147.71053577101006, -35.915774541696855], [147.71049613205628, -35.91579262200614], [147.7104566281019, -35.9158109085153], [147.710417285147, -35.91582941922433], [147.7103780941915, -35.9158481449332], [147.71033905623548, -35.91586707684196], [147.71030017927893, -35.915886232950555], [147.7102614553218, -35.91590559515907], [147.71022289236404, -35.91592516346742], [147.71018449040582, -35.91594495597561], [147.710146250447, -35.91596494568368], [147.71010818048757, -35.91598515049161], [147.71007027152766, -35.916005552499406], [147.7100325335671, -35.91602617860706], [147.7099949655992, -35.91604699301176], [147.70995757661368, -35.9160680135093], [147.70992035862773, -35.916089240206794], [147.7098833016413, -35.91611068210431], [147.7098464416545, -35.91613230320175], [147.7098097516673, -35.91615413939921], [147.70977324167964, -35.916176172896606], [147.70973691969155, -35.916198403593974], [147.70970077670307, -35.916220840391325], [147.70966481371417, -35.916243456488665], [147.70962904672484, -35.91626627878593], [147.70959346873508, -35.91628929828319], [147.7095580707449, -35.91631251498045], [147.70952288675429, -35.916335902077655], [147.7094878827632, -35.91635950417484], [147.70945307477177, -35.91638327667199], [147.7094184737799, -35.91640725526912], [147.70938405278756, -35.91643141326623], [147.70934984579486, -35.9164557593633], [147.70931584580163, -35.91648029376035], [147.7092820428081, -35.91650500745739], [147.709248445814, -35.91652990945438], [147.7092150458196, -35.91655499065138], [147.70918186082469, -35.916580251148304], [147.70914889182941, -35.916605690945225], [147.70911612783362, -35.91663131894214], [147.7090835888375, -35.91665711723902], [147.70905124684091, -35.91668309483585], [147.70901912884386, -35.91670924273266], [147.70898722584644, -35.91673557002946], [147.70895553884856, -35.91676206752625], [147.7089240748503, -35.916788726422986], [147.70889284485153, -35.916815573519706], [147.70886182885238, -35.9168425909164], [147.70883102885279, -35.91686976071307], [147.70880046185277, -35.91689710090972], [147.70877012785232, -35.916924611306364], [147.7087400268514, -35.91695228310296], [147.70871014085012, -35.91698010729955], [147.70868049684836, -35.9170081107961], [147.7086510768462, -35.91703626669263], [147.70862189884363, -35.91706458388914], [147.7085929548406, -35.917093053485644], [147.70856424283718, -35.91712168438211], [147.70853578183323, -35.91715046777853], [147.70850755482894, -35.91717940347497], [147.7084795598242, -35.917208491571365], [147.70845181681904, -35.917237732067726], [147.70842431481344, -35.917267124964084], [147.7083970558074, -35.91729666126043], [147.70837004680092, -35.91732634095672], [147.70834328079405, -35.91735618205303], [147.70831676478673, -35.9173861486493], [147.70829050977898, -35.91741626764553], [147.7082644877708, -35.917446530041765], [147.7082387247622, -35.91747692683795], [147.70821321375314, -35.91750746713415], [147.70818796174365, -35.917538132930304], [147.70816296173382, -35.91756895112645], [147.7081382297235, -35.91759989472259], [147.70811373971273, -35.917630963918675], [147.7080895197016, -35.91766216751474], [147.70806554969, -35.91769350561081], [147.70804184867796, -35.917724978106875], [147.70801840766552, -35.917756576102896], [147.7079952276526, -35.91778829069891], [147.7079723156393, -35.917820139694896], [147.7079496726256, -35.91785210519087], [147.7079272976114, -35.91788418728682], [147.70790517459682, -35.91791640388274], [147.70788332958185, -35.91794871897867], [147.7078617535664, -35.917981159674554], [147.70784045455056, -35.91801370787043], [147.70781942553427, -35.91804639046629], [147.70779866451753, -35.918079162862135], [147.70777818250042, -35.91811206065796], [147.70775796848287, -35.918145065953766], [147.70773803246493, -35.91817816994958], [147.7077183654465, -35.91821139044535], [147.70770013242876, -35.91824271954138], [147.70729772996606, -35.91899815884496]]]]}}, {"type": "Feature", "properties": {"id": "cad728b5ac6f26d", "__typename": "FeatureProperties", "cpId": "cad728b5ac6f26d", "pId": "13/755872", "lot": "13", "plan": "DP755872", "area": 85520.15, "areaUnits": "sq m", "areaRoundedHa": 9, "state": "NSW", "cadastre_pid": "cad728b5ac6f26d"}, "geometry": {"type": "MultiPolygon", "coordinates": [[[[147.70832414959872, -35.91913101401536], [147.71169094313186, -35.91959193263129], [147.71248430336507, -35.91596152973492], [147.71256201270947, -35.91558229962239], [147.71259867487174, -35.91540341441561], [147.7118761892552, -35.91531069123869], [147.7108101657287, -35.91640125815585], [147.7098195565569, -35.91779360627824], [147.70832414959872, -35.91913101401536]]]]}}, {"type": "Feature", "properties": {"id": "cad37153a8ef8cd", "__typename": "FeatureProperties", "cpId": "cad37153a8ef8cd", "pId": "4/626209", "lot": "4", "plan": "DP626209", "area": 334390.12, "areaUnits": "sq m", "areaRoundedHa": 33, "state": "NSW", "cadastre_pid": "cad37153a8ef8cd"}, "geometry": {"type": "MultiPolygon", "coordinates": [[[[147.71169094313186, -35.91959193263129], [147.7218515950919, -35.92087918619833], [147.721901806041, -35.917515765312636], [147.71997236666692, -35.91728904865081], [147.71952142505862, -35.917611357639665], [147.71681718638337, -35.91710146011503], [147.71558949145745, -35.91634759851419], [147.71248430336507, -35.91596152973492], [147.71169094313186, -35.91959193263129]]]]}}, {"type": "Feature", "properties": {"id": "cad37153a8ef8cd", "__typename": "FeatureProperties", "cpId": "cad37153a8ef8cd", "pId": "4/626209", "lot": "4", "plan": "DP626209", "area": 639449.89, "areaUnits": "sq m", "areaRoundedHa": 64, "state": "NSW", "cadastre_pid": "cad37153a8ef8cd"}, "geometry": {"type": "MultiPolygon", "coordinates": [[[[147.7061914521655, -35.9277593008919], [147.7074488545192, -35.92758638566486], [147.70812679969126, -35.92733863025608], [147.70968808935663, -35.9279228306958], [147.71053363296735, -35.92799338623777], [147.71141584850398, -35.92779035213619], [147.71250322248736, -35.928025029234696], [147.71276766783518, -35.92842113854045], [147.71464105539482, -35.928660297711254], [147.71493875860887, -35.927248784728], [147.71515876120998, -35.927278858948995], [147.71517350722152, -35.92720893985494], [147.71611043358052, -35.92276808561324], [147.7180496079721, -35.923023460502144], [147.71852376808292, -35.92064096865647], [147.7116534199689, -35.91977073712446], [147.70923282914046, -35.92417095712727], [147.70730631355138, -35.92258567756576], [147.7061914521655, -35.9277593008919]]]]}}, {"type": "Feature", "properties": {"id": "cad37153a8ef8cd", "__typename": "FeatureProperties", "cpId": "cad37153a8ef8cd", "pId": "4/626209", "lot": "4", "plan": "DP626209", "area": 1064680.54, "areaUnits": "sq m", "areaRoundedHa": 106, "state": "NSW", "cadastre_pid": "cad37153a8ef8cd"}, "geometry": {"type": "MultiPolygon", "coordinates": [[[[147.7201925314749, -35.91713168585402], [147.72212709783759, -35.917359003103954], [147.72207412567533, -35.9209087404955], [147.7261400268962, -35.92144874887203], [147.72731435049585, -35.921604686449754], [147.7272351621234, -35.92200727696478], [147.73156974806508, -35.922544803174915], [147.7348819589783, -35.92295544399429], [147.73731290368616, -35.92325675990817], [147.73872109444625, -35.91560480486786], [147.73716198387538, -35.91505974069181], [147.73654828356257, -35.91520275209296], [147.7362941093258, -35.91555789626198], [147.73617617980236, -35.915392241831356], [147.7358846453161, -35.91535739879782], [147.73328315737405, -35.91596357036411], [147.7301582476168, -35.91575948721991], [147.72867966823978, -35.916271563779105], [147.72855083736397, -35.916331640409275], [147.7285266614123, -35.916324558803964], [147.7282292287501, -35.916427563951245], [147.72816785182016, -35.91644881756083], [147.72644730038667, -35.915811567828946], [147.72559734610599, -35.91549677053394], [147.7255844741783, -35.91545352831073], [147.72362374241897, -35.91467904945708], [147.7201925314749, -35.91713168585402]]]]}}, {"type": "Feature", "properties": {"id": "cad37153a8ef8cd", "__typename": "FeatureProperties", "cpId": "cad37153a8ef8cd", "pId": "4/626209", "lot": "4", "plan": "DP626209", "area": 12009.27, "areaUnits": "sq m", "areaRoundedHa": 1, "state": "NSW", "cadastre_pid": "cad37153a8ef8cd"}, "geometry": {"type": "MultiPolygon", "coordinates": [[[[147.73671029871846, -35.91497635761931], [147.73717698920157, -35.91486759763996], [147.73875522074528, -35.9154193579154], [147.73890009702257, -35.914631988164956], [147.73695604639815, -35.91439165476293], [147.73688705089296, -35.91472938192798], [147.73671029871846, -35.91497635761931]]]]}}, {"type": "Feature", "properties": {"id": "cad9a9fd06c9fdb", "__typename": "FeatureProperties", "cpId": "cad9a9fd06c9fdb", "pId": "3/536174", "lot": "3", "plan": "DP536174", "area": 100007.44, "areaUnits": "sq m", "areaRoundedHa": 10, "state": "NSW", "cadastre_pid": "cad9a9fd06c9fdb"}, "geometry": {"type": "MultiPolygon", "coordinates": [[[[147.69785709651512, -35.924343953163074], [147.6979942176418, -35.92522781938014], [147.69854874692854, -35.92517156147131], [147.6985722228747, -35.925324657271915], [147.6987790306157, -35.92525684476832], [147.6989858383573, -35.92518903226482], [147.69919264609953, -35.925121219761444], [147.69937122687745, -35.92506260425862], [147.699607023573, -35.92505324585516], [147.7000523449983, -35.92503556884864], [147.70007922787954, -35.925488339548345], [147.70098979665678, -35.925645827632906], [147.70098626468487, -35.92553147413338], [147.7003530406993, -35.92491139985421], [147.70052293598948, -35.92444127501311], [147.70058446441405, -35.9239777117727], [147.70033511419823, -35.923546490632354], [147.70053811326525, -35.923247918468526], [147.7008808059684, -35.923124475480016], [147.70124771857144, -35.923066048282735], [147.70159371021444, -35.92299601268726], [147.7019673548109, -35.92293748688994], [147.70229878049395, -35.92284982819702], [147.7026549371879, -35.92272619690853], [147.70313018889968, -35.92245839813749], [147.70335811589226, -35.92221730296627], [147.7034994510668, -35.921912742804544], [147.6984701710516, -35.922114423443105], [147.69798680583537, -35.9238722686222], [147.69854736701035, -35.92397907440066], [147.69848448482165, -35.92423703976813], [147.6979632473166, -35.92440436135377], [147.69785709651512, -35.924343953163074]]]]}}, {"type": "Feature", "properties": {"id": "cad9a9fd06c9fdb", "__typename": "FeatureProperties", "cpId": "cad9a9fd06c9fdb", "pId": "3/536174", "lot": "3", "plan": "DP536174", "area": 38428.89, "areaUnits": "sq m", "areaRoundedHa": 4, "state": "NSW", "cadastre_pid": "cad9a9fd06c9fdb"}, "geometry": {"type": "MultiPolygon", "coordinates": [[[[147.70378569793695, -35.921719676626346], [147.7038628508458, -35.92171658402579], [147.70508827983838, -35.92129585066589], [147.70666591297552, -35.91959940877209], [147.70687817083822, -35.91950600408206], [147.70701053312138, -35.91914619902851], [147.70482478600388, -35.918876302589545], [147.7047276079372, -35.91902980177032], [147.7049450911074, -35.91951799790316], [147.70493036257417, -35.91998553214141], [147.7046312705259, -35.920330851499315], [147.70435872967585, -35.92048241448258], [147.70397343958456, -35.92096115372407], [147.70407546690396, -35.92144139885939], [147.70378569793695, -35.921719676626346]]]]}}, {"type": "Feature", "properties": {"id": "cad9a9fd06c9fdb", "__typename": "FeatureProperties", "cpId": "cad9a9fd06c9fdb", "pId": "3/536174", "lot": "3", "plan": "DP536174", "area": 343.71, "areaUnits": "sq m", "areaRoundedHa": 0, "state": "NSW", "cadastre_pid": "cad9a9fd06c9fdb"}, "geometry": {"type": "MultiPolygon", "coordinates": [[[[147.70715585665988, -35.91938380719513], [147.70754564641186, -35.9192122725135], [147.70723315382642, -35.919173691522275], [147.70715585665988, -35.91938380719513]]]]}}, {"type": "Feature", "properties": {"id": "cad9a9fd06c9fdb", "__typename": "FeatureProperties", "cpId": "cad9a9fd06c9fdb", "pId": "3/536174", "lot": "3", "plan": "DP536174", "area": 46165.59, "areaUnits": "sq m", "areaRoundedHa": 5, "state": "NSW", "cadastre_pid": "cad9a9fd06c9fdb"}, "geometry": {"type": "MultiPolygon", "coordinates": [[[[147.70049881372356, -35.924715016977736], [147.7005203894667, -35.92492609174994], [147.70101208067697, -35.92540551233342], [147.70114204945173, -35.9256721638302], [147.70114946244175, -35.92567344563009], [147.70117476745938, -35.925430378430704], [147.70213881688383, -35.92446744978699], [147.70481934182615, -35.92158504663098], [147.70391321857633, -35.92189615040144], [147.7037364497858, -35.92190324100276], [147.70342457447998, -35.9225051990275], [147.70302023670348, -35.92275094650046], [147.70268793291214, -35.92293365028083], [147.70231611627906, -35.923021855874225], [147.70196340164358, -35.92309197206975], [147.7016174110007, -35.923162007665205], [147.701251600377, -35.92323824636015], [147.70090268679192, -35.9232607907619], [147.70062197983052, -35.9235506230279], [147.700830122016, -35.924055375759174], [147.70067787773172, -35.92449517540389], [147.70049881372356, -35.924715016977736]]]]}}, {"type": "Feature", "properties": {"id": "cad9a9fd06c9fdb", "__typename": "FeatureProperties", "cpId": "cad9a9fd06c9fdb", "pId": "3/536174", "lot": "3", "plan": "DP536174", "area": 169572.04, "areaUnits": "sq m", "areaRoundedHa": 17, "state": "NSW", "cadastre_pid": "cad9a9fd06c9fdb"}, "geometry": {"type": "MultiPolygon", "coordinates": [[[[147.69852065618073, -35.921930814266226], [147.7036212541312, -35.92172627412757], [147.70383166520597, -35.92143787596293], [147.70378214881896, -35.92095895752673], [147.70414052900742, -35.92042265159313], [147.70466938585656, -35.92000980664133], [147.70466944043991, -35.91951212650718], [147.70461391806586, -35.919033674171146], [147.7047549123113, -35.91868398041578], [147.70226109162004, -35.91832181779162], [147.70137874178167, -35.91819366871823], [147.70067089154617, -35.919160389], [147.69933545731817, -35.918967645540484], [147.69852065618073, -35.921930814266226]]]]}}, {"type": "Feature", "properties": {"id": "cadaeb44c425f89", "__typename": "FeatureProperties", "cpId": "cadaeb44c425f89", "pId": "60/755872", "lot": "60", "plan": "DP755872", "area": 114368.92, "areaUnits": "sq m", "areaRoundedHa": 11, "state": "NSW", "cadastre_pid": "cadaeb44c425f89"}, "geometry": {"type": "MultiPolygon", "coordinates": [[[[147.72080371335375, -35.923804851041915], [147.725537232417, -35.924441106054914], [147.72575830330416, -35.92334369922057], [147.72610396474263, -35.921627705763015], [147.722002538589, -35.92108298236722], [147.72199836031038, -35.92215535268084], [147.72199367087788, -35.92335674154377], [147.72081288339191, -35.923760380727636], [147.72080371335375, -35.923804851041915]]]]}}, {"type": "Feature", "properties": {"id": "cadaeb44c425f89", "__typename": "FeatureProperties", "cpId": "cadaeb44c425f89", "pId": "60/755872", "lot": "60", "plan": "DP755872", "area": 85089.64, "areaUnits": "sq m", "areaRoundedHa": 9, "state": "NSW", "cadastre_pid": "cadaeb44c425f89"}, "geometry": {"type": "MultiPolygon", "coordinates": [[[[147.7180496079721, -35.923023460502144], [147.72088782270347, -35.92339716010967], [147.72085654657354, -35.92354874105918], [147.72177119439982, -35.923236086288824], [147.72177542669624, -35.92215029698093], [147.7217797040059, -35.921053383368445], [147.71852376808292, -35.92064096865647], [147.7180496079721, -35.923023460502144]]]]}}, {"type": "Feature", "properties": {"id": "cad26292dc8a1aa", "__typename": "FeatureProperties", "cpId": "cad26292dc8a1aa", "pId": "94/755872", "lot": "94", "plan": "DP755872", "area": 97551.26, "areaUnits": "sq m", "areaRoundedHa": 10, "state": "NSW", "cadastre_pid": "cad26292dc8a1aa"}, "geometry": {"type": "MultiPolygon", "coordinates": [[[[147.72575830330416, -35.92334369922057], [147.72632105956663, -35.92384761871036], [147.72771983127922, -35.92422106762725], [147.72782309610437, -35.92419579813572], [147.72907417900825, -35.923889597628836], [147.7299239798338, -35.92422026132011], [147.73156974806508, -35.922544803174915], [147.7272351621234, -35.92200727696478], [147.72731435049585, -35.921604686449754], [147.7261400268962, -35.92144874887203], [147.72610396474263, -35.921627705763015], [147.72575830330416, -35.92334369922057]]]]}}, {"type": "Feature", "properties": {"id": "caddcda4df5e6af", "__typename": "FeatureProperties", "cpId": "caddcda4df5e6af", "pId": "44/755872", "lot": "44", "plan": "DP755872", "area": 89602.37, "areaUnits": "sq m", "areaRoundedHa": 9, "state": "NSW", "cadastre_pid": "caddcda4df5e6af"}, "geometry": {"type": "MultiPolygon", "coordinates": [[[[147.71517350722152, -35.92720893985494], [147.71622913074754, -35.92656053950884], [147.71625968929987, -35.92547950158545], [147.71734311947787, -35.9254533717084], [147.71816145800827, -35.92446996032217], [147.72085654657354, -35.92354874105918], [147.72088782270347, -35.92339716010967], [147.7180496079721, -35.923023460502144], [147.71611043358052, -35.92276808561324], [147.71517350722152, -35.92720893985494]]]]}}, {"type": "Feature", "properties": {"id": "caddcda4df5e6af", "__typename": "FeatureProperties", "cpId": "caddcda4df5e6af", "pId": "44/755872", "lot": "44", "plan": "DP755872", "area": 195948.67, "areaUnits": "sq m", "areaRoundedHa": 20, "state": "NSW", "cadastre_pid": "caddcda4df5e6af"}, "geometry": {"type": "MultiPolygon", "coordinates": [[[[147.71482363396225, -35.928867168416375], [147.71963263799927, -35.9294809415321], [147.72080371335375, -35.923804851041915], [147.72081288339191, -35.923760380727636], [147.71830894258017, -35.92461626146864], [147.71746379216802, -35.92563188040886], [147.71647772883054, -35.92565567069768], [147.7164495723158, -35.926652393426124], [147.71511842317872, -35.92747002473278], [147.71482363396225, -35.928867168416375]]]]}}]}