{"type": "FeatureCollection", "features": [{"id": "0", "type": "Feature", "properties": {}, "geometry": {"type": "MultiPolygon", "coordinates": [[[[147.715158761, -35.927278859], [147.714938759, -35.927248785], [147.714641055, -35.928660298], [147.712767668, -35.928421139], [147.712503222, -35.928025029], [147.711415849, -35.927790352], [147.710533633, -35.927993386], [147.709688089, -35.927922831], [147.7081268, -35.92733863], [147.707448855, -35.927586386], [147.706191452, -35.927759301], [147.707306314, -35.922585678], [147.709232829, -35.924170957], [147.71165342, -35.919770737], [147.718523768, -35.920640969], [147.721779704, -35.921053383], [147.721775427, -35.922150297], [147.721771194, -35.923236086], [147.720856547, -35.923548741], [147.718161458, -35.92446996], [147.717343119, -35.925453372], [147.716259689, -35.925479502], [147.716229131, -35.92656054], [147.715173507, -35.92720894], [147.715158761, -35.927278859]]], [[[147.703358116, -35.922217303], [147.703130189, -35.922458398], [147.702654937, -35.922726197], [147.70229878, -35.922849828], [147.701967355, -35.922937487], [147.70159371, -35.922996013], [147.701247719, -35.923066048], [147.700880806, -35.923124475], [147.700538113, -35.923247918], [147.700335114, -35.923546491], [147.700584464, -35.923977712], [147.700522936, -35.924441275], [147.700353041, -35.9249114], [147.700986265, -35.925531474], [147.700989797, -35.925645828], [147.700079228, -35.92548834], [147.700052345, -35.925035569], [147.699607024, -35.925053246], [147.699371227, -35.925062604], [147.699192646, -35.92512122], [147.698985838, -35.925189032], [147.698779031, -35.925256845], [147.698572223, -35.925324657], [147.698548747, -35.925171561], [147.697994218, -35.925227819], [147.697857097, -35.924343953], [147.697963247, -35.924404361], [147.698484485, -35.92423704], [147.698547367, -35.923979074], [147.697986806, -35.923872269], [147.698470171, -35.922114423], [147.703499451, -35.921912743], [147.703358116, -35.922217303]]], [[[147.701963402, -35.923091972], [147.702316116, -35.923021856], [147.702687933, -35.92293365], [147.703020237, -35.922750947], [147.703424574, -35.922505199], [147.70373645, -35.921903241], [147.703913219, -35.92189615], [147.704819342, -35.921585047], [147.702138817, -35.92446745], [147.701174767, -35.925430378], [147.701149462, -35.925673446], [147.701142049, -35.925672164], [147.701012081, -35.925405512], [147.700520389, -35.924926092], [147.700498814, -35.924715017], [147.700677878, -35.924495175], [147.700830122, -35.924055376], [147.70062198, -35.923550623], [147.700902687, -35.923260791], [147.7012516, -35.923238246], [147.701617411, -35.923162008], [147.701963402, -35.923091972]]], [[[147.704945091, -35.919517998], [147.704727608, -35.919029802], [147.704824786, -35.918876303], [147.707010533, -35.919146199], [147.706878171, -35.919506004], [147.706665913, -35.919599409], [147.70508828, -35.921295851], [147.703862851, -35.921716584], [147.703785698, -35.921719677], [147.704075467, -35.921441399], [147.70397344, -35.920961154], [147.70435873, -35.920482414], [147.704631271, -35.920330851], [147.704930363, -35.919985532], [147.704945091, -35.919517998]]], [[[147.704669386, -35.920009807], [147.704140529, -35.920422652], [147.703782149, -35.920958958], [147.703831665, -35.921437876], [147.703621254, -35.921726274], [147.698520656, -35.921930814], [147.699335457, -35.918967646], [147.700670892, -35.919160389], [147.701378742, -35.918193669], [147.702261092, -35.918321818], [147.704754912, -35.91868398], [147.704613918, -35.919033674], [147.70466944, -35.919512127], [147.704669386, -35.920009807]]], [[[147.707545646, -35.919212273], [147.707155857, -35.919383807], [147.707233154, -35.919173692], [147.707545646, -35.919212273]]], [[[147.711690943, -35.919591933], [147.70832415, -35.919131014], [147.709819557, -35.917793606], [147.710810166, -35.916401258], [147.711876189, -35.915310691], [147.711940953, -35.915250543], [147.711972964, -35.915244797], [147.71200553, -35.91523932], [147.712038177, -35.91523421], [147.712070913, -35.915229486], [147.71210373, -35.915225121], [147.712136619, -35.915221132], [147.712169562, -35.915217502], [147.712202576, -35.915214257], [147.712235635, -35.915211388], [147.712268739, -35.915208878], [147.712301888, -35.915206754], [147.712335064, -35.915204997], [147.712368266, -35.915203616], [147.712401495, -35.915202612], [147.712434733, -35.915201985], [147.712467981, -35.915201725], [147.712501228, -35.915201841], [147.712534475, -35.915202343], [147.712567705, -35.915203213], [147.712600916, -35.91520445], [147.71263411, -35.915206081], [147.712667268, -35.915208071], [147.71270039, -35.915210438], [147.712733467, -35.915213181], [147.712766499, -35.915216291], [147.712799468, -35.915219778], [147.712832375, -35.915223651], [147.712865219, -35.915227873], [147.712897983, -35.915232471], [147.712930664, -35.915237437], [147.712963257, -35.91524278], [147.712995761, -35.915248481], [147.713028157, -35.915254549], [147.713060445, -35.915260986], [147.713092634, -35.915267789], [147.713124699, -35.915274951], [147.713156637, -35.915282472], [147.713188441, -35.915290352], [147.713220111, -35.915298598], [147.713251638, -35.915307195], [147.713283011, -35.915316141], [147.713314233, -35.915325445], [147.713345284, -35.915335118], [147.713376174, -35.915345112], [147.713406894, -35.915355466], [147.713437433, -35.915366169], [147.713467785, -35.915377203], [147.71349794, -35.915388588], [147.713527906, -35.915400313], [147.713557667, -35.915412387], [147.713587221, -35.915424766], [147.71361656, -35.915437495], [147.713645675, -35.915450556], [147.713674566, -35.91546393], [147.713703233, -35.915477636], [147.713731658, -35.915491682], [147.71375984, -35.915506034], [147.713787772, -35.915520699], [147.713815462, -35.915535678], [147.713842883, -35.91555097], [147.713870043, -35.915566567], [147.712598675, -35.915403414], [147.712562013, -35.9155823], [147.714754177, -35.915863615], [147.717221793, -35.916965781], [147.719972367, -35.917289049], [147.721901806, -35.917515765], [147.721851595, -35.920879186], [147.711690943, -35.919591933]]], [[[147.707819426, -35.91804639], [147.707840455, -35.918013708], [147.707861754, -35.91798116], [147.70788333, -35.917948719], [147.707905175, -35.917916404], [147.707927298, -35.917884187], [147.707949673, -35.917852105], [147.707972316, -35.91782014], [147.707995228, -35.917788291], [147.708018408, -35.917756576], [147.708041849, -35.917724978], [147.70806555, -35.917693506], [147.70808952, -35.917662168], [147.70811374, -35.917630964], [147.70813823, -35.917599895], [147.708162962, -35.917568951], [147.708187962, -35.917538133], [147.708213214, -35.917507467], [147.708238725, -35.917476927], [147.708264488, -35.91744653], [147.70829051, -35.917416268], [147.708316765, -35.917386149], [147.708343281, -35.917356182], [147.708370047, -35.917326341], [147.708397056, -35.917296661], [147.708424315, -35.917267125], [147.708451817, -35.917237732], [147.70847956, -35.917208492], [147.708507555, -35.917179403], [147.708535782, -35.917150468], [147.708564243, -35.917121684], [147.708592955, -35.917093053], [147.708621899, -35.917064584], [147.708651077, -35.917036267], [147.708680497, -35.917008111], [147.708710141, -35.916980107], [147.708740027, -35.916952283], [147.708770128, -35.916924611], [147.708800462, -35.916897101], [147.708831029, -35.916869761], [147.708861829, -35.916842591], [147.708892845, -35.916815574], [147.708924075, -35.916788726], [147.708955539, -35.916762068], [147.708987226, -35.91673557], [147.709019129, -35.916709243], [147.709051247, -35.916683095], [147.709083589, -35.916657117], [147.709116128, -35.916631319], [147.709148892, -35.916605691], [147.709181861, -35.916580251], [147.709215046, -35.916554991], [147.709248446, -35.916529909], [147.709282043, -35.916505007], [147.709315846, -35.916480294], [147.709349846, -35.916455759], [147.709384053, -35.916431413], [147.709418474, -35.916407255], [147.709453075, -35.916383277], [147.709487883, -35.916359504], [147.709522887, -35.916335902], [147.709558071, -35.916312515], [147.709593469, -35.916289298], [147.709629047, -35.916266279], [147.709664814, -35.916243456], [147.709700777, -35.91622084], [147.70973692, -35.916198404], [147.709773242, -35.916176173], [147.709809752, -35.916154139], [147.709846442, -35.916132303], [147.709883302, -35.916110682], [147.709920359, -35.91608924], [147.709957577, -35.916068014], [147.709994966, -35.916046993], [147.710032534, -35.916026179], [147.710070272, -35.916005552], [147.71010818, -35.91598515], [147.71014625, -35.915964946], [147.71018449, -35.915944956], [147.710222892, -35.915925163], [147.710261455, -35.915905595], [147.710300179, -35.915886233], [147.710339056, -35.915867077], [147.710378094, -35.915848145], [147.710417285, -35.915829419], [147.710456628, -35.915810909], [147.710496132, -35.915792622], [147.710535771, -35.915774542], [147.710575553, -35.915756685], [147.710615487, -35.915739035], [147.710655574, -35.915721609], [147.710695796, -35.915704407], [147.710736152, -35.915687421], [147.710776651, -35.915670658], [147.710817285, -35.915654111], [147.710858053, -35.915637796], [147.710898955, -35.915621697], [147.710939984, -35.91560583], [147.710981127, -35.915590188], [147.711022424, -35.915574752], [147.71106382, -35.915559567], [147.71110535, -35.915544589], [147.711106336, -35.91554406], [147.711134842, -35.915528848], [147.711163598, -35.91551395], [147.711192587, -35.915499356], [147.711221819, -35.915485104], [147.711251293, -35.915471165], [147.711280981, -35.915457557], [147.711310903, -35.915444264], [147.711341031, -35.915431311], [147.711371374, -35.915418689], [147.711401941, -35.9154064], [147.711432679, -35.91539446], [147.711463622, -35.915382851], [147.711494745, -35.915371593], [147.711526056, -35.915360666], [147.710630537, -35.916291674], [147.709638529, -35.917685868], [147.708062706, -35.91909523], [147.707871191, -35.91906901], [147.70729773, -35.918998159], [147.707700132, -35.91824272], [147.707718365, -35.91821139], [147.707738032, -35.91817817], [147.707757968, -35.918145066], [147.707778183, -35.918112061], [147.707798665, -35.918079163], [147.707819426, -35.91804639]]], [[[147.706522808, -35.915764977], [147.7070107, -35.915527046], [147.707295342, -35.91526355], [147.707469853, -35.915107586], [147.708031696, -35.914880914], [147.708139156, -35.91483102], [147.708412593, -35.914705085], [147.708795499, -35.914605236], [147.709152739, -35.914567157], [147.709586901, -35.914511463], [147.70990081, -35.914391463], [147.710295583, -35.914250396], [147.710675835, -35.914120831], [147.711043904, -35.914013469], [147.711441609, -35.913842625], [147.71181632, -35.913666751], [147.712194062, -35.913495216], [147.712551295, -35.913196483], [147.712920691, -35.912870911], [147.713307513, -35.912473582], [147.713496627, -35.911986444], [147.713511319, -35.9116955], [147.715127522, -35.911893146], [147.71501627, -35.912056138], [147.714636618, -35.912793183], [147.713120056, -35.914535988], [147.712245845, -35.91469206], [147.711819708, -35.915087909], [147.711787563, -35.915094812], [147.711755534, -35.915102073], [147.711723623, -35.915109647], [147.711691827, -35.915117562], [147.711660158, -35.9151258], [147.711628622, -35.915134361], [147.711597213, -35.915143253], [147.711565955, -35.915152468], [147.711534841, -35.915161997], [147.71150388, -35.915171857], [147.71147307, -35.915182031], [147.711442423, -35.915192519], [147.711411954, -35.91520333], [147.711381638, -35.915214445], [147.711351501, -35.915225883], [147.711321552, -35.915237626], [147.711317967, -35.915239051], [147.711287364, -35.915251215], [147.711256958, -35.915263675], [147.711226731, -35.915276458], [147.711196693, -35.915289527], [147.711166862, -35.915302911], [147.711137236, -35.91531659], [147.711107816, -35.915330565], [147.71107862, -35.915344835], [147.711049622, -35.915359402], [147.711020857, -35.915374264], [147.710999173, -35.915385729], [147.710957732, -35.915400824], [147.710916399, -35.915416108], [147.710875201, -35.915431625], [147.710834119, -35.915447356], [147.710793163, -35.915463321], [147.710752341, -35.915479474], [147.710711644, -35.91549586], [147.710671064, -35.915512462], [147.710630628, -35.915529269], [147.710590326, -35.915546283], [147.710550149, -35.915563539], [147.710510107, -35.915580983], [147.710470226, -35.915598651], [147.710430462, -35.915616525], [147.710390859, -35.915634605], [147.710351382, -35.915652901], [147.710312058, -35.915671393], [147.710272885, -35.91569011], [147.710233874, -35.915709015], [147.710194988, -35.915728135], [147.710156264, -35.915747462], [147.710117692, -35.915766985], [147.710079281, -35.915786715], [147.710041023, -35.915806651], [147.710002926, -35.915826793], [147.709964981, -35.915847123], [147.709927216, -35.91586766], [147.709889612, -35.915888393], [147.709852161, -35.915909333], [147.70981488, -35.915930461], [147.709777778, -35.915951787], [147.709740837, -35.915973309], [147.709704067, -35.915995029], [147.709667485, -35.916016937], [147.709631064, -35.916039042], [147.709594832, -35.916061335], [147.709558761, -35.916083826], [147.709522878, -35.916106487], [147.709487183, -35.916129345], [147.709451659, -35.9161524], [147.709416332, -35.916175635], [147.709381193, -35.916199058], [147.709346234, -35.916222678], [147.709311471, -35.916246459], [147.709276897, -35.916270438], [147.709242503, -35.916294587], [147.709208314, -35.916318924], [147.709174323, -35.91634345], [147.709140519, -35.916368136], [147.709106922, -35.916393012], [147.709073514, -35.916418057], [147.709040311, -35.916443273], [147.709007315, -35.916468676], [147.708974524, -35.916494242], [147.70894194, -35.916519986], [147.708909553, -35.916545901], [147.708877382, -35.916571977], [147.708845416, -35.916598233], [147.708813657, -35.91662465], [147.708782122, -35.916651237], [147.708750792, -35.916677994], [147.708719678, -35.916704904], [147.708688789, -35.916731984], [147.708658105, -35.916759217], [147.708627654, -35.91678662], [147.70859741, -35.916814175], [147.708567398, -35.916841892], [147.708537602, -35.916869761], [147.708508039, -35.916897791], [147.708478691, -35.916925974], [147.708449576, -35.916954318], [147.708420694, -35.916982806], [147.708392027, -35.917011445], [147.708363602, -35.917040238], [147.708335411, -35.917069173], [147.708307443, -35.917098261], [147.708279708, -35.917127484], [147.708252216, -35.917156868], [147.708224956, -35.917186377], [147.708197939, -35.917216039], [147.708171155, -35.917245844], [147.708144612, -35.917275784], [147.708118312, -35.917305858], [147.708092254, -35.917336085], [147.708066446, -35.917366419], [147.708040863, -35.917396914], [147.708015549, -35.917427544], [147.707990468, -35.917458291], [147.707965637, -35.917489172], [147.707941058, -35.917520178], [147.70791673, -35.917551319], [147.707892644, -35.917582585], [147.707868817, -35.917613977], [147.707845242, -35.917645486], [147.707821918, -35.917677119], [147.707798854, -35.91770887], [147.70777604, -35.917740755], [147.707753487, -35.917772747], [147.707731194, -35.917804856], [147.70770916, -35.917837073], [147.707687387, -35.917869415], [147.707665864, -35.917901864], [147.70764461, -35.91793443], [147.707623626, -35.917967104], [147.707602883, -35.917999885], [147.707582427, -35.918032774], [147.707562231, -35.918065771], [147.707542296, -35.918098866], [147.70752262, -35.918132077], [147.707503231, -35.91816536], [147.70749796, -35.918174504], [147.70707511, -35.918970648], [147.704921131, -35.918704517], [147.705011273, -35.918545917], [147.705136698, -35.918040178], [147.705269338, -35.917528649], [147.705392164, -35.916930546], [147.705770739, -35.916460797], [147.706146402, -35.916028294], [147.706522808, -35.915764977]]], [[[147.715356111, -35.911921095], [147.720562031, -35.912557572], [147.720634971, -35.912566482], [147.72096377, -35.912606676], [147.724879515, -35.913085244], [147.725584474, -35.915453528], [147.725597346, -35.915496771], [147.7264473, -35.915811568], [147.728167852, -35.916448818], [147.728229229, -35.916427564], [147.728526661, -35.916324559], [147.728679668, -35.916271564], [147.730158248, -35.915759487], [147.733283157, -35.91596357], [147.735884645, -35.915357399], [147.73617618, -35.915392242], [147.736294109, -35.915557896], [147.736548284, -35.915202752], [147.737161984, -35.915059741], [147.738721094, -35.915604805], [147.737312904, -35.92325676], [147.734881959, -35.922955444], [147.731569748, -35.922544803], [147.72992398, -35.924220261], [147.729074179, -35.923889598], [147.727823096, -35.924195798], [147.727719831, -35.924221068], [147.72632106, -35.923847619], [147.725758303, -35.923343699], [147.725537232, -35.924441106], [147.720803713, -35.923804851], [147.719632638, -35.929480942], [147.714823634, -35.928867168], [147.715118423, -35.927470025], [147.716449572, -35.926652393], [147.716477729, -35.925655671], [147.717463792, -35.92563188], [147.718308943, -35.924616261], [147.720812883, -35.923760381], [147.721993671, -35.923356742], [147.72199836, -35.922155353], [147.722002539, -35.921082982], [147.726103965, -35.921627706], [147.726140027, -35.921448749], [147.722074126, -35.92090874], [147.722127098, -35.917359003], [147.720192531, -35.917131686], [147.717293666, -35.916791001], [147.714827359, -35.91568941], [147.714297642, -35.915621445], [147.714273628, -35.915602737], [147.714249318, -35.915584271], [147.71422472, -35.915566083], [147.714199845, -35.915548137], [147.714174692, -35.915530451], [147.714149262, -35.915513025], [147.714123571, -35.915495859], [147.714097602, -35.915478962], [147.714071383, -35.915462334], [147.714044894, -35.915445984], [147.714018163, -35.915429903], [147.713991173, -35.915414099], [147.713963949, -35.915398582], [147.713936485, -35.915383335], [147.713908777, -35.915368383], [147.713880845, -35.915353718], [147.71385268, -35.91533934], [147.7138243, -35.915325248], [147.713795696, -35.915311453], [147.713766877, -35.915297962], [147.71373787, -35.915284767], [147.713708638, -35.915271868], [147.713679209, -35.915259282], [147.713649592, -35.915246984], [147.713619778, -35.915235008], [147.713589794, -35.915223328], [147.713559621, -35.915211961], [147.713529269, -35.915200909], [147.713498757, -35.91519017], [147.713468082, -35.915179754], [147.713437228, -35.915169651], [147.71340623, -35.915159863], [147.713375089, -35.915150397], [147.713343796, -35.915141254], [147.713312368, -35.915132442], [147.713280797, -35.915123944], [147.713249092, -35.915115778], [147.71321727, -35.915107944], [147.713185331, -35.915100423], [147.713153276, -35.915093261], [147.713121113, -35.915086412], [147.713088843, -35.915079895], [147.713056465, -35.915073719], [147.713024007, -35.915067866], [147.712991459, -35.915062362], [147.712958821, -35.91505719], [147.712926112, -35.915052349], [147.712893321, -35.915047849], [147.712860468, -35.91504369], [147.712827553, -35.915039862], [147.712794583, -35.915036393], [147.71276156, -35.915033247], [147.712728483, -35.91503045], [147.71269537, -35.915027985], [147.712662221, -35.915025879], [147.712629045, -35.915024113], [147.712595843, -35.915022678], [147.712562622, -35.915021603], [147.712529384, -35.91502085], [147.712496146, -35.915020446], [147.712462899, -35.915020393], [147.712429652, -35.915020688], [147.712396404, -35.915021307], [147.712363184, -35.915022275], [147.712329972, -35.915023593], [147.712296787, -35.915025242], [147.71226363, -35.91502725], [147.712230499, -35.915029599], [147.712197422, -35.915032279], [147.712173604, -35.915034421], [147.712365254, -35.914856406], [147.713252141, -35.914698066], [147.714813584, -35.912903897], [147.71483404, -35.912880394], [147.71513436, -35.912543572], [147.715218729, -35.912131892], [147.715356111, -35.911921095]]], [[[147.736887051, -35.914729382], [147.736956046, -35.914391655], [147.738900097, -35.914631988], [147.738755221, -35.915419358], [147.737176989, -35.914867598], [147.736710299, -35.914976358], [147.736887051, -35.914729382]]], [[[147.72646591, -35.915619219], [147.725788476, -35.915368299], [147.725117535, -35.913114332], [147.72680553, -35.913320584], [147.726603015, -35.914202434], [147.72646591, -35.915619219]]], [[[147.724912628, -35.91290591], [147.720996883, -35.912427343], [147.723305418, -35.9111815], [147.725386081, -35.910058635], [147.726126684, -35.909883774], [147.727057807, -35.910896427], [147.726854519, -35.913143187], [147.725150648, -35.912934998], [147.725050431, -35.912922744], [147.724912628, -35.91290591]]], [[[147.72598404, -35.909728617], [147.725291233, -35.909892192], [147.723178122, -35.911032573], [147.720668093, -35.912387148], [147.715409071, -35.911744191], [147.718337103, -35.907589412], [147.721122727, -35.90592445], [147.722880075, -35.904300239], [147.722949851, -35.90363659], [147.723070963, -35.903647867], [147.724567616, -35.9079495], [147.725347357, -35.909036186], [147.72598404, -35.909728617]]], [[[147.715700632, -35.908008156], [147.715682945, -35.907514169], [147.715756717, -35.907011675], [147.71580946, -35.906519418], [147.71590368, -35.905960478], [147.716241254, -35.905672385], [147.716633051, -35.905512575], [147.717077179, -35.905526065], [147.717390318, -35.905521816], [147.717763461, -35.905459499], [147.718147872, -35.905288152], [147.718517832, -35.905142693], [147.71887874, -35.905093687], [147.719273817, -35.905078403], [147.719654966, -35.905010142], [147.720029614, -35.904801739], [147.720402685, -35.904467732], [147.720768147, -35.904359599], [147.721123738, -35.904456132], [147.721517382, -35.904580632], [147.721871253, -35.904515061], [147.722112553, -35.904015381], [147.722489381, -35.904017228], [147.722338167, -35.903579615], [147.722728306, -35.903615955], [147.722664242, -35.904225264], [147.720971325, -35.905789909], [147.718167147, -35.90746596], [147.715172494, -35.911715265], [147.713520516, -35.911513235], [147.713521386, -35.911495935], [147.713510881, -35.91099146], [147.713521306, -35.910507306], [147.713678598, -35.909957778], [147.714036985, -35.909433278], [147.714405511, -35.909187324], [147.714813998, -35.909017922], [147.715163781, -35.908822938], [147.715560777, -35.908509494], [147.715700632, -35.908008156]]]]}, "bbox": [147.697857097, -35.929480942, 147.738900097, -35.903579615]}], "bbox": [147.697857097, -35.929480942, 147.738900097, -35.903579615]}