{"type": "FeatureCollection", "features": [{"id": "0", "type": "Feature", "properties": {}, "geometry": {"type": "MultiPolygon", "coordinates": [[[[145.767160212, -34.892208695], [145.767278537, -34.892059301], [145.76908267, -34.889781457], [145.774463272, -34.891611067], [145.778011421, -34.890855297], [145.777555039, -34.893374693], [145.777522545, -34.893554125], [145.776484385, -34.899285178], [145.776212229, -34.899251724], [145.761031705, -34.894897672], [145.761650434, -34.893943654], [145.767117364, -34.892222185], [145.767160212, -34.892208695]]], [[[145.786607924, -34.897409924], [145.78613113, -34.897853452], [145.785756579, -34.898010904], [145.777421667, -34.899567059], [145.776957046, -34.899499184], [145.776810978, -34.899325354], [145.77859322, -34.889486113], [145.780926052, -34.886984], [145.783947471, -34.88374304], [145.78293181, -34.880837414], [145.784545031, -34.879494593], [145.794128903, -34.880651708], [145.79436036, -34.885443542], [145.79427072, -34.885866659], [145.792605168, -34.888375971], [145.786607924, -34.897409924]]], [[[145.780099023, -34.878713428], [145.78020807, -34.878725502], [145.778279301, -34.889376259], [145.777952761, -34.889336101], [145.777717134, -34.890637006], [145.77448734, -34.891324955], [145.768955714, -34.889443972], [145.767555481, -34.88471062], [145.767152506, -34.883348311], [145.77831095, -34.879740538], [145.779368771, -34.878632564], [145.780099023, -34.878713428]]], [[[145.783625709, -34.883641622], [145.77869359, -34.888931924], [145.78049125, -34.879004918], [145.784206964, -34.879453762], [145.782622785, -34.880772398], [145.783625709, -34.883641622]]], [[[145.783183001, -34.864135604], [145.783627516, -34.861679512], [145.786583668, -34.862024491], [145.793986599, -34.862888394], [145.795560987, -34.863072101], [145.796181563, -34.863275135], [145.795877594, -34.863565989], [145.80339404, -34.86602504], [145.803454923, -34.865898631], [145.809178361, -34.867770676], [145.808514873, -34.871663593], [145.802034343, -34.875041968], [145.794547137, -34.877170604], [145.794000102, -34.877985025], [145.794117771, -34.880421235], [145.780531848, -34.878780685], [145.780534574, -34.878765652], [145.780599302, -34.878408169], [145.781000612, -34.876191612], [145.781891712, -34.871269425], [145.783183001, -34.864135604]]]]}, "bbox": [145.761031705, -34.899567059, 145.809178361, -34.861679512]}], "bbox": [145.761031705, -34.899567059, 145.809178361, -34.861679512]}